{
  "features": [
    {
      "geometry": {
        "coordinates": [
          -122.4843866,
          47.1983927
        ],
        "type": "Point"
      },
      "properties": {
        "address": "6402 SOUTH TACOMA WAY Tacoma WA 98409",
        "business_name": "TAQUERIA Y BIRRIERIA LA PLACITA - TPCHD #0524",
        "city": "Tacoma",
        "closure_actionable": false,
        "closure_context": "",
        "closure_duration_days": "",
        "closure_duration_hours": "",
        "closure_duration_text": "",
        "closure_reader_explanation": "",
        "closure_reader_label": "",
        "closure_reason_summary": "",
        "closure_reopen_date": "",
        "closure_status_raw": "A Reinspection is Required | Routine Inspection | We are still new | A Reinspection is Required | Routine Inspection | We are still new | Routine Inspection",
        "current_grade": "We are still new",
        "current_last_inspection_date": "10/01/2026",
        "current_rating_category": "rating_new",
        "current_rating_color": "#2563eb",
        "current_rating_label": "New",
        "current_rating_letter": "N",
        "current_score": "50",
        "current_status_category": "reinspection_required",
        "current_status_explanation": "The inspection result or parsed PDF follow-up field indicates a follow-up/reinspection is still needed.",
        "current_status_label": "Reinspection required",
        "current_status_timing": "same_day",
        "current_status_timing_label": "Current TPCHD status is from the same date as this inspection: October 1, 2026.",
        "date": "2026-10-01",
        "facility_detail_url": "https://aca-prod.accela.com/TPCHD/GeneralProperty/FoodFacilityInspectionDetail.aspx?LicenseeNumber=FEP2026-00359&LicenseeType=Food+Facility",
        "facility_id": "FEP2026-00359",
        "follow_up_comment_summary": "Due to 35 or more red points, a follow-up inspection will be conducted for the red item violations noted in this inspection report. A fee of $240 will be assessed by mail for all follow-up inspections. If repeated red item violations are observed at a follow-up inspection, an additional follow-up inspection will be required.",
        "follow_up_inspection_date": "",
        "follow_up_inspection_date_iso": "",
        "follow_up_inspection_result": "",
        "follow_up_inspection_type": "",
        "follow_up_label": "No later follow-up or reinspection observed in TPCHD inspection history.",
        "follow_up_needed": "yes",
        "follow_up_red_points": "",
        "follow_up_status": "not_observed",
        "geocode_status": "ok",
        "inspection_comments": "Purpose: To conduct a food safety inspection in accordance with WAC Chapter 246-215. Due to 35 or more red points, a follow-up inspection will be conducted for the red item violations noted in this inspection report. A fee of $240 will be assessed by mail for all follow-up inspections. If repeated red item violations are observed at a follow-up inspection, an additional follow-up inspection will be required. Notes: -First routine after pre-opening inspection. -Ensure produce is being placed into clean, food safe containers after rinsing at the commissary. Unrinsed produce is not allowed on the mobile unit and produce that is placed back into original packaging requires rinsing again. -Label homestyle microwave for employee use only. If observed being used for customer orders, a commercial unit will be required to be installed. - Inspector suggests purchasing back-up digital probe thermometers to encourage frequent temperature taking. Ensure thermometer is being cleaned/sanitized in between uses. -Provided vomit/diarrhea cleanup plan while on site. Maintain plan on site in case of emergency. - Could not verify whether newly added 1-door countertop cooler was commercial/NSF grade while on site. Unit is currently being used to hold non-TCS soda only. Submit unit make and model to food@tpchd.org for review. - Facility has completed 4 of 5 compliance orders from pre-opening inspection. The following compliance order remains open: -During PO inspection, 3 compartment sink on mobile had running hot/cold running water and was not covered based on the approved conditions. Disconnect hot/cold running water to 3 compartment sink and cover basins of sink per the approved plans. -Facility has covered basins at 3-comp sink, but still needs to disconnect the water to the 3-comp sink, so compliance order will remain open.",
        "inspection_date": "10/01/2026",
        "inspection_date_iso": "2026-10-01",
        "inspection_identity": "FEP2026-00359|910899",
        "inspection_result": "A Reinspection is Required",
        "inspection_type": "Routine Inspection",
        "inspection_year": "2026",
        "next_follow_up_date": "",
        "official_red_points_authoritative": "",
        "original_report_quality_status": "",
        "parser_quality_notes": "",
        "point_total_conflict": "",
        "record_id": "tpchd-16953540188b",
        "red_point_evidence_reviewed": "",
        "red_point_evidence_status": "confirmed",
        "red_point_severity": "red_points_35_50",
        "red_point_severity_label": "35-50 red points",
        "red_points": 50,
        "repeat_red_points": 0,
        "report_fetch_status": "ok",
        "report_quality_review_note": "",
        "report_quality_review_source": "",
        "report_quality_reviewed": "",
        "report_quality_reviewed_at": "",
        "report_quality_status": "ok",
        "report_url": "https://aca-prod.accela.com/TPCHD/GET_INSP_DOCHandler.ashx?AltId=FEP2026-00359&InspId=910899",
        "source": "TPCHD Accela",
        "total_points": 50,
        "zip": "98409"
      },
      "type": "Feature"
    },
    {
      "geometry": {
        "coordinates": [
          -122.6227743,
          47.094489
        ],
        "type": "Point"
      },
      "properties": {
        "address": "800 Station DR Dupont WA 98327 United States",
        "business_name": "HAMPTON INN & SUITES",
        "city": "Dupont",
        "closure_actionable": false,
        "closure_context": "",
        "closure_duration_days": "",
        "closure_duration_hours": "",
        "closure_duration_text": "",
        "closure_reader_explanation": "",
        "closure_reader_label": "",
        "closure_reason_summary": "",
        "closure_reopen_date": "",
        "closure_status_raw": "A Reinspection is Required | Reinspection With Charge | A Reinspection is Required | Reinspection With Charge | Reinspection",
        "current_grade": "",
        "current_last_inspection_date": "09/24/2026",
        "current_rating_category": "rating_not_posted",
        "current_rating_color": "#6b7280",
        "current_rating_label": "No grade shown by TPCHD",
        "current_rating_letter": "i",
        "current_score": "5",
        "current_status_category": "reinspection_required",
        "current_status_explanation": "The inspection result or parsed PDF follow-up field indicates a follow-up/reinspection is still needed.",
        "current_status_label": "Reinspection required",
        "current_status_timing": "same_day",
        "current_status_timing_label": "Current TPCHD status is from the same date as this inspection: September 24, 2026.",
        "date": "2026-09-24",
        "facility_detail_url": "https://aca-prod.accela.com/TPCHD/GeneralProperty/FoodFacilityInspectionDetail.aspx?LicenseeNumber=PR0032575&LicenseeType=Food+Facility",
        "facility_id": "PR0032575",
        "follow_up_comment_summary": "",
        "follow_up_inspection_date": "",
        "follow_up_inspection_date_iso": "",
        "follow_up_inspection_result": "",
        "follow_up_inspection_type": "",
        "follow_up_label": "No later follow-up or reinspection observed in TPCHD inspection history.",
        "follow_up_needed": "yes",
        "follow_up_red_points": "",
        "follow_up_status": "not_observed",
        "geocode_status": "ok",
        "inspection_comments": "",
        "inspection_date": "09/24/2026",
        "inspection_date_iso": "2026-09-24",
        "inspection_identity": "PR0032575|911815",
        "inspection_result": "A Reinspection is Required",
        "inspection_type": "Reinspection With Charge",
        "inspection_year": "2026",
        "next_follow_up_date": "",
        "official_red_points_authoritative": "",
        "original_report_quality_status": "",
        "parser_quality_notes": "",
        "point_total_conflict": "",
        "record_id": "tpchd-4703206637e3",
        "red_point_evidence_reviewed": "",
        "red_point_evidence_status": "confirmed",
        "red_point_severity": "red_points_35_50",
        "red_point_severity_label": "35-50 red points",
        "red_points": 35,
        "repeat_red_points": 0,
        "report_fetch_status": "ok",
        "report_quality_review_note": "",
        "report_quality_review_source": "",
        "report_quality_reviewed": "",
        "report_quality_reviewed_at": "",
        "report_quality_status": "ok",
        "report_url": "https://aca-prod.accela.com/TPCHD/GET_INSP_DOCHandler.ashx?AltId=PR0032575&InspId=911815",
        "source": "TPCHD Accela",
        "total_points": 35,
        "zip": "98327"
      },
      "type": "Feature"
    }
  ],
  "metadata": {
    "available_years": [
      "2026"
    ],
    "coverage_note": "The map includes facilities with inspections with 35 or more red points. Locations come from facility addresses shown in TPCHD inspection records.",
    "data_universe": "TPCHD Accela food-facility inspection records observed by this publication run with parsed PDF reports; this public map layer includes only records with 35 or more red points.",
    "data_version": "20261005132737Z",
    "features_total": 2,
    "freshness_note": "Generated from the latest TPCHD inspection data publication run. The public map typically updates once a week.",
    "generated_at": "2026-10-05T13:27:37Z",
    "geometry_precision": "facility address from TPCHD inspection records",
    "inspection_date_window_end": "2026-10-01",
    "inspection_date_window_label": "September 24-October 1, 2026",
    "inspection_date_window_start": "2026-09-24",
    "map_cannot_show": "This map does not include inspections with fewer than 35 red points.",
    "map_claim": "Shows facilities with inspections with 35 or more red points, with current TPCHD status and later observed inspection context where available.",
    "map_type": "point_symbol",
    "privacy": {
      "excludes": [
        "Google Sheet IDs",
        "Gmail recipients",
        "raw PDF text",
        "raw collection payloads",
        "internal notes",
        "local paths"
      ],
      "public_fields_only": true,
      "review": "Exact restaurant locations are public commercial facility addresses from public inspection records."
    },
    "project": "tpchd-restaurant-inspections",
    "records_above_threshold": 2,
    "records_excluded_by_threshold": 0,
    "records_excluded_unparsed": 0,
    "records_total": 2,
    "red_point_threshold": 35,
    "schema_version": 1,
    "scope": "alert",
    "source": "TPCHD Accela food-facility inspection reports",
    "source_note": "Tacoma-Pierce County Health Department inspection reports.",
    "symbology": {
      "alert_categories": [
        {
          "color": "#d6604d",
          "icon": "exclamation",
          "id": "red_points_35_50",
          "label": "35-50 red points",
          "max": 50,
          "min": 35,
          "shape": "diamond",
          "stroke": "#ffffff"
        },
        {
          "color": "#c23030",
          "icon": "exclamation",
          "id": "red_points_51_75",
          "label": "51-75 red points",
          "max": 75,
          "min": 51,
          "shape": "diamond",
          "stroke": "#ffffff"
        },
        {
          "color": "#9f1d2d",
          "icon": "exclamation",
          "id": "red_points_76_100",
          "label": "76-100 red points",
          "max": 100,
          "min": 76,
          "shape": "diamond",
          "stroke": "#ffffff"
        },
        {
          "color": "#67000d",
          "icon": "exclamation",
          "id": "red_points_101_plus",
          "label": "101+ red points",
          "max": null,
          "min": 101,
          "shape": "diamond",
          "stroke": "#ffffff"
        }
      ],
      "evergreen_categories": [
        {
          "color": "#2e7d32",
          "id": "rating_great",
          "label": "Great",
          "letter": "G",
          "shape": "circle"
        },
        {
          "color": "#d88c1f",
          "id": "rating_okay",
          "label": "Okay",
          "letter": "O",
          "shape": "circle"
        },
        {
          "color": "#b61f2d",
          "id": "rating_needs_improve",
          "label": "Needs to improve",
          "letter": "N",
          "shape": "circle"
        },
        {
          "color": "#4b5563",
          "id": "rating_closed",
          "label": "Closed",
          "letter": "C",
          "shape": "circle"
        },
        {
          "color": "#2563eb",
          "id": "rating_new",
          "label": "New",
          "letter": "N",
          "shape": "circle"
        },
        {
          "color": "#6b7280",
          "id": "rating_not_posted",
          "label": "No grade shown by TPCHD",
          "letter": "i",
          "shape": "circle"
        },
        {
          "color": "#6b7280",
          "id": "rating_unknown",
          "label": "Status unknown",
          "letter": "?",
          "shape": "circle"
        }
      ],
      "note": "Evergreen markers use current TPCHD rating as the primary color/letter encoding. Alert/run maps use fixed red-point classes with darker red for higher totals. Marker size does not encode severity."
    },
    "threshold_label": "35 or more red points",
    "threshold_rule": "red_points >= 35",
    "title": "TPCHD inspections with 35 or more red points: September 24-October 1, 2026",
    "unmapped_records": 0,
    "unmapped_records_by_reason": {},
    "unmapped_records_detail": []
  },
  "type": "FeatureCollection"
}
