{
  "features": [
    {
      "geometry": {
        "coordinates": [
          -122.5776925,
          47.3024686
        ],
        "type": "Point"
      },
      "properties": {
        "address": "4827 Point Fosdick DR Gig Harbor WA 98335 United States",
        "business_name": "APPLEBEE'S NEIGHBORHOOD GRILL & BAR",
        "city": "Gig Harbor",
        "closure_actionable": false,
        "closure_context": "",
        "closure_duration_days": "",
        "closure_duration_hours": "",
        "closure_duration_text": "",
        "closure_reader_explanation": "",
        "closure_reader_label": "",
        "closure_reason_summary": "",
        "closure_reopen_date": "",
        "closure_status_raw": "A Reinspection is Required | Routine Inspection | Great | A Reinspection is Required | Routine Inspection | Great | Routine Inspection",
        "current_grade": "Great",
        "current_last_inspection_date": "06/18/2026",
        "current_rating_category": "rating_great",
        "current_rating_color": "#2e7d32",
        "current_rating_label": "Great",
        "current_rating_letter": "G",
        "current_score": "45",
        "current_status_category": "reinspection_required",
        "current_status_explanation": "The inspection result or parsed PDF follow-up field indicates a follow-up/reinspection is still needed.",
        "current_status_label": "Reinspection required",
        "current_status_timing": "same_day",
        "current_status_timing_label": "Current TPCHD status is from the same date as this inspection: June 18, 2026.",
        "date": "2026-06-18",
        "facility_detail_url": "https://aca-prod.accela.com/TPCHD/GeneralProperty/FoodFacilityInspectionDetail.aspx?LicenseeNumber=PR0032633&LicenseeType=Food+Facility",
        "facility_id": "PR0032633",
        "follow_up_comment_summary": "Due to 35 or more red points, a follow-up inspection will be conducted for the red item violations noted in this inspection report. A fee of $240 will be assessed by mail for all follow-up inspections. If repeated red item violations are observed at a follow-up inspection, an additional follow-up inspection will be required.",
        "follow_up_inspection_date": "",
        "follow_up_inspection_date_iso": "",
        "follow_up_inspection_result": "",
        "follow_up_inspection_type": "",
        "follow_up_label": "No later follow-up or reinspection observed in TPCHD inspection history.",
        "follow_up_needed": "yes",
        "follow_up_red_points": "",
        "follow_up_status": "not_observed",
        "geocode_status": "ok",
        "inspection_comments": "Purpose: To conduct a food safety inspection in accordance with WAC Chapter 246-215. Due to 35 or more red points, a follow-up inspection will be conducted for the red item violations noted in this inspection report. A fee of $240 will be assessed by mail for all follow-up inspections. If repeated red item violations are observed at a follow-up inspection, an additional follow-up inspection will be required. Notes: -after washing produce place into a new clean container -ensure all food worker cards are available at future inspections.",
        "inspection_date": "06/18/2026",
        "inspection_date_iso": "2026-06-18",
        "inspection_identity": "PR0032633|629455",
        "inspection_result": "A Reinspection is Required",
        "inspection_type": "Routine Inspection",
        "inspection_year": "2026",
        "next_follow_up_date": "",
        "official_red_points_authoritative": "",
        "original_report_quality_status": "",
        "parser_quality_notes": "",
        "point_total_conflict": "",
        "record_id": "tpchd-37b2ea69d4c1",
        "red_point_evidence_reviewed": "",
        "red_point_severity": "red_points_35_50",
        "red_point_severity_label": "35-50 red points",
        "red_points": 45,
        "repeat_red_points": 0,
        "report_fetch_status": "ok",
        "report_quality_review_note": "",
        "report_quality_review_source": "",
        "report_quality_reviewed": "",
        "report_quality_reviewed_at": "",
        "report_quality_status": "ok",
        "report_url": "https://aca-prod.accela.com/TPCHD/GET_INSP_DOCHandler.ashx?AltId=PR0032633&InspId=629455",
        "source": "TPCHD Accela",
        "total_points": 45,
        "zip": "98335"
      },
      "type": "Feature"
    },
    {
      "geometry": {
        "coordinates": [
          -122.5805578,
          47.3050941
        ],
        "type": "Point"
      },
      "properties": {
        "address": "5160 Point Fosdick NW STE C101 Gig Harbor WA 98335 United States",
        "business_name": "YUMMI TERIYAKI & PHO",
        "city": "Gig Harbor",
        "closure_actionable": false,
        "closure_context": "",
        "closure_duration_days": "",
        "closure_duration_hours": "",
        "closure_duration_text": "",
        "closure_reader_explanation": "",
        "closure_reader_label": "",
        "closure_reason_summary": "",
        "closure_reopen_date": "",
        "closure_status_raw": "A Reinspection is Required | Reinspection With Charge | A Reinspection is Required | Reinspection With Charge | Reinspection",
        "current_grade": "",
        "current_last_inspection_date": "06/18/2026",
        "current_rating_category": "rating_not_posted",
        "current_rating_color": "#6b7280",
        "current_rating_label": "No grade shown by TPCHD",
        "current_rating_letter": "i",
        "current_score": "35",
        "current_status_category": "reinspection_required",
        "current_status_explanation": "The inspection result or parsed PDF follow-up field indicates a follow-up/reinspection is still needed.",
        "current_status_label": "Reinspection required",
        "current_status_timing": "same_day",
        "current_status_timing_label": "Current TPCHD status is from the same date as this inspection: June 18, 2026.",
        "date": "2026-06-18",
        "facility_detail_url": "https://aca-prod.accela.com/TPCHD/GeneralProperty/FoodFacilityInspectionDetail.aspx?LicenseeNumber=PR0039691&LicenseeType=Food+Facility",
        "facility_id": "PR0039691",
        "follow_up_comment_summary": "Purpose: To conduct a follow -up inspection for red item violations violation #17-proper hot holding temperatures, violation #19-no room temperature storage, violation #25-toxic substances properly used, violation #26-compliance with valid permit. A $240 fee will be assessed by mail for this follow-up inspection. Due to repeated red item violations; #17-proper hot holding temperature, violation #25-toxic substances properly used an additional follow-up inspection will be conducted.",
        "follow_up_inspection_date": "",
        "follow_up_inspection_date_iso": "",
        "follow_up_inspection_result": "",
        "follow_up_inspection_type": "",
        "follow_up_label": "No later follow-up or reinspection observed in TPCHD inspection history.",
        "follow_up_needed": "yes",
        "follow_up_red_points": "",
        "follow_up_status": "not_observed",
        "geocode_status": "ok",
        "inspection_comments": "Purpose: To conduct a follow -up inspection for red item violations violation #17-proper hot holding temperatures, violation #19-no room temperature storage, violation #25-toxic substances properly used, violation #26-compliance with valid permit. A $240 fee will be assessed by mail for this follow-up inspection. Due to repeated red item violations; #17-proper hot holding temperature, violation #25-toxic substances properly used an additional follow-up inspection will be conducted. A $240 fee will be assessed by mail for the next follow-up inspection.",
        "inspection_date": "06/18/2026",
        "inspection_date_iso": "2026-06-18",
        "inspection_identity": "PR0039691|836178",
        "inspection_result": "A Reinspection is Required",
        "inspection_type": "Reinspection With Charge",
        "inspection_year": "2026",
        "next_follow_up_date": "",
        "official_red_points_authoritative": "",
        "original_report_quality_status": "",
        "parser_quality_notes": "",
        "point_total_conflict": "",
        "record_id": "tpchd-a1bdc05c0aff",
        "red_point_evidence_reviewed": "",
        "red_point_severity": "red_points_35_50",
        "red_point_severity_label": "35-50 red points",
        "red_points": 35,
        "repeat_red_points": 0,
        "report_fetch_status": "ok",
        "report_quality_review_note": "",
        "report_quality_review_source": "",
        "report_quality_reviewed": "",
        "report_quality_reviewed_at": "",
        "report_quality_status": "ok",
        "report_url": "https://aca-prod.accela.com/TPCHD/GET_INSP_DOCHandler.ashx?AltId=PR0039691&InspId=836178",
        "source": "TPCHD Accela",
        "total_points": 35,
        "zip": "98335"
      },
      "type": "Feature"
    },
    {
      "geometry": {
        "coordinates": [
          -122.5337502,
          47.1370399
        ],
        "type": "Point"
      },
      "properties": {
        "address": "13204 Country Club DR SW Lakewood WA 98498 United States",
        "business_name": "TACOMA COUNTRY & GOLF CLUB - MAIN RESTAURANT",
        "city": "Lakewood",
        "closure_actionable": false,
        "closure_context": "",
        "closure_duration_days": "",
        "closure_duration_hours": "",
        "closure_duration_text": "",
        "closure_reader_explanation": "",
        "closure_reader_label": "",
        "closure_reason_summary": "",
        "closure_reopen_date": "",
        "closure_status_raw": "A Reinspection is Required | Routine Inspection | Great | A Reinspection is Required | Routine Inspection | Great | Routine Inspection",
        "current_grade": "Great",
        "current_last_inspection_date": "06/17/2026",
        "current_rating_category": "rating_great",
        "current_rating_color": "#2e7d32",
        "current_rating_label": "Great",
        "current_rating_letter": "G",
        "current_score": "35",
        "current_status_category": "reinspection_required",
        "current_status_explanation": "The inspection result or parsed PDF follow-up field indicates a follow-up/reinspection is still needed.",
        "current_status_label": "Reinspection required",
        "current_status_timing": "same_day",
        "current_status_timing_label": "Current TPCHD status is from the same date as this inspection: June 17, 2026.",
        "date": "2026-06-17",
        "facility_detail_url": "https://aca-prod.accela.com/TPCHD/GeneralProperty/FoodFacilityInspectionDetail.aspx?LicenseeNumber=PR0030540&LicenseeType=Food+Facility",
        "facility_id": "PR0030540",
        "follow_up_comment_summary": "Due to 35 or more red points, a follow-up inspection will be conducted for the red item violations noted in this inspection report. A fee of $240 will be assessed by mail for all follow-up inspections. If repeated red item violations are observed at a follow-up inspection, an additional follow-up inspection will be required.",
        "follow_up_inspection_date": "",
        "follow_up_inspection_date_iso": "",
        "follow_up_inspection_result": "",
        "follow_up_inspection_type": "",
        "follow_up_label": "No later follow-up or reinspection observed in TPCHD inspection history.",
        "follow_up_needed": "yes",
        "follow_up_red_points": "",
        "follow_up_status": "not_observed",
        "geocode_status": "ok",
        "inspection_comments": "Purpose: To conduct a food safety inspection in accordance with WAC Chapter 246-215. Due to 35 or more red points, a follow-up inspection will be conducted for the red item violations noted in this inspection report. A fee of $240 will be assessed by mail for all follow-up inspections. If repeated red item violations are observed at a follow-up inspection, an additional follow-up inspection will be required. Notes: - Store raw meats and raw shell eggs below and away from ready to eat foods. - Be sure to keep soap, hot water, and paper towels stocked at every hand sink. - Store squeeze bottles with TCS food in the bottom of the prep coolers or use trays designed for squeeze bottles to ensure foods remain at 41F or below at all times.",
        "inspection_date": "06/17/2026",
        "inspection_date_iso": "2026-06-17",
        "inspection_identity": "PR0030540|381813",
        "inspection_result": "A Reinspection is Required",
        "inspection_type": "Routine Inspection",
        "inspection_year": "2026",
        "next_follow_up_date": "",
        "official_red_points_authoritative": "",
        "original_report_quality_status": "",
        "parser_quality_notes": "",
        "point_total_conflict": "",
        "record_id": "tpchd-93cc97f915f2",
        "red_point_evidence_reviewed": "",
        "red_point_severity": "red_points_35_50",
        "red_point_severity_label": "35-50 red points",
        "red_points": 35,
        "repeat_red_points": 0,
        "report_fetch_status": "ok",
        "report_quality_review_note": "",
        "report_quality_review_source": "",
        "report_quality_reviewed": "",
        "report_quality_reviewed_at": "",
        "report_quality_status": "ok",
        "report_url": "https://aca-prod.accela.com/TPCHD/GET_INSP_DOCHandler.ashx?AltId=PR0030540&InspId=381813",
        "source": "TPCHD Accela",
        "total_points": 40,
        "zip": "98498"
      },
      "type": "Feature"
    },
    {
      "geometry": {
        "coordinates": [
          -122.5039816,
          47.2071326
        ],
        "type": "Point"
      },
      "properties": {
        "address": "5013 S 56th ST STE C-D Tacoma WA 98409 United States",
        "business_name": "LA ILLUSION MEXICAN ASADERO AL CARBON",
        "city": "Tacoma",
        "closure_actionable": false,
        "closure_context": "",
        "closure_duration_days": "",
        "closure_duration_hours": "",
        "closure_duration_text": "",
        "closure_reader_explanation": "",
        "closure_reader_label": "",
        "closure_reason_summary": "",
        "closure_reopen_date": "",
        "closure_status_raw": "A Reinspection is Required | Routine Inspection | Great | A Reinspection is Required | Routine Inspection | Great | Routine Inspection",
        "current_grade": "Great",
        "current_last_inspection_date": "06/16/2026",
        "current_rating_category": "rating_great",
        "current_rating_color": "#2e7d32",
        "current_rating_label": "Great",
        "current_rating_letter": "G",
        "current_score": "50",
        "current_status_category": "reinspection_required",
        "current_status_explanation": "The inspection result or parsed PDF follow-up field indicates a follow-up/reinspection is still needed.",
        "current_status_label": "Reinspection required",
        "current_status_timing": "same_day",
        "current_status_timing_label": "Current TPCHD status is from the same date as this inspection: June 16, 2026.",
        "date": "2026-06-16",
        "facility_detail_url": "https://aca-prod.accela.com/TPCHD/GeneralProperty/FoodFacilityInspectionDetail.aspx?LicenseeNumber=PR0036189&LicenseeType=Food+Facility",
        "facility_id": "PR0036189",
        "follow_up_comment_summary": "Due to 35 or more red points, a follow-up inspection will be conducted for the red item violations noted in this inspection report. A fee of $240 will be assessed by mail for all follow-up inspections. If repeated red item violations are observed at a follow-up inspection, an additional follow-up inspection will be required.",
        "follow_up_inspection_date": "",
        "follow_up_inspection_date_iso": "",
        "follow_up_inspection_result": "",
        "follow_up_inspection_type": "",
        "follow_up_label": "No later follow-up or reinspection observed in TPCHD inspection history.",
        "follow_up_needed": "yes",
        "follow_up_red_points": "",
        "follow_up_status": "not_observed",
        "geocode_status": "ok",
        "inspection_comments": "Purpose: To conduct a food safety inspection in accordance with WAC Chapter 246-215. Due to 35 or more red points, a follow-up inspection will be conducted for the red item violations noted in this inspection report. A fee of $240 will be assessed by mail for all follow-up inspections. If repeated red item violations are observed at a follow-up inspection, an additional follow-up inspection will be required. Notes: - Provide a 12 inch, smooth, durable splash guard to food preparation sinks to avoid contamination.",
        "inspection_date": "06/16/2026",
        "inspection_date_iso": "2026-06-16",
        "inspection_identity": "PR0036189|380182",
        "inspection_result": "A Reinspection is Required",
        "inspection_type": "Routine Inspection",
        "inspection_year": "2026",
        "next_follow_up_date": "",
        "official_red_points_authoritative": "",
        "original_report_quality_status": "",
        "parser_quality_notes": "",
        "point_total_conflict": "",
        "record_id": "tpchd-ec74f4c7c85d",
        "red_point_evidence_reviewed": "",
        "red_point_severity": "red_points_35_50",
        "red_point_severity_label": "35-50 red points",
        "red_points": 50,
        "repeat_red_points": 25,
        "report_fetch_status": "ok",
        "report_quality_review_note": "",
        "report_quality_review_source": "",
        "report_quality_reviewed": "",
        "report_quality_reviewed_at": "",
        "report_quality_status": "ok",
        "report_url": "https://aca-prod.accela.com/TPCHD/GET_INSP_DOCHandler.ashx?AltId=PR0036189&InspId=380182",
        "source": "TPCHD Accela",
        "total_points": 55,
        "zip": "98409"
      },
      "type": "Feature"
    }
  ],
  "metadata": {
    "available_years": [
      "2026"
    ],
    "coverage_note": "The map includes facilities with inspections with 35 or more red points. Locations come from facility addresses shown in TPCHD inspection records.",
    "data_universe": "TPCHD Accela food-facility inspection records observed by this publication run with parsed PDF reports; this public map layer includes only records with 35 or more red points.",
    "data_version": "20260623174141Z",
    "features_total": 4,
    "freshness_note": "Generated from the latest TPCHD inspection data publication run. The public map typically updates once a week.",
    "generated_at": "2026-06-23T17:41:41Z",
    "geometry_precision": "facility address from TPCHD inspection records",
    "inspection_date_window_end": "2026-06-18",
    "inspection_date_window_label": "June 16-18, 2026",
    "inspection_date_window_start": "2026-06-16",
    "map_cannot_show": "This map does not include inspections with fewer than 35 red points.",
    "map_claim": "Shows facilities with inspections with 35 or more red points, with current TPCHD status and later observed inspection context where available.",
    "map_type": "point_symbol",
    "privacy": {
      "excludes": [
        "Google Sheet IDs",
        "Gmail recipients",
        "raw PDF text",
        "raw collection payloads",
        "internal notes",
        "local paths"
      ],
      "public_fields_only": true,
      "review": "Exact restaurant locations are public commercial facility addresses from public inspection records."
    },
    "project": "tpchd-restaurant-inspections",
    "records_above_threshold": 4,
    "records_excluded_by_threshold": 0,
    "records_excluded_unparsed": 0,
    "records_total": 4,
    "red_point_threshold": 35,
    "schema_version": 1,
    "scope": "alert",
    "source": "TPCHD Accela food-facility inspection reports",
    "source_note": "Tacoma-Pierce County Health Department inspection reports.",
    "symbology": {
      "alert_categories": [
        {
          "color": "#d6604d",
          "icon": "exclamation",
          "id": "red_points_35_50",
          "label": "35-50 red points",
          "max": 50,
          "min": 35,
          "shape": "diamond",
          "stroke": "#ffffff"
        },
        {
          "color": "#c23030",
          "icon": "exclamation",
          "id": "red_points_51_75",
          "label": "51-75 red points",
          "max": 75,
          "min": 51,
          "shape": "diamond",
          "stroke": "#ffffff"
        },
        {
          "color": "#9f1d2d",
          "icon": "exclamation",
          "id": "red_points_76_100",
          "label": "76-100 red points",
          "max": 100,
          "min": 76,
          "shape": "diamond",
          "stroke": "#ffffff"
        },
        {
          "color": "#67000d",
          "icon": "exclamation",
          "id": "red_points_101_plus",
          "label": "101+ red points",
          "max": null,
          "min": 101,
          "shape": "diamond",
          "stroke": "#ffffff"
        }
      ],
      "evergreen_categories": [
        {
          "color": "#2e7d32",
          "id": "rating_great",
          "label": "Great",
          "letter": "G",
          "shape": "circle"
        },
        {
          "color": "#d88c1f",
          "id": "rating_okay",
          "label": "Okay",
          "letter": "O",
          "shape": "circle"
        },
        {
          "color": "#b61f2d",
          "id": "rating_needs_improve",
          "label": "Needs to improve",
          "letter": "N",
          "shape": "circle"
        },
        {
          "color": "#4b5563",
          "id": "rating_closed",
          "label": "Closed",
          "letter": "C",
          "shape": "circle"
        },
        {
          "color": "#2563eb",
          "id": "rating_new",
          "label": "New",
          "letter": "N",
          "shape": "circle"
        },
        {
          "color": "#6b7280",
          "id": "rating_not_posted",
          "label": "No grade shown by TPCHD",
          "letter": "i",
          "shape": "circle"
        },
        {
          "color": "#6b7280",
          "id": "rating_unknown",
          "label": "Status unknown",
          "letter": "?",
          "shape": "circle"
        }
      ],
      "note": "Evergreen markers use current TPCHD rating as the primary color/letter encoding. Alert/run maps use fixed red-point classes with darker red for higher totals. Marker size does not encode severity."
    },
    "threshold_label": "35 or more red points",
    "threshold_rule": "red_points >= 35",
    "title": "TPCHD inspections with 35 or more red points: June 16-18, 2026",
    "unmapped_records": 0,
    "unmapped_records_by_reason": {},
    "unmapped_records_detail": []
  },
  "type": "FeatureCollection"
}
