{
  "features": [
    {
      "geometry": {
        "coordinates": [
          -122.483011,
          47.17803290000001
        ],
        "type": "Point"
      },
      "properties": {
        "address": "8765 S Tacoma WAY Lakewood WA 98499 United States",
        "business_name": "YEN CHING RESTAURANT",
        "city": "Lakewood",
        "closure_actionable": false,
        "closure_context": "",
        "closure_duration_days": "",
        "closure_duration_hours": "",
        "closure_duration_text": "",
        "closure_reader_explanation": "",
        "closure_reader_label": "",
        "closure_reason_summary": "",
        "closure_reopen_date": "",
        "closure_status_raw": "A Reinspection is Required | Routine Inspection | Great | A Reinspection is Required | Routine Inspection | Great | Routine Inspection",
        "current_grade": "Great",
        "current_last_inspection_date": "09/24/2026",
        "current_rating_category": "rating_great",
        "current_rating_color": "#2e7d32",
        "current_rating_label": "Great",
        "current_rating_letter": "G",
        "current_score": "60",
        "current_status_category": "reinspection_required",
        "current_status_explanation": "The inspection result or parsed PDF follow-up field indicates a follow-up/reinspection is still needed.",
        "current_status_label": "Reinspection required",
        "current_status_timing": "same_day",
        "current_status_timing_label": "Current TPCHD status is from the same date as this inspection: September 24, 2026.",
        "date": "2026-09-24",
        "facility_detail_url": "https://aca-prod.accela.com/TPCHD/GeneralProperty/FoodFacilityInspectionDetail.aspx?LicenseeNumber=PR0000683&LicenseeType=Food+Facility",
        "facility_id": "PR0000683",
        "follow_up_comment_summary": "Due to 35 or more red points, a follow-up inspection will be conducted for the red item violations noted in this inspection report. A fee of $240 will be assessed by mail for all follow-up inspections. If repeated red item violations are observed at a follow-up inspection, an additional follow-up inspection will be required.",
        "follow_up_inspection_date": "",
        "follow_up_inspection_date_iso": "",
        "follow_up_inspection_result": "",
        "follow_up_inspection_type": "",
        "follow_up_label": "No later follow-up or reinspection observed in TPCHD inspection history.",
        "follow_up_needed": "yes",
        "follow_up_red_points": "",
        "follow_up_status": "not_observed",
        "geocode_status": "ok",
        "inspection_comments": "Purpose: To conduct a food safety inspection in accordance with WAC Chapter 246-215. Due to 35 or more red points, a follow-up inspection will be conducted for the red item violations noted in this inspection report. A fee of $240 will be assessed by mail for all follow-up inspections. If repeated red item violations are observed at a follow-up inspection, an additional follow-up inspection will be required. Notes: -Ensure all plumbing fixtures are in good condition to allow proper drainage.",
        "inspection_date": "09/24/2026",
        "inspection_date_iso": "2026-09-24",
        "inspection_identity": "PR0000683|736294",
        "inspection_result": "A Reinspection is Required",
        "inspection_type": "Routine Inspection",
        "inspection_year": "2026",
        "next_follow_up_date": "",
        "official_red_points_authoritative": "",
        "original_report_quality_status": "",
        "parser_quality_notes": "",
        "point_total_conflict": "",
        "record_id": "tpchd-f3e5f701ce1b",
        "red_point_evidence_reviewed": "",
        "red_point_evidence_status": "confirmed",
        "red_point_severity": "red_points_51_75",
        "red_point_severity_label": "51-75 red points",
        "red_points": 60,
        "repeat_red_points": 25,
        "report_fetch_status": "ok",
        "report_quality_review_note": "",
        "report_quality_review_source": "",
        "report_quality_reviewed": "",
        "report_quality_reviewed_at": "",
        "report_quality_status": "ok",
        "report_url": "https://aca-prod.accela.com/TPCHD/GET_INSP_DOCHandler.ashx?AltId=PR0000683&InspId=736294",
        "source": "TPCHD Accela",
        "total_points": 60,
        "zip": "98499"
      },
      "type": "Feature"
    },
    {
      "geometry": {
        "coordinates": [
          -122.6425762,
          47.0903275
        ],
        "type": "Point"
      },
      "properties": {
        "address": "1455 Wilmington DR Dupont WA 98327 United States",
        "business_name": "VIVA MEXICO DUPONT",
        "city": "Dupont",
        "closure_actionable": true,
        "closure_context": "closed_for_fixed_period",
        "closure_duration_days": 1,
        "closure_duration_hours": 24,
        "closure_duration_text": "24 hours",
        "closure_reader_explanation": "Source text says the facility was closed for 24 hours. Check the source timeline before describing it as currently closed.",
        "closure_reader_label": "Closed for 24 hours",
        "closure_reason_summary": "A fee of $240 will be assessed by mail for all follow-up inspections. 5th inspection with repeated red item violation \u2022 Facility closed for 24 hours. \u2022 Charged pre-opening inspection ($360).",
        "closure_reopen_date": "",
        "closure_status_raw": "Routine Inspection",
        "current_grade": "Okay",
        "current_last_inspection_date": "09/24/2026",
        "current_rating_category": "rating_okay",
        "current_rating_color": "#d88c1f",
        "current_rating_label": "Okay",
        "current_rating_letter": "O",
        "current_score": "60",
        "current_status_category": "closed_for_fixed_period",
        "current_status_explanation": "Source text says the facility was closed for 24 hours. Check the source timeline before describing it as currently closed. Source comment: A fee of $240 will be assessed by mail for all follow-up inspections. 5th inspection with repeated red item violation \u2022 Facility closed for 24 hours. \u2022 Charged pre-opening inspection ($360).",
        "current_status_label": "Closed for fixed period",
        "current_status_timing": "same_day",
        "current_status_timing_label": "Current TPCHD status is from the same date as this inspection: September 24, 2026.",
        "date": "2026-09-24",
        "facility_detail_url": "https://aca-prod.accela.com/TPCHD/GeneralProperty/FoodFacilityInspectionDetail.aspx?LicenseeNumber=PR0028795&LicenseeType=Food+Facility",
        "facility_id": "PR0028795",
        "follow_up_comment_summary": "Due to 35 or more red points, a follow-up inspection will be conducted for the red item violations noted in this inspection report. A fee of $240 will be assessed by mail for all follow-up inspections. If repeated red item violations are observed at a follow-up inspection, an additional follow-up inspection will be required.",
        "follow_up_inspection_date": "",
        "follow_up_inspection_date_iso": "",
        "follow_up_inspection_result": "",
        "follow_up_inspection_type": "",
        "follow_up_label": "No later follow-up or reinspection observed in TPCHD inspection history.",
        "follow_up_needed": "yes",
        "follow_up_red_points": "",
        "follow_up_status": "not_observed",
        "geocode_status": "ok",
        "inspection_comments": "Purpose: To conduct a food safety inspection in accordance with WAC Chapter 246-215. Due to 35 or more red points, a follow-up inspection will be conducted for the red item violations noted in this inspection report. A fee of $240 will be assessed by mail for all follow-up inspections. If repeated red item violations are observed at a follow-up inspection, an additional follow-up inspection will be required. Notes: - Be sure that single-use gloves are being discarded after use and are not washed, reused, or saved for any reason. - Ensure that food safety rating sign remains visible for all guests upon entry into facility. - Discussed with PIC using only metal pans and lids for better cold holding inside prep top coolers and salsa on ice. *Continuation of #16 violation: Overview of the process if there are repeat red violations cited during future inspections: 4th inspection with repeated red item violation \u2022 Charged educational visit with all staff ($240/hour). \u2022 Letter to owner with next steps. 5th inspection with repeated red item violation \u2022 Facility closed for 24 hours. \u2022 Charged pre-opening inspection ($360). \u2022 Informal administrative conference at Tacoma -Pierce County Health Department. \u2022 Create risk control plan with inspector. \u2022 Charged follow-up inspection ($240). 6th inspection with repeated red item violation \u2022 Facility closed for 24 hours. \u2022 Charged pre-opening inspection ($360). \u2022 Formal administrative conference ($840). \u2022 Probation for 6 months. -Five additional inspections ($480 each). -Facility is closed if a probation violation is cited. Compliance Schedule OBSERVATIONS AND CORRECTIVE ACTIONS You must complete the following items by the due date listed below . Your inspector will do a compliance inspection . If these items are not corrected, you will be billed for the inspection. Violations cited must be corrected within the time frames specified . Complete ByItem Number 09/24/2026 2600 Compliance with valid permit; operating and risk control plans and required written procedures. 2600 Observed unapproved homestyle Cosori dehydrator and house dried orange slices in bar area. Per PIC, facility got dehydrator and started dehydrating fruit approximately a month prior. No changes may be made to the approved floor plan, menu, equipment , or processes without prior written approval from the health department. You must have plan review approval before you change your menu or procedures . You can find a plan review application at www.tpchd.org/healthy-places/food-safety/opening-a-food-business. Call (253) 649-1706 if you need assistance. Remove the dehydrator and in-house dehydrated fruit from facility .Facility may purchase dehydrated fruit from an approved, commercial wholesale source. Discussed that if facility would like to go through plan review to add a dehydrator to approved processes, unit would need to be of commercial or NSF grade. *A compliance order has been issued to remove the unapproved dehydrator and in -house dehydrated food from facility immediately. Failure to remove the unapproved items immediately will result in a $240 non-compliance fee. Contact your inspector with questions or if you need more time to complete these items. Tacoma - Pierce County Health Department 3629 South D Street, MS 1059 Tacoma , WA 98418 Fax: (253) 649-1728Inspector : Dylan Caverly",
        "inspection_date": "09/24/2026",
        "inspection_date_iso": "2026-09-24",
        "inspection_identity": "PR0028795|786575",
        "inspection_result": "A Reinspection is Required & Compliance Order Issued",
        "inspection_type": "Routine Inspection",
        "inspection_year": "2026",
        "next_follow_up_date": "",
        "official_red_points_authoritative": "",
        "original_report_quality_status": "",
        "parser_quality_notes": "",
        "point_total_conflict": "",
        "record_id": "tpchd-d607450525ee",
        "red_point_evidence_reviewed": "",
        "red_point_evidence_status": "confirmed",
        "red_point_severity": "red_points_51_75",
        "red_point_severity_label": "51-75 red points",
        "red_points": 60,
        "repeat_red_points": 25,
        "report_fetch_status": "ok",
        "report_quality_review_note": "",
        "report_quality_review_source": "",
        "report_quality_reviewed": "",
        "report_quality_reviewed_at": "",
        "report_quality_status": "ok",
        "report_url": "https://aca-prod.accela.com/TPCHD/GET_INSP_DOCHandler.ashx?AltId=PR0028795&InspId=786575",
        "source": "TPCHD Accela",
        "total_points": 60,
        "zip": "98327"
      },
      "type": "Feature"
    },
    {
      "geometry": {
        "coordinates": [
          -122.484631,
          47.1748655
        ],
        "type": "Point"
      },
      "properties": {
        "address": "9104 S TACOMA WAY Lakewood WA 98499",
        "business_name": "MUKJA KOREAN BBQ TACOMA",
        "city": "Lakewood",
        "closure_actionable": false,
        "closure_context": "",
        "closure_duration_days": "",
        "closure_duration_hours": "",
        "closure_duration_text": "",
        "closure_reader_explanation": "",
        "closure_reader_label": "",
        "closure_reason_summary": "",
        "closure_reopen_date": "",
        "closure_status_raw": "A Reinspection is Required & Compliance Order Issued | Routine Inspection | We are still new | A Reinspection is Required & Compliance Order Issued | Routine Inspection | We are still new | Routine Inspection",
        "current_grade": "We are still new",
        "current_last_inspection_date": "09/23/2026",
        "current_rating_category": "rating_new",
        "current_rating_color": "#2563eb",
        "current_rating_label": "New",
        "current_rating_letter": "N",
        "current_score": "45",
        "current_status_category": "reinspection_required",
        "current_status_explanation": "The inspection result or parsed PDF follow-up field indicates a follow-up/reinspection is still needed.",
        "current_status_label": "Reinspection required",
        "current_status_timing": "same_day",
        "current_status_timing_label": "Current TPCHD status is from the same date as this inspection: September 23, 2026.",
        "date": "2026-09-23",
        "facility_detail_url": "https://aca-prod.accela.com/TPCHD/GeneralProperty/FoodFacilityInspectionDetail.aspx?LicenseeNumber=FEP2026-00352&LicenseeType=Food+Facility",
        "facility_id": "FEP2026-00352",
        "follow_up_comment_summary": "Due to 35 or more red points, a follow-up inspection will be conducted for the red item violations noted in this inspection report. A fee of $240 will be assessed by mail for all follow-up inspections. If repeated red item violations are observed at a follow-up inspection, an additional follow-up inspection will be required.",
        "follow_up_inspection_date": "",
        "follow_up_inspection_date_iso": "",
        "follow_up_inspection_result": "",
        "follow_up_inspection_type": "",
        "follow_up_label": "No later follow-up or reinspection observed in TPCHD inspection history.",
        "follow_up_needed": "yes",
        "follow_up_red_points": "",
        "follow_up_status": "not_observed",
        "geocode_status": "ok",
        "inspection_comments": "Purpose: To conduct a food safety inspection in accordance with WAC Chapter 246-215. Due to 35 or more red points, a follow-up inspection will be conducted for the red item violations noted in this inspection report. A fee of $240 will be assessed by mail for all follow-up inspections. If repeated red item violations are observed at a follow-up inspection, an additional follow-up inspection will be required. Compliance Schedule OBSERVATIONS AND CORRECTIVE ACTIONS You must complete the following items by the due date listed below . Your inspector will do a compliance inspection . If these items are not corrected, you will be billed for the inspection. Violations cited must be corrected within the time frames specified . Complete ByItem Number 09/23/2026 2600 Compliance with valid permit; operating and risk control plans and required written procedures. 2600 Observed non-commercial soft serve machine. Per employee they have not started using it and planned to start next week. You have been found with a non -commercial soft serve machine. Stop immediately. You need plan review approval before you change your menu or procedures . You can find a plan review application at www.tpchd.org/healthy-places/food-safety/opening-a-food-business. Call 253-649-1706 if you need assistance. *Compliance order issued to remove ice cream machine immediately. Failure to remove soft serve will result in a fee of $240 for non-compliance. Contact your inspector with questions or if you need more time to complete these items. Tacoma - Pierce County Health Department 3629 South D Street, MS 1059 Tacoma , WA 98418 Fax: (253) 649-1728Inspector : Sabrina Sanchez",
        "inspection_date": "09/23/2026",
        "inspection_date_iso": "2026-09-23",
        "inspection_identity": "FEP2026-00352|921619",
        "inspection_result": "A Reinspection is Required & Compliance Order Issued",
        "inspection_type": "Routine Inspection",
        "inspection_year": "2026",
        "next_follow_up_date": "",
        "official_red_points_authoritative": "",
        "original_report_quality_status": "",
        "parser_quality_notes": "",
        "point_total_conflict": "",
        "record_id": "tpchd-015af9e2ca3d",
        "red_point_evidence_reviewed": "",
        "red_point_evidence_status": "confirmed",
        "red_point_severity": "red_points_51_75",
        "red_point_severity_label": "51-75 red points",
        "red_points": 70,
        "repeat_red_points": 0,
        "report_fetch_status": "ok",
        "report_quality_review_note": "",
        "report_quality_review_source": "",
        "report_quality_reviewed": "",
        "report_quality_reviewed_at": "",
        "report_quality_status": "ok",
        "report_url": "https://aca-prod.accela.com/TPCHD/GET_INSP_DOCHandler.ashx?AltId=FEP2026-00352&InspId=921619",
        "source": "TPCHD Accela",
        "total_points": 75,
        "zip": "98499"
      },
      "type": "Feature"
    }
  ],
  "metadata": {
    "available_years": [
      "2026"
    ],
    "coverage_note": "The map includes facilities with inspections with 35 or more red points. Locations come from facility addresses shown in TPCHD inspection records.",
    "data_universe": "TPCHD Accela food-facility inspection records observed by this publication run with parsed PDF reports; this public map layer includes only records with 35 or more red points.",
    "data_version": "20260928113431Z",
    "features_total": 3,
    "freshness_note": "Generated from the latest TPCHD inspection data publication run. The public map typically updates once a week.",
    "generated_at": "2026-09-28T11:34:31Z",
    "geometry_precision": "facility address from TPCHD inspection records",
    "inspection_date_window_end": "2026-09-24",
    "inspection_date_window_label": "September 23-24, 2026",
    "inspection_date_window_start": "2026-09-23",
    "map_cannot_show": "This map does not include inspections with fewer than 35 red points.",
    "map_claim": "Shows facilities with inspections with 35 or more red points, with current TPCHD status and later observed inspection context where available.",
    "map_type": "point_symbol",
    "privacy": {
      "excludes": [
        "Google Sheet IDs",
        "Gmail recipients",
        "raw PDF text",
        "raw collection payloads",
        "internal notes",
        "local paths"
      ],
      "public_fields_only": true,
      "review": "Exact restaurant locations are public commercial facility addresses from public inspection records."
    },
    "project": "tpchd-restaurant-inspections",
    "records_above_threshold": 3,
    "records_excluded_by_threshold": 0,
    "records_excluded_unparsed": 0,
    "records_total": 3,
    "red_point_threshold": 35,
    "schema_version": 1,
    "scope": "alert",
    "source": "TPCHD Accela food-facility inspection reports",
    "source_note": "Tacoma-Pierce County Health Department inspection reports.",
    "symbology": {
      "alert_categories": [
        {
          "color": "#d6604d",
          "icon": "exclamation",
          "id": "red_points_35_50",
          "label": "35-50 red points",
          "max": 50,
          "min": 35,
          "shape": "diamond",
          "stroke": "#ffffff"
        },
        {
          "color": "#c23030",
          "icon": "exclamation",
          "id": "red_points_51_75",
          "label": "51-75 red points",
          "max": 75,
          "min": 51,
          "shape": "diamond",
          "stroke": "#ffffff"
        },
        {
          "color": "#9f1d2d",
          "icon": "exclamation",
          "id": "red_points_76_100",
          "label": "76-100 red points",
          "max": 100,
          "min": 76,
          "shape": "diamond",
          "stroke": "#ffffff"
        },
        {
          "color": "#67000d",
          "icon": "exclamation",
          "id": "red_points_101_plus",
          "label": "101+ red points",
          "max": null,
          "min": 101,
          "shape": "diamond",
          "stroke": "#ffffff"
        }
      ],
      "evergreen_categories": [
        {
          "color": "#2e7d32",
          "id": "rating_great",
          "label": "Great",
          "letter": "G",
          "shape": "circle"
        },
        {
          "color": "#d88c1f",
          "id": "rating_okay",
          "label": "Okay",
          "letter": "O",
          "shape": "circle"
        },
        {
          "color": "#b61f2d",
          "id": "rating_needs_improve",
          "label": "Needs to improve",
          "letter": "N",
          "shape": "circle"
        },
        {
          "color": "#4b5563",
          "id": "rating_closed",
          "label": "Closed",
          "letter": "C",
          "shape": "circle"
        },
        {
          "color": "#2563eb",
          "id": "rating_new",
          "label": "New",
          "letter": "N",
          "shape": "circle"
        },
        {
          "color": "#6b7280",
          "id": "rating_not_posted",
          "label": "No grade shown by TPCHD",
          "letter": "i",
          "shape": "circle"
        },
        {
          "color": "#6b7280",
          "id": "rating_unknown",
          "label": "Status unknown",
          "letter": "?",
          "shape": "circle"
        }
      ],
      "note": "Evergreen markers use current TPCHD rating as the primary color/letter encoding. Alert/run maps use fixed red-point classes with darker red for higher totals. Marker size does not encode severity."
    },
    "threshold_label": "35 or more red points",
    "threshold_rule": "red_points >= 35",
    "title": "TPCHD inspections with 35 or more red points: September 23-24, 2026",
    "unmapped_records": 0,
    "unmapped_records_by_reason": {},
    "unmapped_records_detail": []
  },
  "type": "FeatureCollection"
}
