{
  "features": [
    {
      "geometry": {
        "coordinates": [
          -122.2933934,
          47.1914206
        ],
        "type": "Point"
      },
      "properties": {
        "address": "109 S Meridian Puyallup WA 98371 United States",
        "business_name": "TK IRISH PUB & EATERY",
        "city": "Puyallup",
        "closure_actionable": false,
        "closure_context": "",
        "closure_duration_days": "",
        "closure_duration_hours": "",
        "closure_duration_text": "",
        "closure_reader_explanation": "",
        "closure_reader_label": "",
        "closure_reason_summary": "",
        "closure_reopen_date": "",
        "closure_status_raw": "A Reinspection is Required | Routine Inspection | Great | A Reinspection is Required | Routine Inspection | Great | Routine Inspection",
        "current_grade": "Great",
        "current_last_inspection_date": "07/31/2026",
        "current_rating_category": "rating_great",
        "current_rating_color": "#2e7d32",
        "current_rating_label": "Great",
        "current_rating_letter": "G",
        "current_score": "35",
        "current_status_category": "reinspection_required",
        "current_status_explanation": "The inspection result or parsed PDF follow-up field indicates a follow-up/reinspection is still needed.",
        "current_status_label": "Reinspection required",
        "current_status_timing": "same_day",
        "current_status_timing_label": "Current TPCHD status is from the same date as this inspection: July 31, 2026.",
        "date": "2026-07-31",
        "facility_detail_url": "https://aca-prod.accela.com/TPCHD/GeneralProperty/FoodFacilityInspectionDetail.aspx?LicenseeNumber=PR0030912&LicenseeType=Food+Facility",
        "facility_id": "PR0030912",
        "follow_up_comment_summary": "Due to 35 or more red points, a follow-up inspection will be conducted for the red item violations noted in this inspection report. A fee of $240 will be assessed by mail for all follow-up inspections. If repeated red item violations are observed at a follow-up inspection, an additional follow-up inspection will be required.",
        "follow_up_inspection_date": "",
        "follow_up_inspection_date_iso": "",
        "follow_up_inspection_result": "",
        "follow_up_inspection_type": "",
        "follow_up_label": "No later follow-up or reinspection observed in TPCHD inspection history.",
        "follow_up_needed": "yes",
        "follow_up_red_points": "",
        "follow_up_status": "not_observed",
        "geocode_status": "ok",
        "inspection_comments": "Purpose: To conduct a food safety inspection in accordance with WAC Chapter 246-215. Due to 35 or more red points, a follow-up inspection will be conducted for the red item violations noted in this inspection report. A fee of $240 will be assessed by mail for all follow-up inspections. If repeated red item violations are observed at a follow-up inspection, an additional follow-up inspection will be required. Notes: - Update all food worker cards.",
        "inspection_date": "07/31/2026",
        "inspection_date_iso": "2026-07-31",
        "inspection_identity": "PR0030912|751979",
        "inspection_result": "A Reinspection is Required",
        "inspection_type": "Routine Inspection",
        "inspection_year": "2026",
        "next_follow_up_date": "",
        "official_red_points_authoritative": "",
        "original_report_quality_status": "",
        "parser_quality_notes": "",
        "point_total_conflict": "",
        "record_id": "tpchd-f5b7649d9c23",
        "red_point_evidence_reviewed": "",
        "red_point_severity": "red_points_35_50",
        "red_point_severity_label": "35-50 red points",
        "red_points": 35,
        "repeat_red_points": 0,
        "report_fetch_status": "ok",
        "report_quality_review_note": "",
        "report_quality_review_source": "",
        "report_quality_reviewed": "",
        "report_quality_reviewed_at": "",
        "report_quality_status": "ok",
        "report_url": "https://aca-prod.accela.com/TPCHD/GET_INSP_DOCHandler.ashx?AltId=PR0030912&InspId=751979",
        "source": "TPCHD Accela",
        "total_points": 35,
        "zip": "98371"
      },
      "type": "Feature"
    },
    {
      "geometry": {
        "coordinates": [
          -122.447998,
          47.2314018
        ],
        "type": "Point"
      },
      "properties": {
        "address": "1101 S Tacoma AVE Tacoma WA 98402 United States",
        "business_name": "CHEZ LAFAYETTE CREOLE BRASERRIE",
        "city": "Tacoma",
        "closure_actionable": false,
        "closure_context": "",
        "closure_duration_days": "",
        "closure_duration_hours": "",
        "closure_duration_text": "",
        "closure_reader_explanation": "",
        "closure_reader_label": "",
        "closure_reason_summary": "",
        "closure_reopen_date": "",
        "closure_status_raw": "A Reinspection is Required & Compliance Order Issued | Routine Inspection | Great | A Reinspection is Required & Compliance Order Issued | Routine Inspection | Great | Routine Inspection",
        "current_grade": "Great",
        "current_last_inspection_date": "07/30/2026",
        "current_rating_category": "rating_great",
        "current_rating_color": "#2e7d32",
        "current_rating_label": "Great",
        "current_rating_letter": "G",
        "current_score": "45",
        "current_status_category": "reinspection_required",
        "current_status_explanation": "The inspection result or parsed PDF follow-up field indicates a follow-up/reinspection is still needed.",
        "current_status_label": "Reinspection required",
        "current_status_timing": "same_day",
        "current_status_timing_label": "Current TPCHD status is from the same date as this inspection: July 30, 2026.",
        "date": "2026-07-30",
        "facility_detail_url": "https://aca-prod.accela.com/TPCHD/GeneralProperty/FoodFacilityInspectionDetail.aspx?LicenseeNumber=PR0039271&LicenseeType=Food+Facility",
        "facility_id": "PR0039271",
        "follow_up_comment_summary": "Due to 35 or more red points, a follow-up inspection will be conducted for the red item violations noted in this inspection report. A fee of $240 will be assessed by mail for all follow-up inspections. If repeated red item violations are observed at a follow-up inspection, an additional follow-up inspection will be required.",
        "follow_up_inspection_date": "",
        "follow_up_inspection_date_iso": "",
        "follow_up_inspection_result": "",
        "follow_up_inspection_type": "",
        "follow_up_label": "No later follow-up or reinspection observed in TPCHD inspection history.",
        "follow_up_needed": "yes",
        "follow_up_red_points": "",
        "follow_up_status": "not_observed",
        "geocode_status": "ok",
        "inspection_comments": "Purpose: To conduct a food safety inspection in accordance with WAC Chapter 246-215. Due to 35 or more red points, a follow-up inspection will be conducted for the red item violations noted in this inspection report. A fee of $240 will be assessed by mail for all follow-up inspections. If repeated red item violations are observed at a follow-up inspection, an additional follow-up inspection will be required. Notes: - Garlic oil and batter used for frying fish are Time /Temperature Control for Safety (TCS) and must be held at 41F or below or 135F or above at all times. Facility may use Time as a Control (TAAC ) for these items. TAAC procedure form included with inspection report . TAAC may be used under the following conditions: 1. Written procedures must be on site describing your process . 2. List the food that will use Time as a Control . 3. All food must be labeled with the time it will be discarded (no longer than 4 hours). 4. Food must be discarded by 4 hours and not saved for any purpose. If the food is found without a label or improper label, the facility is not in compliance. - Store utensils used for TCS foods at 41F or below, 135F or above, or in a clean dry location and wash, rinse, and sanitize every 4 hours. Compliance Schedule OBSERVATIONS AND CORRECTIVE ACTIONS You must complete the following items by the due date listed below . Your inspector will do a compliance inspection . If these items are not corrected, you will be billed for the inspection. Violations cited must be corrected within the time frames specified . Complete ByItem Number 07/30/2026 2600 Compliance with valid permit; operating and risk control plans and required written procedures. 2600 Facility has resumed using the ice machine and mixer. Facility is currently in plan review to use the equipment, but has not received a preopening inspection. Per your approval letter, \" We have received notification that the plumbing system is not in compliance with City regulations. The preopening inspection cannot occur until you provide written documentation that all plumbing requirements have been met. You must receive a preopening inspection and written approval from the Health Department before using equipment or beginning operations that are currently in Plan Review. Call 253-649-1706 if you need assistance. Stop using the unapproved equipment. Submit FOG compliance verification from the City of Tacoma to food @tpchd.org and schedule your preopening inspection. Plan review stale date has been extended to 8/20/2026. *Compliance order issued to stop using unapproved immediately. Failure to stop will result in a fee of $240 for non-compliance. Contact your inspector with questions or if you need more time to complete these items. Tacoma - Pierce County Health Department 3629 South D Street, MS 1059 Tacoma , WA 98418 Fax: (253) 649-1728Inspector : Avery Donovan",
        "inspection_date": "07/30/2026",
        "inspection_date_iso": "2026-07-30",
        "inspection_identity": "PR0039271|673895",
        "inspection_result": "A Reinspection is Required & Compliance Order Issued",
        "inspection_type": "Routine Inspection",
        "inspection_year": "2026",
        "next_follow_up_date": "",
        "official_red_points_authoritative": "",
        "original_report_quality_status": "",
        "parser_quality_notes": "",
        "point_total_conflict": "",
        "record_id": "tpchd-2e662f29e543",
        "red_point_evidence_reviewed": "",
        "red_point_severity": "red_points_35_50",
        "red_point_severity_label": "35-50 red points",
        "red_points": 45,
        "repeat_red_points": 0,
        "report_fetch_status": "ok",
        "report_quality_review_note": "",
        "report_quality_review_source": "",
        "report_quality_reviewed": "",
        "report_quality_reviewed_at": "",
        "report_quality_status": "ok",
        "report_url": "https://aca-prod.accela.com/TPCHD/GET_INSP_DOCHandler.ashx?AltId=PR0039271&InspId=673895",
        "source": "TPCHD Accela",
        "total_points": 45,
        "zip": "98402"
      },
      "type": "Feature"
    },
    {
      "geometry": {
        "coordinates": [
          -122.2939798,
          47.1876753
        ],
        "type": "Point"
      },
      "properties": {
        "address": "516 S Meridian Puyallup WA 98371 United States",
        "business_name": "MERIDIAN CHEVRON",
        "city": "Puyallup",
        "closure_actionable": false,
        "closure_context": "",
        "closure_duration_days": "",
        "closure_duration_hours": "",
        "closure_duration_text": "",
        "closure_reader_explanation": "",
        "closure_reader_label": "",
        "closure_reason_summary": "",
        "closure_reopen_date": "",
        "closure_status_raw": "A Reinspection is Required | Routine Inspection | Great | A Reinspection is Required | Routine Inspection | Great | Routine Inspection",
        "current_grade": "Great",
        "current_last_inspection_date": "07/30/2026",
        "current_rating_category": "rating_great",
        "current_rating_color": "#2e7d32",
        "current_rating_label": "Great",
        "current_rating_letter": "G",
        "current_score": "35",
        "current_status_category": "reinspection_required",
        "current_status_explanation": "The inspection result or parsed PDF follow-up field indicates a follow-up/reinspection is still needed.",
        "current_status_label": "Reinspection required",
        "current_status_timing": "same_day",
        "current_status_timing_label": "Current TPCHD status is from the same date as this inspection: July 30, 2026.",
        "date": "2026-07-30",
        "facility_detail_url": "https://aca-prod.accela.com/TPCHD/GeneralProperty/FoodFacilityInspectionDetail.aspx?LicenseeNumber=PR0039063&LicenseeType=Food+Facility",
        "facility_id": "PR0039063",
        "follow_up_comment_summary": "Due to 35 or more red points, a follow-up inspection will be conducted for the red item violations noted in this inspection report. A fee of $240 will be assessed by mail for all follow-up inspections. If repeated red item violations are observed at a follow-up inspection, an additional follow-up inspection will be required.",
        "follow_up_inspection_date": "",
        "follow_up_inspection_date_iso": "",
        "follow_up_inspection_result": "",
        "follow_up_inspection_type": "",
        "follow_up_label": "No later follow-up or reinspection observed in TPCHD inspection history.",
        "follow_up_needed": "yes",
        "follow_up_red_points": "",
        "follow_up_status": "not_observed",
        "geocode_status": "ok",
        "inspection_comments": "Purpose: To conduct a food safety inspection in accordance with WAC Chapter 246-215. Due to 35 or more red points, a follow-up inspection will be conducted for the red item violations noted in this inspection report. A fee of $240 will be assessed by mail for all follow-up inspections. If repeated red item violations are observed at a follow-up inspection, an additional follow-up inspection will be required. Note: - First routine inspection after pre-opening or change of ownership inspection. - Be sure to keep all handsinks free from obstructions. Handsinks must have soap, paper towels, and warm water. - Two out of 3 compliance order. Complete the following by 08/13/2026: 1. Removeable catch tray on the Stoelting ice cream machine is held together with duct tape. Replace the damaged tray.",
        "inspection_date": "07/30/2026",
        "inspection_date_iso": "2026-07-30",
        "inspection_identity": "PR0039063|856935",
        "inspection_result": "A Reinspection is Required",
        "inspection_type": "Routine Inspection",
        "inspection_year": "2026",
        "next_follow_up_date": "",
        "official_red_points_authoritative": "",
        "original_report_quality_status": "",
        "parser_quality_notes": "",
        "point_total_conflict": "",
        "record_id": "tpchd-7067618f33a1",
        "red_point_evidence_reviewed": "",
        "red_point_severity": "red_points_35_50",
        "red_point_severity_label": "35-50 red points",
        "red_points": 35,
        "repeat_red_points": 0,
        "report_fetch_status": "ok",
        "report_quality_review_note": "",
        "report_quality_review_source": "",
        "report_quality_reviewed": "",
        "report_quality_reviewed_at": "",
        "report_quality_status": "ok",
        "report_url": "https://aca-prod.accela.com/TPCHD/GET_INSP_DOCHandler.ashx?AltId=PR0039063&InspId=856935",
        "source": "TPCHD Accela",
        "total_points": 35,
        "zip": "98371"
      },
      "type": "Feature"
    },
    {
      "geometry": {
        "coordinates": [
          -122.477991,
          47.2712148
        ],
        "type": "Point"
      },
      "properties": {
        "address": "3201 N 26th ST Tacoma WA 98407 United States",
        "business_name": "COOKS' TAVERN",
        "city": "Tacoma",
        "closure_actionable": false,
        "closure_context": "",
        "closure_duration_days": "",
        "closure_duration_hours": "",
        "closure_duration_text": "",
        "closure_reader_explanation": "",
        "closure_reader_label": "",
        "closure_reason_summary": "",
        "closure_reopen_date": "",
        "closure_status_raw": "A Reinspection is Required & Compliance Order Issued | Routine Inspection | Great | A Reinspection is Required & Compliance Order Issued | Routine Inspection | Great | Routine Inspection",
        "current_grade": "Great",
        "current_last_inspection_date": "07/30/2026",
        "current_rating_category": "rating_great",
        "current_rating_color": "#2e7d32",
        "current_rating_label": "Great",
        "current_rating_letter": "G",
        "current_score": "35",
        "current_status_category": "reinspection_required",
        "current_status_explanation": "The inspection result or parsed PDF follow-up field indicates a follow-up/reinspection is still needed.",
        "current_status_label": "Reinspection required",
        "current_status_timing": "same_day",
        "current_status_timing_label": "Current TPCHD status is from the same date as this inspection: July 30, 2026.",
        "date": "2026-07-30",
        "facility_detail_url": "https://aca-prod.accela.com/TPCHD/GeneralProperty/FoodFacilityInspectionDetail.aspx?LicenseeNumber=PR0034465&LicenseeType=Food+Facility",
        "facility_id": "PR0034465",
        "follow_up_comment_summary": "Due to 35 or more red points, a follow-up inspection will be conducted for the red item violations noted in this inspection report. A fee of $240 will be assessed by mail for all follow-up inspections. If repeated red item violations are observed at a follow-up inspection, an additional follow-up inspection will be required.",
        "follow_up_inspection_date": "",
        "follow_up_inspection_date_iso": "",
        "follow_up_inspection_result": "",
        "follow_up_inspection_type": "",
        "follow_up_label": "No later follow-up or reinspection observed in TPCHD inspection history.",
        "follow_up_needed": "yes",
        "follow_up_red_points": "",
        "follow_up_status": "not_observed",
        "geocode_status": "ok",
        "inspection_comments": "Purpose: To conduct a food safety inspection in accordance with WAC Chapter 246-215. Due to 35 or more red points, a follow-up inspection will be conducted for the red item violations noted in this inspection report. A fee of $240 will be assessed by mail for all follow-up inspections. If repeated red item violations are observed at a follow-up inspection, an additional follow-up inspection will be required. Notes: -Be sure to change sanitizer buckets every 2 hours. Compliance Schedule OBSERVATIONS AND CORRECTIVE ACTIONS You must complete the following items by the due date listed below . Your inspector will do a compliance inspection . If these items are not corrected, you will be billed for the inspection. Violations cited must be corrected within the time frames specified . Complete ByItem Number 07/30/2026 2700 Compliance with variance; specialized processes; HACCP plan. 2700 A vacuum sealer was found in the facility and is used to prepare vacuum sealed watermelon . Obtain a variance from the Tacoma -Pierce County Health Department prior to packaging foods using a reduced oxygen packaging method including vacuum sealing. Directed staff to apply for plan review or to remove vacuum sealer from facility . A compliance order has been issued to remove the vacuum sealer or apply for plan review for variance by 7/30/26. Failure to remove the vacuum sealer or apply for plan review for variance by 7/30/26 will result in a fee of $240 for non-compliance. Contact your inspector with questions or if you need more time to complete these items. Tacoma - Pierce County Health Department 3629 South D Street, MS 1059 Tacoma , WA 98418 Fax: (253) 649-1728Inspector : Gunnar Ward",
        "inspection_date": "07/30/2026",
        "inspection_date_iso": "2026-07-30",
        "inspection_identity": "PR0034465|752976",
        "inspection_result": "A Reinspection is Required & Compliance Order Issued",
        "inspection_type": "Routine Inspection",
        "inspection_year": "2026",
        "next_follow_up_date": "",
        "official_red_points_authoritative": "",
        "original_report_quality_status": "",
        "parser_quality_notes": "",
        "point_total_conflict": "",
        "record_id": "tpchd-e7c0e911db28",
        "red_point_evidence_reviewed": "",
        "red_point_severity": "red_points_35_50",
        "red_point_severity_label": "35-50 red points",
        "red_points": 35,
        "repeat_red_points": 10,
        "report_fetch_status": "ok",
        "report_quality_review_note": "",
        "report_quality_review_source": "",
        "report_quality_reviewed": "",
        "report_quality_reviewed_at": "",
        "report_quality_status": "ok",
        "report_url": "https://aca-prod.accela.com/TPCHD/GET_INSP_DOCHandler.ashx?AltId=PR0034465&InspId=752976",
        "source": "TPCHD Accela",
        "total_points": 35,
        "zip": "98407"
      },
      "type": "Feature"
    },
    {
      "geometry": {
        "coordinates": [
          -122.461317,
          47.1925811
        ],
        "type": "Point"
      },
      "properties": {
        "address": "1925 S 72nd St Tacoma WA 98408 United States",
        "business_name": "DAIRY QUEEN",
        "city": "Tacoma",
        "closure_actionable": false,
        "closure_context": "",
        "closure_duration_days": "",
        "closure_duration_hours": "",
        "closure_duration_text": "",
        "closure_reader_explanation": "",
        "closure_reader_label": "",
        "closure_reason_summary": "",
        "closure_reopen_date": "",
        "closure_status_raw": "A Reinspection is Required & Compliance Order Issued | Routine Inspection | Great | A Reinspection is Required & Compliance Order Issued | Routine Inspection | Great | Routine Inspection",
        "current_grade": "Great",
        "current_last_inspection_date": "07/28/2026",
        "current_rating_category": "rating_great",
        "current_rating_color": "#2e7d32",
        "current_rating_label": "Great",
        "current_rating_letter": "G",
        "current_score": "70",
        "current_status_category": "reinspection_required",
        "current_status_explanation": "The inspection result or parsed PDF follow-up field indicates a follow-up/reinspection is still needed.",
        "current_status_label": "Reinspection required",
        "current_status_timing": "same_day",
        "current_status_timing_label": "Current TPCHD status is from the same date as this inspection: July 28, 2026.",
        "date": "2026-07-28",
        "facility_detail_url": "https://aca-prod.accela.com/TPCHD/GeneralProperty/FoodFacilityInspectionDetail.aspx?LicenseeNumber=PR0001542&LicenseeType=Food+Facility",
        "facility_id": "PR0001542",
        "follow_up_comment_summary": "Due to 35 or more red points, a follow-up inspection will be conducted for the red item violations noted in this inspection report. A fee of $240 will be assessed by mail for all follow-up inspections. If repeated red item violations are observed at a follow-up inspection, an additional follow-up inspection will be required.",
        "follow_up_inspection_date": "",
        "follow_up_inspection_date_iso": "",
        "follow_up_inspection_result": "",
        "follow_up_inspection_type": "",
        "follow_up_label": "No later follow-up or reinspection observed in TPCHD inspection history.",
        "follow_up_needed": "yes",
        "follow_up_red_points": "",
        "follow_up_status": "not_observed",
        "geocode_status": "ok",
        "inspection_comments": "Purpose: To conduct a food safety inspection in accordance with WAC Chapter 246-215. Due to 35 or more red points, a follow-up inspection will be conducted for the red item violations noted in this inspection report. A fee of $240 will be assessed by mail for all follow-up inspections. If repeated red item violations are observed at a follow-up inspection, an additional follow-up inspection will be required. Notes: - Do not use hand wash sink as a dump sink. Handwash sinks are for handwashing only. Compliance Schedule OBSERVATIONS AND CORRECTIVE ACTIONS You must complete the following items by the due date listed below . Your inspector will do a compliance inspection . If these items are not corrected, you will be billed for the inspection. Violations cited must be corrected within the time frames specified . Complete ByItem Number 08/11/2026 2900 Adequate equipment for temperature control. 2900 Observed the facilities cookline has no mechanical refrigeration. The facility has had repeat cold holding violations surrounding cold holding on ice on the prep line. Facility must have enough refrigeration and the right type of refrigeration to safely serve their menu. Facility must install mechanical refrigeration on or near the cook line. A compliance order has been issued to make a plan to install mechanical refrigeration on the cookline by 8/11/26. Failure to make a plan to install mechanical refrigeration on the cookline by 8/ 11/26 will result in a fee of $240 for non-compliance. Contact your inspector with questions or if you need more time to complete these items. Tacoma - Pierce County Health Department 3629 South D Street, MS 1059 Tacoma , WA 98418 Fax: (253) 649-1728Inspector : Madison Dimond",
        "inspection_date": "07/28/2026",
        "inspection_date_iso": "2026-07-28",
        "inspection_identity": "PR0001542|298002",
        "inspection_result": "A Reinspection is Required & Compliance Order Issued",
        "inspection_type": "Routine Inspection",
        "inspection_year": "2026",
        "next_follow_up_date": "",
        "official_red_points_authoritative": "",
        "original_report_quality_status": "",
        "parser_quality_notes": "",
        "point_total_conflict": "",
        "record_id": "tpchd-abf8404f12c8",
        "red_point_evidence_reviewed": "",
        "red_point_severity": "red_points_51_75",
        "red_point_severity_label": "51-75 red points",
        "red_points": 75,
        "repeat_red_points": 10,
        "report_fetch_status": "ok",
        "report_quality_review_note": "",
        "report_quality_review_source": "",
        "report_quality_reviewed": "",
        "report_quality_reviewed_at": "",
        "report_quality_status": "ok",
        "report_url": "https://aca-prod.accela.com/TPCHD/GET_INSP_DOCHandler.ashx?AltId=PR0001542&InspId=298002",
        "source": "TPCHD Accela",
        "total_points": 80,
        "zip": "98408"
      },
      "type": "Feature"
    },
    {
      "geometry": {
        "coordinates": [
          -122.4386864,
          47.2547294
        ],
        "type": "Point"
      },
      "properties": {
        "address": "921 Pacific AVE Tacoma WA 98402 United States",
        "business_name": "THIRD SPACE",
        "city": "Tacoma",
        "closure_actionable": false,
        "closure_context": "",
        "closure_duration_days": "",
        "closure_duration_hours": "",
        "closure_duration_text": "",
        "closure_reader_explanation": "",
        "closure_reader_label": "",
        "closure_reason_summary": "",
        "closure_reopen_date": "",
        "closure_status_raw": "A Reinspection is Required | Routine Inspection | Great | A Reinspection is Required | Routine Inspection | Great | Routine Inspection",
        "current_grade": "Great",
        "current_last_inspection_date": "07/27/2026",
        "current_rating_category": "rating_great",
        "current_rating_color": "#2e7d32",
        "current_rating_label": "Great",
        "current_rating_letter": "G",
        "current_score": "60",
        "current_status_category": "reinspection_required",
        "current_status_explanation": "The inspection result or parsed PDF follow-up field indicates a follow-up/reinspection is still needed.",
        "current_status_label": "Reinspection required",
        "current_status_timing": "same_day",
        "current_status_timing_label": "Current TPCHD status is from the same date as this inspection: July 27, 2026.",
        "date": "2026-07-27",
        "facility_detail_url": "https://aca-prod.accela.com/TPCHD/GeneralProperty/FoodFacilityInspectionDetail.aspx?LicenseeNumber=PR0040460&LicenseeType=Food+Facility",
        "facility_id": "PR0040460",
        "follow_up_comment_summary": "Due to 35 or more red points, a follow-up inspection will be conducted for the red item violations noted in this inspection report. A fee of $240 will be assessed by mail for all follow-up inspections. If repeated red item violations are observed at a follow-up inspection, an additional follow-up inspection will be required.",
        "follow_up_inspection_date": "",
        "follow_up_inspection_date_iso": "",
        "follow_up_inspection_result": "",
        "follow_up_inspection_type": "",
        "follow_up_label": "No later follow-up or reinspection observed in TPCHD inspection history.",
        "follow_up_needed": "yes",
        "follow_up_red_points": "",
        "follow_up_status": "not_observed",
        "geocode_status": "ok",
        "inspection_comments": "Purpose: To conduct a food safety inspection in accordance with WAC Chapter 246-215. Due to 35 or more red points, a follow-up inspection will be conducted for the red item violations noted in this inspection report. A fee of $240 will be assessed by mail for all follow-up inspections. If repeated red item violations are observed at a follow-up inspection, an additional follow-up inspection will be required. Notes: - Hand sanitizer may not be used in place of washing hands. - Spatula used for raw eggs should be designated for raw eggs only. Both the handle and metal piece are contaminated after the employee handles raw shell eggs unless hands are washed first. After handling the spatula, employees must wash their hands before putting on gloves and/or handling ready to eat food or food contact surfaces. - Do not prepare matcha or store utensils below the handwash sink sink paper towel dispenser. Food and food contact surfaces must be protected from contamination at all times during storage, preparation, and display. If food prep is observed within 18 inches of the handwash sink during future inspections, facility will be required to move the paper towel dispenser and add a splashguard at least 12 inches tall, made of smooth, non-absorbent and easily cleanable material. - Inspector recommends obtaining 2-inch hotel pans for cooling cooked onions. If deeper pans are used, do not fill them deeper than 2 inches until the food reaches 41F or below. - Remove the pest spray from the facility. If pests are observed, use traps stored below and away from food and food preparation surfaces or a professional pest service. - Maintain a copy of the facility's Certified Food Protection Manager certificate on site for inspector review.",
        "inspection_date": "07/27/2026",
        "inspection_date_iso": "2026-07-27",
        "inspection_identity": "PR0040460|760538",
        "inspection_result": "A Reinspection is Required",
        "inspection_type": "Routine Inspection",
        "inspection_year": "2026",
        "next_follow_up_date": "",
        "official_red_points_authoritative": "",
        "original_report_quality_status": "",
        "parser_quality_notes": "",
        "point_total_conflict": "",
        "record_id": "tpchd-3b7284459179",
        "red_point_evidence_reviewed": "",
        "red_point_severity": "red_points_51_75",
        "red_point_severity_label": "51-75 red points",
        "red_points": 60,
        "repeat_red_points": 10,
        "report_fetch_status": "ok",
        "report_quality_review_note": "",
        "report_quality_review_source": "",
        "report_quality_reviewed": "",
        "report_quality_reviewed_at": "",
        "report_quality_status": "ok",
        "report_url": "https://aca-prod.accela.com/TPCHD/GET_INSP_DOCHandler.ashx?AltId=PR0040460&InspId=760538",
        "source": "TPCHD Accela",
        "total_points": 60,
        "zip": "98402"
      },
      "type": "Feature"
    },
    {
      "geometry": {
        "coordinates": [
          -122.4390825,
          47.2571214
        ],
        "type": "Point"
      },
      "properties": {
        "address": "701 Pacific AVE Tacoma WA 98402 United States",
        "business_name": "THAI PEPPER",
        "city": "Tacoma",
        "closure_actionable": false,
        "closure_context": "",
        "closure_duration_days": "",
        "closure_duration_hours": "",
        "closure_duration_text": "",
        "closure_reader_explanation": "",
        "closure_reader_label": "",
        "closure_reason_summary": "",
        "closure_reopen_date": "",
        "closure_status_raw": "A Reinspection is Required | Routine Inspection | Okay | A Reinspection is Required | Routine Inspection | Okay | Routine Inspection",
        "current_grade": "Okay",
        "current_last_inspection_date": "07/27/2026",
        "current_rating_category": "rating_okay",
        "current_rating_color": "#d88c1f",
        "current_rating_label": "Okay",
        "current_rating_letter": "O",
        "current_score": "60",
        "current_status_category": "reinspection_required",
        "current_status_explanation": "The inspection result or parsed PDF follow-up field indicates a follow-up/reinspection is still needed.",
        "current_status_label": "Reinspection required",
        "current_status_timing": "same_day",
        "current_status_timing_label": "Current TPCHD status is from the same date as this inspection: July 27, 2026.",
        "date": "2026-07-27",
        "facility_detail_url": "https://aca-prod.accela.com/TPCHD/GeneralProperty/FoodFacilityInspectionDetail.aspx?LicenseeNumber=PR0034604&LicenseeType=Food+Facility",
        "facility_id": "PR0034604",
        "follow_up_comment_summary": "Due to 35 or more red points, a follow-up inspection will be conducted for the red item violations noted in this inspection report. A fee of $240 will be assessed by mail for all follow-up inspections. If repeated red item violations are observed at a follow-up inspection, an additional follow-up inspection will be required.",
        "follow_up_inspection_date": "",
        "follow_up_inspection_date_iso": "",
        "follow_up_inspection_result": "",
        "follow_up_inspection_type": "",
        "follow_up_label": "No later follow-up or reinspection observed in TPCHD inspection history.",
        "follow_up_needed": "yes",
        "follow_up_red_points": "",
        "follow_up_status": "not_observed",
        "geocode_status": "ok",
        "inspection_comments": "Purpose: To conduct a food safety inspection in accordance with WAC Chapter 246-215. Due to 35 or more red points, a follow-up inspection will be conducted for the red item violations noted in this inspection report. A fee of $240 will be assessed by mail for all follow-up inspections. If repeated red item violations are observed at a follow-up inspection, an additional follow-up inspection will be required. Notes: - In addition to start and discard times, items held on Time as a Control must be marked with the date .",
        "inspection_date": "07/27/2026",
        "inspection_date_iso": "2026-07-27",
        "inspection_identity": "PR0034604|759656",
        "inspection_result": "A Reinspection is Required",
        "inspection_type": "Routine Inspection",
        "inspection_year": "2026",
        "next_follow_up_date": "",
        "official_red_points_authoritative": "",
        "original_report_quality_status": "",
        "parser_quality_notes": "",
        "point_total_conflict": "",
        "record_id": "tpchd-698ba4c7cde1",
        "red_point_evidence_reviewed": "",
        "red_point_severity": "red_points_51_75",
        "red_point_severity_label": "51-75 red points",
        "red_points": 60,
        "repeat_red_points": 35,
        "report_fetch_status": "ok",
        "report_quality_review_note": "",
        "report_quality_review_source": "",
        "report_quality_reviewed": "",
        "report_quality_reviewed_at": "",
        "report_quality_status": "ok",
        "report_url": "https://aca-prod.accela.com/TPCHD/GET_INSP_DOCHandler.ashx?AltId=PR0034604&InspId=759656",
        "source": "TPCHD Accela",
        "total_points": 60,
        "zip": "98402"
      },
      "type": "Feature"
    },
    {
      "geometry": {
        "coordinates": [
          -122.2940303,
          47.190694
        ],
        "type": "Point"
      },
      "properties": {
        "address": "208 S Meridian Puyallup WA 98371 United States",
        "business_name": "FORUM (THE)",
        "city": "Puyallup",
        "closure_actionable": false,
        "closure_context": "",
        "closure_duration_days": "",
        "closure_duration_hours": "",
        "closure_duration_text": "",
        "closure_reader_explanation": "",
        "closure_reader_label": "",
        "closure_reason_summary": "",
        "closure_reopen_date": "",
        "closure_status_raw": "A Reinspection is Required | Routine Inspection | Okay | A Reinspection is Required | Routine Inspection | Okay | Routine Inspection",
        "current_grade": "Okay",
        "current_last_inspection_date": "07/27/2026",
        "current_rating_category": "rating_okay",
        "current_rating_color": "#d88c1f",
        "current_rating_label": "Okay",
        "current_rating_letter": "O",
        "current_score": "50",
        "current_status_category": "reinspection_required",
        "current_status_explanation": "The inspection result or parsed PDF follow-up field indicates a follow-up/reinspection is still needed.",
        "current_status_label": "Reinspection required",
        "current_status_timing": "same_day",
        "current_status_timing_label": "Current TPCHD status is from the same date as this inspection: July 27, 2026.",
        "date": "2026-07-27",
        "facility_detail_url": "https://aca-prod.accela.com/TPCHD/GeneralProperty/FoodFacilityInspectionDetail.aspx?LicenseeNumber=PR0032816&LicenseeType=Food+Facility",
        "facility_id": "PR0032816",
        "follow_up_comment_summary": "Due to 35 or more red points, a follow-up inspection will be conducted for the red item violations noted in this inspection report. A fee of $240 will be assessed by mail for all follow-up inspections. If repeated red item violations are observed at a follow-up inspection, an additional follow-up inspection will be required.",
        "follow_up_inspection_date": "",
        "follow_up_inspection_date_iso": "",
        "follow_up_inspection_result": "",
        "follow_up_inspection_type": "",
        "follow_up_label": "No later follow-up or reinspection observed in TPCHD inspection history.",
        "follow_up_needed": "yes",
        "follow_up_red_points": "",
        "follow_up_status": "not_observed",
        "geocode_status": "ok",
        "inspection_comments": "Purpose: To conduct a food safety inspection in accordance with WAC Chapter 246-215. Due to 35 or more red points, a follow-up inspection will be conducted for the red item violations noted in this inspection report. A fee of $240 will be assessed by mail for all follow-up inspections. If repeated red item violations are observed at a follow-up inspection, an additional follow-up inspection will be required. _________ Notes: - Be sure to always test your chemical produce wash to ensure chemical is at proper concentration prior to using. If solution tested too strong, use water to wash all your produce. - Be sure to thaw all your raw proteins at the designated rack inside your walk-in cooler. Facility only has one food prep sink. If cross contamination observed, facility will be required to install a second food prep sink to use for raw meats. - Be sure to only stock TCS foods at or below fill line of insert pans inside prep top cooler . Avoid overfilling and double panning . - Be sure to date mark or label cold food kept for more than 24 hours. The day you prepare, or open food is day one. You must serve or discard the food by the 7th day. For example, if you open or prepare food on Friday, serve or discard it by the next Thursday . - Sample Vomit and Diarrhea cleanup plan attached via email . Review and keep a copy on site. - Be sure to use sinks for their intended purpose only.",
        "inspection_date": "07/27/2026",
        "inspection_date_iso": "2026-07-27",
        "inspection_identity": "PR0032816|668538",
        "inspection_result": "A Reinspection is Required",
        "inspection_type": "Routine Inspection",
        "inspection_year": "2026",
        "next_follow_up_date": "",
        "official_red_points_authoritative": "",
        "original_report_quality_status": "",
        "parser_quality_notes": "",
        "point_total_conflict": "",
        "record_id": "tpchd-06ffaa348e28",
        "red_point_evidence_reviewed": "",
        "red_point_severity": "red_points_35_50",
        "red_point_severity_label": "35-50 red points",
        "red_points": 50,
        "repeat_red_points": 0,
        "report_fetch_status": "ok",
        "report_quality_review_note": "",
        "report_quality_review_source": "",
        "report_quality_reviewed": "",
        "report_quality_reviewed_at": "",
        "report_quality_status": "ok",
        "report_url": "https://aca-prod.accela.com/TPCHD/GET_INSP_DOCHandler.ashx?AltId=PR0032816&InspId=668538",
        "source": "TPCHD Accela",
        "total_points": 70,
        "zip": "98371"
      },
      "type": "Feature"
    }
  ],
  "metadata": {
    "available_years": [
      "2026"
    ],
    "coverage_note": "The map includes facilities with inspections with 35 or more red points. Locations come from facility addresses shown in TPCHD inspection records.",
    "data_universe": "TPCHD Accela food-facility inspection records observed by this publication run with parsed PDF reports; this public map layer includes only records with 35 or more red points.",
    "data_version": "20260803131506Z",
    "features_total": 8,
    "freshness_note": "Generated from the latest TPCHD inspection data publication run. The public map typically updates once a week.",
    "generated_at": "2026-08-03T13:15:06Z",
    "geometry_precision": "facility address from TPCHD inspection records",
    "inspection_date_window_end": "2026-07-31",
    "inspection_date_window_label": "July 27-31, 2026",
    "inspection_date_window_start": "2026-07-27",
    "map_cannot_show": "This map does not include inspections with fewer than 35 red points.",
    "map_claim": "Shows facilities with inspections with 35 or more red points, with current TPCHD status and later observed inspection context where available.",
    "map_type": "point_symbol",
    "privacy": {
      "excludes": [
        "Google Sheet IDs",
        "Gmail recipients",
        "raw PDF text",
        "raw collection payloads",
        "internal notes",
        "local paths"
      ],
      "public_fields_only": true,
      "review": "Exact restaurant locations are public commercial facility addresses from public inspection records."
    },
    "project": "tpchd-restaurant-inspections",
    "records_above_threshold": 8,
    "records_excluded_by_threshold": 0,
    "records_excluded_unparsed": 0,
    "records_total": 8,
    "red_point_threshold": 35,
    "schema_version": 1,
    "scope": "alert",
    "source": "TPCHD Accela food-facility inspection reports",
    "source_note": "Tacoma-Pierce County Health Department inspection reports.",
    "symbology": {
      "alert_categories": [
        {
          "color": "#d6604d",
          "icon": "exclamation",
          "id": "red_points_35_50",
          "label": "35-50 red points",
          "max": 50,
          "min": 35,
          "shape": "diamond",
          "stroke": "#ffffff"
        },
        {
          "color": "#c23030",
          "icon": "exclamation",
          "id": "red_points_51_75",
          "label": "51-75 red points",
          "max": 75,
          "min": 51,
          "shape": "diamond",
          "stroke": "#ffffff"
        },
        {
          "color": "#9f1d2d",
          "icon": "exclamation",
          "id": "red_points_76_100",
          "label": "76-100 red points",
          "max": 100,
          "min": 76,
          "shape": "diamond",
          "stroke": "#ffffff"
        },
        {
          "color": "#67000d",
          "icon": "exclamation",
          "id": "red_points_101_plus",
          "label": "101+ red points",
          "max": null,
          "min": 101,
          "shape": "diamond",
          "stroke": "#ffffff"
        }
      ],
      "evergreen_categories": [
        {
          "color": "#2e7d32",
          "id": "rating_great",
          "label": "Great",
          "letter": "G",
          "shape": "circle"
        },
        {
          "color": "#d88c1f",
          "id": "rating_okay",
          "label": "Okay",
          "letter": "O",
          "shape": "circle"
        },
        {
          "color": "#b61f2d",
          "id": "rating_needs_improve",
          "label": "Needs to improve",
          "letter": "N",
          "shape": "circle"
        },
        {
          "color": "#4b5563",
          "id": "rating_closed",
          "label": "Closed",
          "letter": "C",
          "shape": "circle"
        },
        {
          "color": "#2563eb",
          "id": "rating_new",
          "label": "New",
          "letter": "N",
          "shape": "circle"
        },
        {
          "color": "#6b7280",
          "id": "rating_not_posted",
          "label": "No grade shown by TPCHD",
          "letter": "i",
          "shape": "circle"
        },
        {
          "color": "#6b7280",
          "id": "rating_unknown",
          "label": "Status unknown",
          "letter": "?",
          "shape": "circle"
        }
      ],
      "note": "Evergreen markers use current TPCHD rating as the primary color/letter encoding. Alert/run maps use fixed red-point classes with darker red for higher totals. Marker size does not encode severity."
    },
    "threshold_label": "35 or more red points",
    "threshold_rule": "red_points >= 35",
    "title": "TPCHD inspections with 35 or more red points: July 27-31, 2026",
    "unmapped_records": 0,
    "unmapped_records_by_reason": {},
    "unmapped_records_detail": []
  },
  "type": "FeatureCollection"
}
