{
  "features": [
    {
      "geometry": {
        "coordinates": [
          -122.2453106,
          47.2360833
        ],
        "type": "Point"
      },
      "properties": {
        "address": "13701 24th ST E #A1 Sumner WA 98390 United States",
        "business_name": "BRANKS BBQ & CATERING - SIP PROGRAM",
        "city": "Sumner",
        "current_grade": "",
        "current_last_inspection_date": "05/21/2026",
        "current_rating_category": "rating_new_unknown",
        "current_rating_color": "#6b7280",
        "current_rating_label": "New or unavailable",
        "current_rating_letter": "?",
        "current_score": "0",
        "current_status_timing": "later",
        "current_status_timing_label": "Current TPCHD status is from a later inspection date: May 21, 2026.",
        "date": "2021-09-22",
        "facility_detail_url": "https://aca-prod.accela.com/TPCHD/GeneralProperty/FoodFacilityInspectionDetail.aspx?LicenseeNumber=PR0027433&LicenseeType=Food+Facility",
        "facility_id": "PR0027433",
        "follow_up_inspection_date": "05/08/2026",
        "follow_up_inspection_date_iso": "2026-05-08",
        "follow_up_inspection_result": "A Reinspection is Required",
        "follow_up_inspection_type": "Routine Inspection",
        "follow_up_label": "Later follow-up/reinspection observed on May 8, 2026 with 45 red points.",
        "follow_up_red_points": 45,
        "follow_up_status": "observed",
        "geocode_status": "row",
        "inspection_date": "09/22/2021",
        "inspection_date_iso": "2021-09-22",
        "inspection_identity": "PR0027433|568132",
        "inspection_result": "A REINSPECTION IS REQUIRED",
        "inspection_type": "Routine Inspection- F&CS",
        "inspection_year": "2021",
        "record_id": "tpchd-02217aef7d91",
        "red_point_severity": "red_points_36_50",
        "red_point_severity_label": "36-50 red points",
        "red_points": 50,
        "repeat_red_points": 50,
        "report_fetch_status": "ok",
        "report_url": "https://aca-prod.accela.com/TPCHD/GET_INSP_DOCHandler.ashx?AltId=PR0027433&InspId=568132",
        "source": "TPCHD Accela",
        "total_points": 77,
        "zip": "98390"
      },
      "type": "Feature"
    },
    {
      "geometry": {
        "coordinates": [
          -122.481023,
          47.255613
        ],
        "type": "Point"
      },
      "properties": {
        "address": "3401 6th AVE #F&G Tacoma WA 98406 United States",
        "business_name": "SILK THAI CAFE",
        "city": "Tacoma",
        "current_grade": "",
        "current_last_inspection_date": "05/21/2026",
        "current_rating_category": "rating_new_unknown",
        "current_rating_color": "#6b7280",
        "current_rating_label": "New or unavailable",
        "current_rating_letter": "?",
        "current_score": "0",
        "current_status_timing": "later",
        "current_status_timing_label": "Current TPCHD status is from a later inspection date: May 21, 2026.",
        "date": "2021-06-22",
        "facility_detail_url": "https://aca-prod.accela.com/TPCHD/GeneralProperty/FoodFacilityInspectionDetail.aspx?LicenseeNumber=PR0022641&LicenseeType=Food+Facility",
        "facility_id": "PR0022641",
        "follow_up_inspection_date": "11/16/2022",
        "follow_up_inspection_date_iso": "2022-11-16",
        "follow_up_inspection_result": "A REINSPECTION IS REQUIRED",
        "follow_up_inspection_type": "Routine Inspection- F&CS",
        "follow_up_label": "Later follow-up/reinspection observed on November 16, 2022 with 75 red points.",
        "follow_up_red_points": 75,
        "follow_up_status": "observed",
        "geocode_status": "row",
        "inspection_date": "06/22/2021",
        "inspection_date_iso": "2021-06-22",
        "inspection_identity": "PR0022641|20433",
        "inspection_result": "A REINSPECTION IS REQUIRED",
        "inspection_type": "COVID-19 Routine Inspection",
        "inspection_year": "2021",
        "record_id": "tpchd-f0445f3aa9d5",
        "red_point_severity": "red_points_51_75",
        "red_point_severity_label": "51-75 red points",
        "red_points": 60,
        "repeat_red_points": 0,
        "report_fetch_status": "ok",
        "report_url": "https://aca-prod.accela.com/TPCHD/GET_INSP_DOCHandler.ashx?AltId=PR0022641&InspId=20433",
        "source": "TPCHD Accela",
        "total_points": 65,
        "zip": "98406"
      },
      "type": "Feature"
    },
    {
      "geometry": {
        "coordinates": [
          -122.3851465,
          47.2439583
        ],
        "type": "Point"
      },
      "properties": {
        "address": "3309 Pacific HWY Fife WA 98424 United States",
        "business_name": "7-ELEVEN #38722H",
        "city": "Fife",
        "current_grade": "",
        "current_last_inspection_date": "02/19/2026",
        "current_rating_category": "rating_new_unknown",
        "current_rating_color": "#6b7280",
        "current_rating_label": "New or unavailable",
        "current_rating_letter": "?",
        "current_score": "0",
        "current_status_timing": "later",
        "current_status_timing_label": "Current TPCHD status is from a later inspection date: February 19, 2026.",
        "date": "2021-02-02",
        "facility_detail_url": "https://aca-prod.accela.com/TPCHD/GeneralProperty/FoodFacilityInspectionDetail.aspx?LicenseeNumber=PR0040189&LicenseeType=Food+Facility",
        "facility_id": "PR0040189",
        "follow_up_inspection_date": "",
        "follow_up_inspection_date_iso": "",
        "follow_up_inspection_result": "",
        "follow_up_inspection_type": "",
        "follow_up_label": "Later current TPCHD status observed on February 19, 2026, but the specific later inspection/report is not parsed into this map dataset.",
        "follow_up_red_points": "",
        "follow_up_status": "not_parsed",
        "geocode_status": "row",
        "inspection_date": "02/02/2021",
        "inspection_date_iso": "2021-02-02",
        "inspection_identity": "PR0040189|73793",
        "inspection_result": "A REINSPECTION IS REQUIRED",
        "inspection_type": "COVID-19 Routine Inspection",
        "inspection_year": "2021",
        "record_id": "tpchd-db3ccb110e04",
        "red_point_severity": "red_points_36_50",
        "red_point_severity_label": "36-50 red points",
        "red_points": 40,
        "repeat_red_points": 40,
        "report_fetch_status": "ok",
        "report_url": "https://aca-prod.accela.com/TPCHD/GET_INSP_DOCHandler.ashx?AltId=PR0040189&InspId=73793",
        "source": "TPCHD Accela",
        "total_points": 41,
        "zip": "98424"
      },
      "type": "Feature"
    }
  ],
  "metadata": {
    "available_years": [
      "2021"
    ],
    "coverage_note": "Rows below the threshold and unparsed reports are not drawn on this over-threshold map. Rows above the threshold without reviewed coordinates are counted as unmapped. Follow-up context is inferred from later scraper-observed inspection rows for the same facility and the current-status fields on the facility page.",
    "data_universe": "Scraper-observed TPCHD Accela food-facility inspection records with parsed PDF reports; this public map layer includes only records over the red-point threshold.",
    "data_version": "20260526164749Z",
    "features_total": 3,
    "freshness_note": "Generated from the latest TPCHD scraper/publication run.",
    "generated_at": "2026-05-26T16:47:49Z",
    "geometry_precision": "reviewed facility address geocode",
    "inspection_date_window_end": "2026-05-18",
    "inspection_date_window_label": "February 2, 2021-May 18, 2026",
    "inspection_date_window_start": "2021-02-02",
    "map_cannot_show": "This map does not show neighborhood-level health risk, all inspections below the threshold, or rows without reviewed coordinates.",
    "map_claim": "Shows geocoded public restaurant inspection records with more than 35 red points, with current TPCHD rating and later observed inspection context where available.",
    "map_type": "point_symbol",
    "privacy": {
      "excludes": [
        "Google Sheet IDs",
        "Gmail recipients",
        "raw PDF text",
        "raw scraper payloads",
        "internal notes",
        "local paths"
      ],
      "public_fields_only": true,
      "review": "Exact restaurant locations are public commercial facility addresses from public inspection records."
    },
    "project": "tpchd-restaurant-inspections",
    "records_above_threshold": 90,
    "records_excluded_by_threshold": 0,
    "records_excluded_unparsed": 0,
    "records_total": 90,
    "red_point_threshold": 35,
    "schema_version": 1,
    "scope": "year:2021",
    "source": "TPCHD Accela food-facility inspection reports",
    "source_note": "Tacoma-Pierce County Health Department Accela food-facility inspection pages and parsed inspection-report PDFs.",
    "symbology": {
      "alert_categories": [
        {
          "color": "#d6604d",
          "icon": "exclamation",
          "id": "red_points_36_50",
          "label": "36-50 red points",
          "max": 50,
          "min": 36,
          "shape": "diamond",
          "stroke": "#ffffff"
        },
        {
          "color": "#c23030",
          "icon": "exclamation",
          "id": "red_points_51_75",
          "label": "51-75 red points",
          "max": 75,
          "min": 51,
          "shape": "diamond",
          "stroke": "#ffffff"
        },
        {
          "color": "#9f1d2d",
          "icon": "exclamation",
          "id": "red_points_76_100",
          "label": "76-100 red points",
          "max": 100,
          "min": 76,
          "shape": "diamond",
          "stroke": "#ffffff"
        },
        {
          "color": "#67000d",
          "icon": "exclamation",
          "id": "red_points_101_plus",
          "label": "101+ red points",
          "max": null,
          "min": 101,
          "shape": "diamond",
          "stroke": "#ffffff"
        }
      ],
      "evergreen_categories": [
        {
          "color": "#2e7d32",
          "id": "rating_great",
          "label": "Great",
          "letter": "G",
          "shape": "circle"
        },
        {
          "color": "#d88c1f",
          "id": "rating_okay",
          "label": "Okay",
          "letter": "O",
          "shape": "circle"
        },
        {
          "color": "#b61f2d",
          "id": "rating_needs_improve",
          "label": "Needs to improve",
          "letter": "N",
          "shape": "circle"
        },
        {
          "color": "#4b5563",
          "id": "rating_closed",
          "label": "Closed",
          "letter": "C",
          "shape": "circle"
        },
        {
          "color": "#6b7280",
          "id": "rating_new_unknown",
          "label": "New or unavailable",
          "letter": "?",
          "shape": "circle"
        }
      ],
      "note": "Evergreen markers use current TPCHD rating as the primary color/letter encoding. Alert/run maps use fixed red-point classes with darker red for higher totals. Marker size does not encode severity."
    },
    "threshold_label": "More than 35 red points",
    "threshold_rule": "red_points > 35",
    "title": "Tacoma-Pierce County restaurant inspection history and current ratings",
    "unmapped_records": 0,
    "unmapped_records_by_reason": {}
  },
  "type": "FeatureCollection"
}
