{
  "features": [
    {
      "geometry": {
        "coordinates": [
          -122.5160428,
          47.2982448
        ],
        "type": "Point"
      },
      "properties": {
        "address": "5102 N Pearl St Tacoma WA 98407 United States",
        "business_name": "ANTIQUE SANDWICH",
        "city": "Tacoma",
        "current_grade": "Great",
        "current_last_inspection_date": "02/20/2026",
        "current_rating_category": "rating_great",
        "current_rating_color": "#2e7d32",
        "current_rating_label": "Great",
        "current_rating_letter": "G",
        "current_score": "0",
        "current_status_timing": "later",
        "current_status_timing_label": "Current TPCHD status is from a later inspection date: February 20, 2026.",
        "date": "2023-12-20",
        "facility_detail_url": "https://aca-prod.accela.com/TPCHD/GeneralProperty/FoodFacilityInspectionDetail.aspx?LicenseeNumber=PR0000002&LicenseeType=Food+Facility",
        "facility_id": "PR0000002",
        "follow_up_inspection_date": "",
        "follow_up_inspection_date_iso": "",
        "follow_up_inspection_result": "",
        "follow_up_inspection_type": "",
        "follow_up_label": "Later current TPCHD status observed on February 20, 2026, but the specific later inspection/report is not parsed into this map dataset.",
        "follow_up_red_points": "",
        "follow_up_status": "not_parsed",
        "geocode_status": "row",
        "inspection_date": "12/20/2023",
        "inspection_date_iso": "2023-12-20",
        "inspection_identity": "PR0000002|272559",
        "inspection_result": "A REINSPECTION IS REQUIRED",
        "inspection_type": "Routine Inspection- F&CS",
        "inspection_year": "2023",
        "record_id": "tpchd-d29869fe00a7",
        "red_point_severity": "red_points_51_75",
        "red_point_severity_label": "51-75 red points",
        "red_points": 60,
        "repeat_red_points": 55,
        "report_fetch_status": "ok",
        "report_url": "https://aca-prod.accela.com/TPCHD/GET_INSP_DOCHandler.ashx?AltId=PR0000002&InspId=272559",
        "source": "TPCHD Accela",
        "total_points": 62,
        "zip": "98407"
      },
      "type": "Feature"
    },
    {
      "geometry": {
        "coordinates": [
          -122.5874741,
          47.32077719999999
        ],
        "type": "Point"
      },
      "properties": {
        "address": "6820 Kimball Dr A-1 Gig Harbor WA 98335 United States",
        "business_name": "KINZA TERIYAKI",
        "city": "Gig Harbor",
        "current_grade": "",
        "current_last_inspection_date": "03/16/2026",
        "current_rating_category": "rating_new_unknown",
        "current_rating_color": "#6b7280",
        "current_rating_label": "New or unavailable",
        "current_rating_letter": "?",
        "current_score": "0",
        "current_status_timing": "later",
        "current_status_timing_label": "Current TPCHD status is from a later inspection date: March 16, 2026.",
        "date": "2023-12-15",
        "facility_detail_url": "https://aca-prod.accela.com/TPCHD/GeneralProperty/FoodFacilityInspectionDetail.aspx?LicenseeNumber=PR0039437&LicenseeType=Food+Facility",
        "facility_id": "PR0039437",
        "follow_up_inspection_date": "10/11/2024",
        "follow_up_inspection_date_iso": "2024-10-11",
        "follow_up_inspection_result": "A REINSPECTION IS REQUIRED",
        "follow_up_inspection_type": "Routine Inspection- F&CS",
        "follow_up_label": "Later follow-up/reinspection observed on October 11, 2024 with 60 red points.",
        "follow_up_red_points": 60,
        "follow_up_status": "observed",
        "geocode_status": "row",
        "inspection_date": "12/15/2023",
        "inspection_date_iso": "2023-12-15",
        "inspection_identity": "PR0039437|325854",
        "inspection_result": "A REINSPECTION IS REQUIRED",
        "inspection_type": "Routine Inspection- F&CS",
        "inspection_year": "2023",
        "record_id": "tpchd-0231f4d8e43f",
        "red_point_severity": "red_points_51_75",
        "red_point_severity_label": "51-75 red points",
        "red_points": 65,
        "repeat_red_points": 65,
        "report_fetch_status": "ok",
        "report_url": "https://aca-prod.accela.com/TPCHD/GET_INSP_DOCHandler.ashx?AltId=PR0039437&InspId=325854",
        "source": "TPCHD Accela",
        "total_points": 69,
        "zip": "98335"
      },
      "type": "Feature"
    },
    {
      "geometry": {
        "coordinates": [
          -122.611856,
          47.5347885
        ],
        "type": "Point"
      },
      "properties": {
        "address": "1472 Olney AVE SE Port Orchard WA 98366 United States",
        "business_name": "TAQUERIA EL GUERO - TPCHD #0264",
        "city": "Port Orchard",
        "current_grade": "",
        "current_last_inspection_date": "03/05/2026",
        "current_rating_category": "rating_new_unknown",
        "current_rating_color": "#6b7280",
        "current_rating_label": "New or unavailable",
        "current_rating_letter": "?",
        "current_score": "0",
        "current_status_timing": "later",
        "current_status_timing_label": "Current TPCHD status is from a later inspection date: March 5, 2026.",
        "date": "2023-12-12",
        "facility_detail_url": "https://aca-prod.accela.com/TPCHD/GeneralProperty/FoodFacilityInspectionDetail.aspx?LicenseeNumber=PR0040302&LicenseeType=Food+Facility",
        "facility_id": "PR0040302",
        "follow_up_inspection_date": "10/30/2024",
        "follow_up_inspection_date_iso": "2024-10-30",
        "follow_up_inspection_result": "A REINSPECTION IS REQUIRED",
        "follow_up_inspection_type": "Routine Inspection- F&CS",
        "follow_up_label": "Later follow-up/reinspection observed on October 30, 2024 with 55 red points.",
        "follow_up_red_points": 55,
        "follow_up_status": "observed",
        "geocode_status": "row",
        "inspection_date": "12/12/2023",
        "inspection_date_iso": "2023-12-12",
        "inspection_identity": "PR0040302|419843",
        "inspection_result": "A REINSPECTION IS REQUIRED",
        "inspection_type": "Routine Inspection- F&CS",
        "inspection_year": "2023",
        "record_id": "tpchd-84f789aded83",
        "red_point_severity": "red_points_51_75",
        "red_point_severity_label": "51-75 red points",
        "red_points": 63,
        "repeat_red_points": 60,
        "report_fetch_status": "ok",
        "report_url": "https://aca-prod.accela.com/TPCHD/GET_INSP_DOCHandler.ashx?AltId=PR0040302&InspId=419843",
        "source": "TPCHD Accela",
        "total_points": 77,
        "zip": "98366"
      },
      "type": "Feature"
    },
    {
      "geometry": {
        "coordinates": [
          -122.4352686,
          47.2398546
        ],
        "type": "Point"
      },
      "properties": {
        "address": "2401 Pacific AVE Tacoma WA 98402 United States",
        "business_name": "BERLINER BEERHALL",
        "city": "Tacoma",
        "current_grade": "",
        "current_last_inspection_date": "01/08/2026",
        "current_rating_category": "rating_new_unknown",
        "current_rating_color": "#6b7280",
        "current_rating_label": "New or unavailable",
        "current_rating_letter": "?",
        "current_score": "0",
        "current_status_timing": "later",
        "current_status_timing_label": "Current TPCHD status is from a later inspection date: January 8, 2026.",
        "date": "2023-12-08",
        "facility_detail_url": "https://aca-prod.accela.com/TPCHD/GeneralProperty/FoodFacilityInspectionDetail.aspx?LicenseeNumber=PR0035984&LicenseeType=Food+Facility",
        "facility_id": "PR0035984",
        "follow_up_inspection_date": "12/19/2024",
        "follow_up_inspection_date_iso": "2024-12-19",
        "follow_up_inspection_result": "A REINSPECTION IS REQUIRED",
        "follow_up_inspection_type": "Routine Inspection- F&CS",
        "follow_up_label": "Later follow-up/reinspection observed on December 19, 2024 with 50 red points.",
        "follow_up_red_points": 50,
        "follow_up_status": "observed",
        "geocode_status": "row",
        "inspection_date": "12/08/2023",
        "inspection_date_iso": "2023-12-08",
        "inspection_identity": "PR0035984|302879",
        "inspection_result": "NOT APPLICABLE",
        "inspection_type": "Routine Inspection- F&CS",
        "inspection_year": "2023",
        "record_id": "tpchd-a782b407c86c",
        "red_point_severity": "red_points_51_75",
        "red_point_severity_label": "51-75 red points",
        "red_points": 60,
        "repeat_red_points": 60,
        "report_fetch_status": "ok",
        "report_url": "https://aca-prod.accela.com/TPCHD/GET_INSP_DOCHandler.ashx?AltId=PR0035984&InspId=302879",
        "source": "TPCHD Accela",
        "total_points": 68,
        "zip": "98402"
      },
      "type": "Feature"
    },
    {
      "geometry": {
        "coordinates": [
          -122.3033912,
          47.1605233
        ],
        "type": "Point"
      },
      "properties": {
        "address": "804 South Hill Park DR Puyallup WA 98373 United States",
        "business_name": "MCDONALD'S #19976",
        "city": "Puyallup",
        "current_grade": "Great",
        "current_last_inspection_date": "02/20/2026",
        "current_rating_category": "rating_great",
        "current_rating_color": "#2e7d32",
        "current_rating_label": "Great",
        "current_rating_letter": "G",
        "current_score": "0",
        "current_status_timing": "later",
        "current_status_timing_label": "Current TPCHD status is from a later inspection date: February 20, 2026.",
        "date": "2023-12-01",
        "facility_detail_url": "https://aca-prod.accela.com/TPCHD/GeneralProperty/FoodFacilityInspectionDetail.aspx?LicenseeNumber=PR0038184&LicenseeType=Food+Facility",
        "facility_id": "PR0038184",
        "follow_up_inspection_date": "",
        "follow_up_inspection_date_iso": "",
        "follow_up_inspection_result": "",
        "follow_up_inspection_type": "",
        "follow_up_label": "Later current TPCHD status observed on February 20, 2026, but the specific later inspection/report is not parsed into this map dataset.",
        "follow_up_red_points": "",
        "follow_up_status": "not_parsed",
        "geocode_status": "row",
        "inspection_date": "12/01/2023",
        "inspection_date_iso": "2023-12-01",
        "inspection_identity": "PR0038184|389080",
        "inspection_result": "A REINSPECTION IS REQUIRED",
        "inspection_type": "Routine Inspection- F&CS",
        "inspection_year": "2023",
        "record_id": "tpchd-e261c1f8d041",
        "red_point_severity": "red_points_36_50",
        "red_point_severity_label": "36-50 red points",
        "red_points": 45,
        "repeat_red_points": 45,
        "report_fetch_status": "ok",
        "report_url": "https://aca-prod.accela.com/TPCHD/GET_INSP_DOCHandler.ashx?AltId=PR0038184&InspId=389080",
        "source": "TPCHD Accela",
        "total_points": 93,
        "zip": "98373"
      },
      "type": "Feature"
    },
    {
      "geometry": {
        "coordinates": [
          -122.5563389,
          47.24388339999999
        ],
        "type": "Point"
      },
      "properties": {
        "address": "9001 S 19th ST Tacoma WA 98466 United States",
        "business_name": "ANTHONY'S BOATHOUSE",
        "city": "Tacoma",
        "current_grade": "Great",
        "current_last_inspection_date": "02/23/2026",
        "current_rating_category": "rating_great",
        "current_rating_color": "#2e7d32",
        "current_rating_label": "Great",
        "current_rating_letter": "G",
        "current_score": "0",
        "current_status_timing": "later",
        "current_status_timing_label": "Current TPCHD status is from a later inspection date: February 23, 2026.",
        "date": "2023-10-25",
        "facility_detail_url": "https://aca-prod.accela.com/TPCHD/GeneralProperty/FoodFacilityInspectionDetail.aspx?LicenseeNumber=PR0038203&LicenseeType=Food+Facility",
        "facility_id": "PR0038203",
        "follow_up_inspection_date": "08/15/2025",
        "follow_up_inspection_date_iso": "2025-08-15",
        "follow_up_inspection_result": "A Reinspection is Required",
        "follow_up_inspection_type": "Routine Inspection",
        "follow_up_label": "Later follow-up/reinspection observed on August 15, 2025 with 50 red points.",
        "follow_up_red_points": 50,
        "follow_up_status": "observed",
        "geocode_status": "row",
        "inspection_date": "10/25/2023",
        "inspection_date_iso": "2023-10-25",
        "inspection_identity": "PR0038203|332255",
        "inspection_result": "A REINSPECTION IS REQUIRED",
        "inspection_type": "Routine Inspection- F&CS",
        "inspection_year": "2023",
        "record_id": "tpchd-f2e76ff89c43",
        "red_point_severity": "red_points_36_50",
        "red_point_severity_label": "36-50 red points",
        "red_points": 48,
        "repeat_red_points": 40,
        "report_fetch_status": "ok",
        "report_url": "https://aca-prod.accela.com/TPCHD/GET_INSP_DOCHandler.ashx?AltId=PR0038203&InspId=332255",
        "source": "TPCHD Accela",
        "total_points": 129,
        "zip": "98466"
      },
      "type": "Feature"
    },
    {
      "geometry": {
        "coordinates": [
          -122.4502844,
          47.24336530000001
        ],
        "type": "Point"
      },
      "properties": {
        "address": "1902 MLK JR WAY Tacoma WA 98405 United States",
        "business_name": "EZELLS FAMOUS CHICKEN",
        "city": "Tacoma",
        "current_grade": "",
        "current_last_inspection_date": "05/14/2026",
        "current_rating_category": "rating_new_unknown",
        "current_rating_color": "#6b7280",
        "current_rating_label": "New or unavailable",
        "current_rating_letter": "?",
        "current_score": "0",
        "current_status_timing": "later",
        "current_status_timing_label": "Current TPCHD status is from a later inspection date: May 14, 2026.",
        "date": "2023-10-12",
        "facility_detail_url": "https://aca-prod.accela.com/TPCHD/GeneralProperty/FoodFacilityInspectionDetail.aspx?LicenseeNumber=PR0031849&LicenseeType=Food+Facility",
        "facility_id": "PR0031849",
        "follow_up_inspection_date": "03/25/2025",
        "follow_up_inspection_date_iso": "2025-03-25",
        "follow_up_inspection_result": "A REINSPECTION IS REQUIRED",
        "follow_up_inspection_type": "Routine Inspection- F&CS",
        "follow_up_label": "Later follow-up/reinspection observed on March 25, 2025 with 65 red points.",
        "follow_up_red_points": 65,
        "follow_up_status": "observed",
        "geocode_status": "row",
        "inspection_date": "10/12/2023",
        "inspection_date_iso": "2023-10-12",
        "inspection_identity": "PR0031849|300521",
        "inspection_result": "A REINSPECTION IS REQUIRED",
        "inspection_type": "Routine Inspection- F&CS",
        "inspection_year": "2023",
        "record_id": "tpchd-069fe6845ccc",
        "red_point_severity": "red_points_51_75",
        "red_point_severity_label": "51-75 red points",
        "red_points": 65,
        "repeat_red_points": 60,
        "report_fetch_status": "ok",
        "report_url": "https://aca-prod.accela.com/TPCHD/GET_INSP_DOCHandler.ashx?AltId=PR0031849&InspId=300521",
        "source": "TPCHD Accela",
        "total_points": 98,
        "zip": "98405"
      },
      "type": "Feature"
    },
    {
      "geometry": {
        "coordinates": [
          -122.5988608,
          47.17286259999999
        ],
        "type": "Point"
      },
      "properties": {
        "address": "1617 Lafayette ST Steilacoom WA 98388 United States",
        "business_name": "BAIR (THE)",
        "city": "Steilacoom",
        "current_grade": "",
        "current_last_inspection_date": "12/09/2025",
        "current_rating_category": "rating_new_unknown",
        "current_rating_color": "#6b7280",
        "current_rating_label": "New or unavailable",
        "current_rating_letter": "?",
        "current_score": "0",
        "current_status_timing": "later",
        "current_status_timing_label": "Current TPCHD status is from a later inspection date: December 9, 2025.",
        "date": "2023-09-15",
        "facility_detail_url": "https://aca-prod.accela.com/TPCHD/GeneralProperty/FoodFacilityInspectionDetail.aspx?LicenseeNumber=PR0036828&LicenseeType=Food+Facility",
        "facility_id": "PR0036828",
        "follow_up_inspection_date": "03/14/2025",
        "follow_up_inspection_date_iso": "2025-03-14",
        "follow_up_inspection_result": "A REINSPECTION IS REQUIRED",
        "follow_up_inspection_type": "Routine Inspection- F&CS",
        "follow_up_label": "Later follow-up/reinspection observed on March 14, 2025 with 75 red points.",
        "follow_up_red_points": 75,
        "follow_up_status": "observed",
        "geocode_status": "row",
        "inspection_date": "09/15/2023",
        "inspection_date_iso": "2023-09-15",
        "inspection_identity": "PR0036828|245869",
        "inspection_result": "A REINSPECTION IS REQUIRED",
        "inspection_type": "Routine Inspection- F&CS",
        "inspection_year": "2023",
        "record_id": "tpchd-06e3b3fed126",
        "red_point_severity": "red_points_36_50",
        "red_point_severity_label": "36-50 red points",
        "red_points": 50,
        "repeat_red_points": 45,
        "report_fetch_status": "ok",
        "report_url": "https://aca-prod.accela.com/TPCHD/GET_INSP_DOCHandler.ashx?AltId=PR0036828&InspId=245869",
        "source": "TPCHD Accela",
        "total_points": 165,
        "zip": "98388"
      },
      "type": "Feature"
    },
    {
      "geometry": {
        "coordinates": [
          -122.4354001,
          47.1009943
        ],
        "type": "Point"
      },
      "properties": {
        "address": "17106 Pacific AVE S Spanaway WA 98387 United States",
        "business_name": "FLYING TOMATO BAR & GRILL",
        "city": "Spanaway",
        "current_grade": "Great",
        "current_last_inspection_date": "01/29/2026",
        "current_rating_category": "rating_great",
        "current_rating_color": "#2e7d32",
        "current_rating_label": "Great",
        "current_rating_letter": "G",
        "current_score": "20",
        "current_status_timing": "later",
        "current_status_timing_label": "Current TPCHD status is from a later inspection date: January 29, 2026.",
        "date": "2023-08-16",
        "facility_detail_url": "https://aca-prod.accela.com/TPCHD/GeneralProperty/FoodFacilityInspectionDetail.aspx?LicenseeNumber=PR0038773&LicenseeType=Food+Facility",
        "facility_id": "PR0038773",
        "follow_up_inspection_date": "",
        "follow_up_inspection_date_iso": "",
        "follow_up_inspection_result": "",
        "follow_up_inspection_type": "",
        "follow_up_label": "Later current TPCHD status observed on January 29, 2026, but the specific later inspection/report is not parsed into this map dataset.",
        "follow_up_red_points": "",
        "follow_up_status": "not_parsed",
        "geocode_status": "row",
        "inspection_date": "08/16/2023",
        "inspection_date_iso": "2023-08-16",
        "inspection_identity": "PR0038773|389702",
        "inspection_result": "A REINSPECTION IS REQUIRED",
        "inspection_type": "Routine Inspection- F&CS",
        "inspection_year": "2023",
        "record_id": "tpchd-0ab825a4e1d4",
        "red_point_severity": "red_points_36_50",
        "red_point_severity_label": "36-50 red points",
        "red_points": 45,
        "repeat_red_points": 45,
        "report_fetch_status": "ok",
        "report_url": "https://aca-prod.accela.com/TPCHD/GET_INSP_DOCHandler.ashx?AltId=PR0038773&InspId=389702",
        "source": "TPCHD Accela",
        "total_points": 71,
        "zip": "98387"
      },
      "type": "Feature"
    },
    {
      "geometry": {
        "coordinates": [
          -122.5067449,
          47.30115989999999
        ],
        "type": "Point"
      },
      "properties": {
        "address": "5125 Grand Loop Ruston WA 98407 United States",
        "business_name": "SILVER CLOUD",
        "city": "Ruston",
        "current_grade": "Great",
        "current_last_inspection_date": "02/06/2026",
        "current_rating_category": "rating_great",
        "current_rating_color": "#2e7d32",
        "current_rating_label": "Great",
        "current_rating_letter": "G",
        "current_score": "0",
        "current_status_timing": "later",
        "current_status_timing_label": "Current TPCHD status is from a later inspection date: February 6, 2026.",
        "date": "2023-08-07",
        "facility_detail_url": "https://aca-prod.accela.com/TPCHD/GeneralProperty/FoodFacilityInspectionDetail.aspx?LicenseeNumber=PR0037564&LicenseeType=Food+Facility",
        "facility_id": "PR0037564",
        "follow_up_inspection_date": "04/19/2024",
        "follow_up_inspection_date_iso": "2024-04-19",
        "follow_up_inspection_result": "A REINSPECTION IS REQUIRED",
        "follow_up_inspection_type": "Routine Inspection- F&CS",
        "follow_up_label": "Later follow-up/reinspection observed on April 19, 2024 with 55 red points.",
        "follow_up_red_points": 55,
        "follow_up_status": "observed",
        "geocode_status": "row",
        "inspection_date": "08/07/2023",
        "inspection_date_iso": "2023-08-07",
        "inspection_identity": "PR0037564|421068",
        "inspection_result": "A REINSPECTION IS REQUIRED",
        "inspection_type": "Routine Inspection- F&CS",
        "inspection_year": "2023",
        "record_id": "tpchd-f7169e9622fd",
        "red_point_severity": "red_points_36_50",
        "red_point_severity_label": "36-50 red points",
        "red_points": 50,
        "repeat_red_points": 50,
        "report_fetch_status": "ok",
        "report_url": "https://aca-prod.accela.com/TPCHD/GET_INSP_DOCHandler.ashx?AltId=PR0037564&InspId=421068",
        "source": "TPCHD Accela",
        "total_points": 110,
        "zip": "98407"
      },
      "type": "Feature"
    },
    {
      "geometry": {
        "coordinates": [
          -122.2419218,
          47.20341
        ],
        "type": "Point"
      },
      "properties": {
        "address": "905 Main ST Sumner WA 98390 United States",
        "business_name": "ELECTRIC COFFEE HOUSE",
        "city": "Sumner",
        "current_grade": "",
        "current_last_inspection_date": "05/29/2025",
        "current_rating_category": "rating_new_unknown",
        "current_rating_color": "#6b7280",
        "current_rating_label": "New or unavailable",
        "current_rating_letter": "?",
        "current_score": "5",
        "current_status_timing": "later",
        "current_status_timing_label": "Current TPCHD status is from a later inspection date: May 29, 2025.",
        "date": "2023-03-20",
        "facility_detail_url": "https://aca-prod.accela.com/TPCHD/GeneralProperty/FoodFacilityInspectionDetail.aspx?LicenseeNumber=PR0036408&LicenseeType=Food+Facility",
        "facility_id": "PR0036408",
        "follow_up_inspection_date": "",
        "follow_up_inspection_date_iso": "",
        "follow_up_inspection_result": "",
        "follow_up_inspection_type": "",
        "follow_up_label": "Later current TPCHD status observed on May 29, 2025, but the specific later inspection/report is not parsed into this map dataset.",
        "follow_up_red_points": "",
        "follow_up_status": "not_parsed",
        "geocode_status": "row",
        "inspection_date": "03/20/2023",
        "inspection_date_iso": "2023-03-20",
        "inspection_identity": "PR0036408|606946",
        "inspection_result": "A REINSPECTION IS REQUIRED",
        "inspection_type": "Routine Inspection- F&CS",
        "inspection_year": "2023",
        "record_id": "tpchd-647c8c3a2354",
        "red_point_severity": "red_points_51_75",
        "red_point_severity_label": "51-75 red points",
        "red_points": 60,
        "repeat_red_points": 55,
        "report_fetch_status": "ok",
        "report_url": "https://aca-prod.accela.com/TPCHD/GET_INSP_DOCHandler.ashx?AltId=PR0036408&InspId=606946",
        "source": "TPCHD Accela",
        "total_points": 117,
        "zip": "98390"
      },
      "type": "Feature"
    }
  ],
  "metadata": {
    "available_years": [
      "2023"
    ],
    "coverage_note": "Rows below the threshold and unparsed reports are not drawn on this over-threshold map. Rows above the threshold without reviewed coordinates are counted as unmapped. Follow-up context is inferred from later scraper-observed inspection rows for the same facility and the current-status fields on the facility page.",
    "data_universe": "Scraper-observed TPCHD Accela food-facility inspection records with parsed PDF reports; this public map layer includes only records over the red-point threshold.",
    "data_version": "20260526164749Z",
    "features_total": 11,
    "freshness_note": "Generated from the latest TPCHD scraper/publication run.",
    "generated_at": "2026-05-26T16:47:49Z",
    "geometry_precision": "reviewed facility address geocode",
    "inspection_date_window_end": "2026-05-18",
    "inspection_date_window_label": "February 2, 2021-May 18, 2026",
    "inspection_date_window_start": "2021-02-02",
    "map_cannot_show": "This map does not show neighborhood-level health risk, all inspections below the threshold, or rows without reviewed coordinates.",
    "map_claim": "Shows geocoded public restaurant inspection records with more than 35 red points, with current TPCHD rating and later observed inspection context where available.",
    "map_type": "point_symbol",
    "privacy": {
      "excludes": [
        "Google Sheet IDs",
        "Gmail recipients",
        "raw PDF text",
        "raw scraper payloads",
        "internal notes",
        "local paths"
      ],
      "public_fields_only": true,
      "review": "Exact restaurant locations are public commercial facility addresses from public inspection records."
    },
    "project": "tpchd-restaurant-inspections",
    "records_above_threshold": 90,
    "records_excluded_by_threshold": 0,
    "records_excluded_unparsed": 0,
    "records_total": 90,
    "red_point_threshold": 35,
    "schema_version": 1,
    "scope": "year:2023",
    "source": "TPCHD Accela food-facility inspection reports",
    "source_note": "Tacoma-Pierce County Health Department Accela food-facility inspection pages and parsed inspection-report PDFs.",
    "symbology": {
      "alert_categories": [
        {
          "color": "#d6604d",
          "icon": "exclamation",
          "id": "red_points_36_50",
          "label": "36-50 red points",
          "max": 50,
          "min": 36,
          "shape": "diamond",
          "stroke": "#ffffff"
        },
        {
          "color": "#c23030",
          "icon": "exclamation",
          "id": "red_points_51_75",
          "label": "51-75 red points",
          "max": 75,
          "min": 51,
          "shape": "diamond",
          "stroke": "#ffffff"
        },
        {
          "color": "#9f1d2d",
          "icon": "exclamation",
          "id": "red_points_76_100",
          "label": "76-100 red points",
          "max": 100,
          "min": 76,
          "shape": "diamond",
          "stroke": "#ffffff"
        },
        {
          "color": "#67000d",
          "icon": "exclamation",
          "id": "red_points_101_plus",
          "label": "101+ red points",
          "max": null,
          "min": 101,
          "shape": "diamond",
          "stroke": "#ffffff"
        }
      ],
      "evergreen_categories": [
        {
          "color": "#2e7d32",
          "id": "rating_great",
          "label": "Great",
          "letter": "G",
          "shape": "circle"
        },
        {
          "color": "#d88c1f",
          "id": "rating_okay",
          "label": "Okay",
          "letter": "O",
          "shape": "circle"
        },
        {
          "color": "#b61f2d",
          "id": "rating_needs_improve",
          "label": "Needs to improve",
          "letter": "N",
          "shape": "circle"
        },
        {
          "color": "#4b5563",
          "id": "rating_closed",
          "label": "Closed",
          "letter": "C",
          "shape": "circle"
        },
        {
          "color": "#6b7280",
          "id": "rating_new_unknown",
          "label": "New or unavailable",
          "letter": "?",
          "shape": "circle"
        }
      ],
      "note": "Evergreen markers use current TPCHD rating as the primary color/letter encoding. Alert/run maps use fixed red-point classes with darker red for higher totals. Marker size does not encode severity."
    },
    "threshold_label": "More than 35 red points",
    "threshold_rule": "red_points > 35",
    "title": "Tacoma-Pierce County restaurant inspection history and current ratings",
    "unmapped_records": 0,
    "unmapped_records_by_reason": {}
  },
  "type": "FeatureCollection"
}
