{
  "features": [
    {
      "geometry": {
        "coordinates": [
          -122.4352686,
          47.2398546
        ],
        "type": "Point"
      },
      "properties": {
        "address": "2401 Pacific AVE Tacoma WA 98402 United States",
        "business_name": "BERLINER BEERHALL",
        "city": "Tacoma",
        "current_grade": "",
        "current_last_inspection_date": "01/08/2026",
        "current_rating_category": "rating_new_unknown",
        "current_rating_color": "#6b7280",
        "current_rating_label": "New or unavailable",
        "current_rating_letter": "?",
        "current_score": "0",
        "current_status_timing": "later",
        "current_status_timing_label": "Current TPCHD status is from a later inspection date: January 8, 2026.",
        "date": "2024-12-19",
        "facility_detail_url": "https://aca-prod.accela.com/TPCHD/GeneralProperty/FoodFacilityInspectionDetail.aspx?LicenseeNumber=PR0035984&LicenseeType=Food+Facility",
        "facility_id": "PR0035984",
        "follow_up_inspection_date": "12/18/2025",
        "follow_up_inspection_date_iso": "2025-12-18",
        "follow_up_inspection_result": "A Reinspection is Required",
        "follow_up_inspection_type": "Routine Inspection",
        "follow_up_label": "Later follow-up/reinspection observed on December 18, 2025 with 40 red points.",
        "follow_up_red_points": 40,
        "follow_up_status": "observed",
        "geocode_status": "row",
        "inspection_date": "12/19/2024",
        "inspection_date_iso": "2024-12-19",
        "inspection_identity": "PR0035984|302878",
        "inspection_result": "A REINSPECTION IS REQUIRED",
        "inspection_type": "Routine Inspection- F&CS",
        "inspection_year": "2024",
        "record_id": "tpchd-b72b28568699",
        "red_point_severity": "red_points_36_50",
        "red_point_severity_label": "36-50 red points",
        "red_points": 50,
        "repeat_red_points": 50,
        "report_fetch_status": "ok",
        "report_url": "https://aca-prod.accela.com/TPCHD/GET_INSP_DOCHandler.ashx?AltId=PR0035984&InspId=302878",
        "source": "TPCHD Accela",
        "total_points": 104,
        "zip": "98402"
      },
      "type": "Feature"
    },
    {
      "geometry": {
        "coordinates": [
          -122.611856,
          47.5347885
        ],
        "type": "Point"
      },
      "properties": {
        "address": "1472 Olney AVE SE Port Orchard WA 98366 United States",
        "business_name": "TAQUERIA EL GUERO - TPCHD #0264",
        "city": "Port Orchard",
        "current_grade": "",
        "current_last_inspection_date": "03/05/2026",
        "current_rating_category": "rating_new_unknown",
        "current_rating_color": "#6b7280",
        "current_rating_label": "New or unavailable",
        "current_rating_letter": "?",
        "current_score": "0",
        "current_status_timing": "later",
        "current_status_timing_label": "Current TPCHD status is from a later inspection date: March 5, 2026.",
        "date": "2024-10-30",
        "facility_detail_url": "https://aca-prod.accela.com/TPCHD/GeneralProperty/FoodFacilityInspectionDetail.aspx?LicenseeNumber=PR0040302&LicenseeType=Food+Facility",
        "facility_id": "PR0040302",
        "follow_up_inspection_date": "02/19/2026",
        "follow_up_inspection_date_iso": "2026-02-19",
        "follow_up_inspection_result": "A Reinspection is Required",
        "follow_up_inspection_type": "Routine Inspection",
        "follow_up_label": "Later follow-up/reinspection observed on February 19, 2026 with 50 red points.",
        "follow_up_red_points": 50,
        "follow_up_status": "observed",
        "geocode_status": "row",
        "inspection_date": "10/30/2024",
        "inspection_date_iso": "2024-10-30",
        "inspection_identity": "PR0040302|419836",
        "inspection_result": "A REINSPECTION IS REQUIRED",
        "inspection_type": "Routine Inspection- F&CS",
        "inspection_year": "2024",
        "record_id": "tpchd-486ddf12f19d",
        "red_point_severity": "red_points_51_75",
        "red_point_severity_label": "51-75 red points",
        "red_points": 55,
        "repeat_red_points": 0,
        "report_fetch_status": "ok",
        "report_url": "https://aca-prod.accela.com/TPCHD/GET_INSP_DOCHandler.ashx?AltId=PR0040302&InspId=419836",
        "source": "TPCHD Accela",
        "total_points": 55,
        "zip": "98366"
      },
      "type": "Feature"
    },
    {
      "geometry": {
        "coordinates": [
          -122.5874741,
          47.32077719999999
        ],
        "type": "Point"
      },
      "properties": {
        "address": "6820 Kimball Dr A-1 Gig Harbor WA 98335 United States",
        "business_name": "KINZA TERIYAKI",
        "city": "Gig Harbor",
        "current_grade": "",
        "current_last_inspection_date": "03/16/2026",
        "current_rating_category": "rating_new_unknown",
        "current_rating_color": "#6b7280",
        "current_rating_label": "New or unavailable",
        "current_rating_letter": "?",
        "current_score": "0",
        "current_status_timing": "later",
        "current_status_timing_label": "Current TPCHD status is from a later inspection date: March 16, 2026.",
        "date": "2024-10-11",
        "facility_detail_url": "https://aca-prod.accela.com/TPCHD/GeneralProperty/FoodFacilityInspectionDetail.aspx?LicenseeNumber=PR0039437&LicenseeType=Food+Facility",
        "facility_id": "PR0039437",
        "follow_up_inspection_date": "02/20/2025",
        "follow_up_inspection_date_iso": "2025-02-20",
        "follow_up_inspection_result": "A REINSPECTION IS REQUIRED",
        "follow_up_inspection_type": "Routine Inspection- F&CS",
        "follow_up_label": "Later follow-up/reinspection observed on February 20, 2025 with 60 red points.",
        "follow_up_red_points": 60,
        "follow_up_status": "observed",
        "geocode_status": "row",
        "inspection_date": "10/11/2024",
        "inspection_date_iso": "2024-10-11",
        "inspection_identity": "PR0039437|325852",
        "inspection_result": "A REINSPECTION IS REQUIRED",
        "inspection_type": "Routine Inspection- F&CS",
        "inspection_year": "2024",
        "record_id": "tpchd-c6a2ade62ddd",
        "red_point_severity": "red_points_51_75",
        "red_point_severity_label": "51-75 red points",
        "red_points": 60,
        "repeat_red_points": 50,
        "report_fetch_status": "ok",
        "report_url": "https://aca-prod.accela.com/TPCHD/GET_INSP_DOCHandler.ashx?AltId=PR0039437&InspId=325852",
        "source": "TPCHD Accela",
        "total_points": 88,
        "zip": "98335"
      },
      "type": "Feature"
    },
    {
      "geometry": {
        "coordinates": [
          -122.467149,
          47.21494329999999
        ],
        "type": "Point"
      },
      "properties": {
        "address": "4502 S Steele ST STE 1510 Tacoma WA 98409 United States",
        "business_name": "WOOBLING KOREAN BBQ",
        "city": "Tacoma",
        "current_grade": "Okay",
        "current_last_inspection_date": "05/18/2026",
        "current_rating_category": "rating_okay",
        "current_rating_color": "#d88c1f",
        "current_rating_label": "Okay",
        "current_rating_letter": "O",
        "current_score": "85",
        "current_status_timing": "later",
        "current_status_timing_label": "Current TPCHD status is from a later inspection date: May 18, 2026.",
        "date": "2024-10-03",
        "facility_detail_url": "https://aca-prod.accela.com/TPCHD/GeneralProperty/FoodFacilityInspectionDetail.aspx?LicenseeNumber=PR0040811&LicenseeType=Food+Facility",
        "facility_id": "PR0040811",
        "follow_up_inspection_date": "04/09/2025",
        "follow_up_inspection_date_iso": "2025-04-09",
        "follow_up_inspection_result": "A REINSPECTION IS REQUIRED",
        "follow_up_inspection_type": "Routine Inspection- F&CS",
        "follow_up_label": "Later follow-up/reinspection observed on April 9, 2025 with 80 red points.",
        "follow_up_red_points": 80,
        "follow_up_status": "observed",
        "geocode_status": "row",
        "inspection_date": "10/03/2024",
        "inspection_date_iso": "2024-10-03",
        "inspection_identity": "PR0040811|379996",
        "inspection_result": "A REINSPECTION IS REQUIRED",
        "inspection_type": "Routine Inspection- F&CS",
        "inspection_year": "2024",
        "record_id": "tpchd-4f9f1111d719",
        "red_point_severity": "red_points_36_50",
        "red_point_severity_label": "36-50 red points",
        "red_points": 45,
        "repeat_red_points": 45,
        "report_fetch_status": "ok",
        "report_url": "https://aca-prod.accela.com/TPCHD/GET_INSP_DOCHandler.ashx?AltId=PR0040811&InspId=379996",
        "source": "TPCHD Accela",
        "total_points": 68,
        "zip": "98409"
      },
      "type": "Feature"
    },
    {
      "geometry": {
        "coordinates": [
          -122.0495945,
          47.1287607
        ],
        "type": "Point"
      },
      "properties": {
        "address": "14204 State Route 165 E Buckley WA 98321 United States",
        "business_name": "BURNETT STORE",
        "city": "Buckley",
        "current_grade": "Okay",
        "current_last_inspection_date": "11/07/2025",
        "current_rating_category": "rating_okay",
        "current_rating_color": "#d88c1f",
        "current_rating_label": "Okay",
        "current_rating_letter": "O",
        "current_score": "55",
        "current_status_timing": "later",
        "current_status_timing_label": "Current TPCHD status is from a later inspection date: November 7, 2025.",
        "date": "2024-09-17",
        "facility_detail_url": "https://aca-prod.accela.com/TPCHD/GeneralProperty/FoodFacilityInspectionDetail.aspx?LicenseeNumber=PR0037669&LicenseeType=Food+Facility",
        "facility_id": "PR0037669",
        "follow_up_inspection_date": "",
        "follow_up_inspection_date_iso": "",
        "follow_up_inspection_result": "",
        "follow_up_inspection_type": "",
        "follow_up_label": "Later current TPCHD status observed on November 7, 2025, but the specific later inspection/report is not parsed into this map dataset.",
        "follow_up_red_points": "",
        "follow_up_status": "not_parsed",
        "geocode_status": "row",
        "inspection_date": "09/17/2024",
        "inspection_date_iso": "2024-09-17",
        "inspection_identity": "PR0037669|96336",
        "inspection_result": "A REINSPECTION IS REQUIRED",
        "inspection_type": "Routine Inspection- F&CS",
        "inspection_year": "2024",
        "record_id": "tpchd-aff50ca93326",
        "red_point_severity": "red_points_36_50",
        "red_point_severity_label": "36-50 red points",
        "red_points": 50,
        "repeat_red_points": 45,
        "report_fetch_status": "ok",
        "report_url": "https://aca-prod.accela.com/TPCHD/GET_INSP_DOCHandler.ashx?AltId=PR0037669&InspId=96336",
        "source": "TPCHD Accela",
        "total_points": 79,
        "zip": "98321"
      },
      "type": "Feature"
    },
    {
      "geometry": {
        "coordinates": [
          -122.4384563,
          47.2553844
        ],
        "type": "Point"
      },
      "properties": {
        "address": "112 S 9th ST Tacoma WA 98402 United States",
        "business_name": "AL BACHA",
        "city": "Tacoma",
        "current_grade": "",
        "current_last_inspection_date": "05/18/2026",
        "current_rating_category": "rating_new_unknown",
        "current_rating_color": "#6b7280",
        "current_rating_label": "New or unavailable",
        "current_rating_letter": "?",
        "current_score": "0",
        "current_status_timing": "later",
        "current_status_timing_label": "Current TPCHD status is from a later inspection date: May 18, 2026.",
        "date": "2024-08-21",
        "facility_detail_url": "https://aca-prod.accela.com/TPCHD/GeneralProperty/FoodFacilityInspectionDetail.aspx?LicenseeNumber=PR0039292&LicenseeType=Food+Facility",
        "facility_id": "PR0039292",
        "follow_up_inspection_date": "11/10/2025",
        "follow_up_inspection_date_iso": "2025-11-10",
        "follow_up_inspection_result": "A Reinspection is Required",
        "follow_up_inspection_type": "Routine Inspection",
        "follow_up_label": "Later follow-up/reinspection observed on November 10, 2025 with 50 red points.",
        "follow_up_red_points": 50,
        "follow_up_status": "observed",
        "geocode_status": "row",
        "inspection_date": "08/21/2024",
        "inspection_date_iso": "2024-08-21",
        "inspection_identity": "PR0039292|336099",
        "inspection_result": "A REINSPECTION IS REQUIRED",
        "inspection_type": "Routine Inspection- F&CS",
        "inspection_year": "2024",
        "record_id": "tpchd-5100657d215a",
        "red_point_severity": "red_points_76_100",
        "red_point_severity_label": "76-100 red points",
        "red_points": 85,
        "repeat_red_points": 80,
        "report_fetch_status": "ok",
        "report_url": "https://aca-prod.accela.com/TPCHD/GET_INSP_DOCHandler.ashx?AltId=PR0039292&InspId=336099",
        "source": "TPCHD Accela",
        "total_points": 112,
        "zip": "98402"
      },
      "type": "Feature"
    },
    {
      "geometry": {
        "coordinates": [
          -122.037983,
          47.158295
        ],
        "type": "Point"
      },
      "properties": {
        "address": "29297 State Route 410 STE A Buckley WA 98321 United States",
        "business_name": "VERONICA'S MEXICAN FOOD TRUCK #2 - TPCHD #1377",
        "city": "Buckley",
        "current_grade": "Okay",
        "current_last_inspection_date": "02/06/2026",
        "current_rating_category": "rating_okay",
        "current_rating_color": "#d88c1f",
        "current_rating_label": "Okay",
        "current_rating_letter": "O",
        "current_score": "20",
        "current_status_timing": "later",
        "current_status_timing_label": "Current TPCHD status is from a later inspection date: February 6, 2026.",
        "date": "2024-08-20",
        "facility_detail_url": "https://aca-prod.accela.com/TPCHD/GeneralProperty/FoodFacilityInspectionDetail.aspx?LicenseeNumber=PR0040063&LicenseeType=Food+Facility",
        "facility_id": "PR0040063",
        "follow_up_inspection_date": "",
        "follow_up_inspection_date_iso": "",
        "follow_up_inspection_result": "",
        "follow_up_inspection_type": "",
        "follow_up_label": "Later current TPCHD status observed on February 6, 2026, but the specific later inspection/report is not parsed into this map dataset.",
        "follow_up_red_points": "",
        "follow_up_status": "not_parsed",
        "geocode_status": "row",
        "inspection_date": "08/20/2024",
        "inspection_date_iso": "2024-08-20",
        "inspection_identity": "PR0040063|497989",
        "inspection_result": "A REINSPECTION IS REQUIRED",
        "inspection_type": "Routine Inspection- F&CS",
        "inspection_year": "2024",
        "record_id": "tpchd-fdcfaefae40f",
        "red_point_severity": "red_points_76_100",
        "red_point_severity_label": "76-100 red points",
        "red_points": 90,
        "repeat_red_points": 85,
        "report_fetch_status": "ok",
        "report_url": "https://aca-prod.accela.com/TPCHD/GET_INSP_DOCHandler.ashx?AltId=PR0040063&InspId=497989",
        "source": "TPCHD Accela",
        "total_points": 119,
        "zip": "98321"
      },
      "type": "Feature"
    },
    {
      "geometry": {
        "coordinates": [
          -122.4492028,
          47.24328999999999
        ],
        "type": "Point"
      },
      "properties": {
        "address": "1901 Martin Luther King JR WAY STE B Tacoma WA 98405 United States",
        "business_name": "MIMI TERIYAKI & SUSHI BURRITO",
        "city": "Tacoma",
        "current_grade": "",
        "current_last_inspection_date": "05/14/2026",
        "current_rating_category": "rating_new_unknown",
        "current_rating_color": "#6b7280",
        "current_rating_label": "New or unavailable",
        "current_rating_letter": "?",
        "current_score": "0",
        "current_status_timing": "later",
        "current_status_timing_label": "Current TPCHD status is from a later inspection date: May 14, 2026.",
        "date": "2024-07-23",
        "facility_detail_url": "https://aca-prod.accela.com/TPCHD/GeneralProperty/FoodFacilityInspectionDetail.aspx?LicenseeNumber=PR0039323&LicenseeType=Food+Facility",
        "facility_id": "PR0039323",
        "follow_up_inspection_date": "03/05/2025",
        "follow_up_inspection_date_iso": "2025-03-05",
        "follow_up_inspection_result": "A REINSPECTION IS REQUIRED",
        "follow_up_inspection_type": "Routine Inspection- F&CS",
        "follow_up_label": "Later follow-up/reinspection observed on March 5, 2025 with 50 red points.",
        "follow_up_red_points": 50,
        "follow_up_status": "observed",
        "geocode_status": "row",
        "inspection_date": "07/23/2024",
        "inspection_date_iso": "2024-07-23",
        "inspection_identity": "PR0039323|137673",
        "inspection_result": "A REINSPECTION IS REQUIRED",
        "inspection_type": "Routine Inspection- F&CS",
        "inspection_year": "2024",
        "record_id": "tpchd-54cb17a7e6c2",
        "red_point_severity": "red_points_36_50",
        "red_point_severity_label": "36-50 red points",
        "red_points": 45,
        "repeat_red_points": 45,
        "report_fetch_status": "ok",
        "report_url": "https://aca-prod.accela.com/TPCHD/GET_INSP_DOCHandler.ashx?AltId=PR0039323&InspId=137673",
        "source": "TPCHD Accela",
        "total_points": 49,
        "zip": "98405"
      },
      "type": "Feature"
    },
    {
      "geometry": {
        "coordinates": [
          -122.5067449,
          47.30115989999999
        ],
        "type": "Point"
      },
      "properties": {
        "address": "5125 Grand Loop Ruston WA 98407 United States",
        "business_name": "SILVER CLOUD",
        "city": "Ruston",
        "current_grade": "Great",
        "current_last_inspection_date": "02/06/2026",
        "current_rating_category": "rating_great",
        "current_rating_color": "#2e7d32",
        "current_rating_label": "Great",
        "current_rating_letter": "G",
        "current_score": "0",
        "current_status_timing": "later",
        "current_status_timing_label": "Current TPCHD status is from a later inspection date: February 6, 2026.",
        "date": "2024-04-19",
        "facility_detail_url": "https://aca-prod.accela.com/TPCHD/GeneralProperty/FoodFacilityInspectionDetail.aspx?LicenseeNumber=PR0037564&LicenseeType=Food+Facility",
        "facility_id": "PR0037564",
        "follow_up_inspection_date": "",
        "follow_up_inspection_date_iso": "",
        "follow_up_inspection_result": "",
        "follow_up_inspection_type": "",
        "follow_up_label": "Later current TPCHD status observed on February 6, 2026, but the specific later inspection/report is not parsed into this map dataset.",
        "follow_up_red_points": "",
        "follow_up_status": "not_parsed",
        "geocode_status": "row",
        "inspection_date": "04/19/2024",
        "inspection_date_iso": "2024-04-19",
        "inspection_identity": "PR0037564|421065",
        "inspection_result": "A REINSPECTION IS REQUIRED",
        "inspection_type": "Routine Inspection- F&CS",
        "inspection_year": "2024",
        "record_id": "tpchd-1902f85891cc",
        "red_point_severity": "red_points_51_75",
        "red_point_severity_label": "51-75 red points",
        "red_points": 55,
        "repeat_red_points": 55,
        "report_fetch_status": "ok",
        "report_url": "https://aca-prod.accela.com/TPCHD/GET_INSP_DOCHandler.ashx?AltId=PR0037564&InspId=421065",
        "source": "TPCHD Accela",
        "total_points": 102,
        "zip": "98407"
      },
      "type": "Feature"
    },
    {
      "geometry": {
        "coordinates": [
          -122.481023,
          47.255613
        ],
        "type": "Point"
      },
      "properties": {
        "address": "3401 6th AVE #F&G Tacoma WA 98406 United States",
        "business_name": "SILK THAI CAFE",
        "city": "Tacoma",
        "current_grade": "",
        "current_last_inspection_date": "05/21/2026",
        "current_rating_category": "rating_new_unknown",
        "current_rating_color": "#6b7280",
        "current_rating_label": "New or unavailable",
        "current_rating_letter": "?",
        "current_score": "0",
        "current_status_timing": "later",
        "current_status_timing_label": "Current TPCHD status is from a later inspection date: May 21, 2026.",
        "date": "2024-01-31",
        "facility_detail_url": "https://aca-prod.accela.com/TPCHD/GeneralProperty/FoodFacilityInspectionDetail.aspx?LicenseeNumber=PR0022641&LicenseeType=Food+Facility",
        "facility_id": "PR0022641",
        "follow_up_inspection_date": "04/10/2025",
        "follow_up_inspection_date_iso": "2025-04-10",
        "follow_up_inspection_result": "A REINSPECTION IS REQUIRED",
        "follow_up_inspection_type": "Routine Inspection- F&CS",
        "follow_up_label": "Later follow-up/reinspection observed on April 10, 2025 with 45 red points.",
        "follow_up_red_points": 45,
        "follow_up_status": "observed",
        "geocode_status": "row",
        "inspection_date": "01/31/2024",
        "inspection_date_iso": "2024-01-31",
        "inspection_identity": "PR0022641|20430",
        "inspection_result": "A REINSPECTION IS REQUIRED",
        "inspection_type": "Routine Inspection- F&CS",
        "inspection_year": "2024",
        "record_id": "tpchd-53554fec300d",
        "red_point_severity": "red_points_76_100",
        "red_point_severity_label": "76-100 red points",
        "red_points": 80,
        "repeat_red_points": 70,
        "report_fetch_status": "ok",
        "report_url": "https://aca-prod.accela.com/TPCHD/GET_INSP_DOCHandler.ashx?AltId=PR0022641&InspId=20430",
        "source": "TPCHD Accela",
        "total_points": 210,
        "zip": "98406"
      },
      "type": "Feature"
    }
  ],
  "metadata": {
    "available_years": [
      "2024"
    ],
    "coverage_note": "Rows below the threshold and unparsed reports are not drawn on this over-threshold map. Rows above the threshold without reviewed coordinates are counted as unmapped. Follow-up context is inferred from later scraper-observed inspection rows for the same facility and the current-status fields on the facility page.",
    "data_universe": "Scraper-observed TPCHD Accela food-facility inspection records with parsed PDF reports; this public map layer includes only records over the red-point threshold.",
    "data_version": "20260526164749Z",
    "features_total": 10,
    "freshness_note": "Generated from the latest TPCHD scraper/publication run.",
    "generated_at": "2026-05-26T16:47:49Z",
    "geometry_precision": "reviewed facility address geocode",
    "inspection_date_window_end": "2026-05-18",
    "inspection_date_window_label": "February 2, 2021-May 18, 2026",
    "inspection_date_window_start": "2021-02-02",
    "map_cannot_show": "This map does not show neighborhood-level health risk, all inspections below the threshold, or rows without reviewed coordinates.",
    "map_claim": "Shows geocoded public restaurant inspection records with more than 35 red points, with current TPCHD rating and later observed inspection context where available.",
    "map_type": "point_symbol",
    "privacy": {
      "excludes": [
        "Google Sheet IDs",
        "Gmail recipients",
        "raw PDF text",
        "raw scraper payloads",
        "internal notes",
        "local paths"
      ],
      "public_fields_only": true,
      "review": "Exact restaurant locations are public commercial facility addresses from public inspection records."
    },
    "project": "tpchd-restaurant-inspections",
    "records_above_threshold": 90,
    "records_excluded_by_threshold": 0,
    "records_excluded_unparsed": 0,
    "records_total": 90,
    "red_point_threshold": 35,
    "schema_version": 1,
    "scope": "year:2024",
    "source": "TPCHD Accela food-facility inspection reports",
    "source_note": "Tacoma-Pierce County Health Department Accela food-facility inspection pages and parsed inspection-report PDFs.",
    "symbology": {
      "alert_categories": [
        {
          "color": "#d6604d",
          "icon": "exclamation",
          "id": "red_points_36_50",
          "label": "36-50 red points",
          "max": 50,
          "min": 36,
          "shape": "diamond",
          "stroke": "#ffffff"
        },
        {
          "color": "#c23030",
          "icon": "exclamation",
          "id": "red_points_51_75",
          "label": "51-75 red points",
          "max": 75,
          "min": 51,
          "shape": "diamond",
          "stroke": "#ffffff"
        },
        {
          "color": "#9f1d2d",
          "icon": "exclamation",
          "id": "red_points_76_100",
          "label": "76-100 red points",
          "max": 100,
          "min": 76,
          "shape": "diamond",
          "stroke": "#ffffff"
        },
        {
          "color": "#67000d",
          "icon": "exclamation",
          "id": "red_points_101_plus",
          "label": "101+ red points",
          "max": null,
          "min": 101,
          "shape": "diamond",
          "stroke": "#ffffff"
        }
      ],
      "evergreen_categories": [
        {
          "color": "#2e7d32",
          "id": "rating_great",
          "label": "Great",
          "letter": "G",
          "shape": "circle"
        },
        {
          "color": "#d88c1f",
          "id": "rating_okay",
          "label": "Okay",
          "letter": "O",
          "shape": "circle"
        },
        {
          "color": "#b61f2d",
          "id": "rating_needs_improve",
          "label": "Needs to improve",
          "letter": "N",
          "shape": "circle"
        },
        {
          "color": "#4b5563",
          "id": "rating_closed",
          "label": "Closed",
          "letter": "C",
          "shape": "circle"
        },
        {
          "color": "#6b7280",
          "id": "rating_new_unknown",
          "label": "New or unavailable",
          "letter": "?",
          "shape": "circle"
        }
      ],
      "note": "Evergreen markers use current TPCHD rating as the primary color/letter encoding. Alert/run maps use fixed red-point classes with darker red for higher totals. Marker size does not encode severity."
    },
    "threshold_label": "More than 35 red points",
    "threshold_rule": "red_points > 35",
    "title": "Tacoma-Pierce County restaurant inspection history and current ratings",
    "unmapped_records": 0,
    "unmapped_records_by_reason": {}
  },
  "type": "FeatureCollection"
}
