{
  "features": [
    {
      "geometry": {
        "coordinates": [
          -122.4352686,
          47.2398546
        ],
        "type": "Point"
      },
      "properties": {
        "address": "2401 Pacific AVE Tacoma WA 98402 United States",
        "business_name": "BERLINER BEERHALL",
        "city": "Tacoma",
        "current_grade": "",
        "current_last_inspection_date": "01/08/2026",
        "current_rating_category": "rating_new_unknown",
        "current_rating_color": "#6b7280",
        "current_rating_label": "New or unavailable",
        "current_rating_letter": "?",
        "current_score": "0",
        "current_status_timing": "later",
        "current_status_timing_label": "Current TPCHD status is from a later inspection date: January 8, 2026.",
        "date": "2025-12-18",
        "facility_detail_url": "https://aca-prod.accela.com/TPCHD/GeneralProperty/FoodFacilityInspectionDetail.aspx?LicenseeNumber=PR0035984&LicenseeType=Food+Facility",
        "facility_id": "PR0035984",
        "follow_up_inspection_date": "",
        "follow_up_inspection_date_iso": "",
        "follow_up_inspection_result": "",
        "follow_up_inspection_type": "",
        "follow_up_label": "Later current TPCHD status observed on January 8, 2026, but the specific later inspection/report is not parsed into this map dataset.",
        "follow_up_red_points": "",
        "follow_up_status": "not_parsed",
        "geocode_status": "row",
        "inspection_date": "12/18/2025",
        "inspection_date_iso": "2025-12-18",
        "inspection_identity": "PR0035984|655377",
        "inspection_result": "A Reinspection is Required",
        "inspection_type": "Routine Inspection",
        "inspection_year": "2025",
        "record_id": "tpchd-5537bf8c6bc8",
        "red_point_severity": "red_points_36_50",
        "red_point_severity_label": "36-50 red points",
        "red_points": 40,
        "repeat_red_points": 0,
        "report_fetch_status": "ok",
        "report_url": "https://aca-prod.accela.com/TPCHD/GET_INSP_DOCHandler.ashx?AltId=PR0035984&InspId=655377",
        "source": "TPCHD Accela",
        "total_points": 40,
        "zip": "98402"
      },
      "type": "Feature"
    },
    {
      "geometry": {
        "coordinates": [
          -122.415501,
          47.2419106
        ],
        "type": "Point"
      },
      "properties": {
        "address": "1302 Puyallup Ave Tacoma WA 98421 United States",
        "business_name": "PHB FUEL",
        "city": "Tacoma",
        "current_grade": "",
        "current_last_inspection_date": "05/04/2026",
        "current_rating_category": "rating_new_unknown",
        "current_rating_color": "#6b7280",
        "current_rating_label": "New or unavailable",
        "current_rating_letter": "?",
        "current_score": "0",
        "current_status_timing": "later",
        "current_status_timing_label": "Current TPCHD status is from a later inspection date: May 4, 2026.",
        "date": "2025-12-11",
        "facility_detail_url": "https://aca-prod.accela.com/TPCHD/GeneralProperty/FoodFacilityInspectionDetail.aspx?LicenseeNumber=PR0038920&LicenseeType=Food+Facility",
        "facility_id": "PR0038920",
        "follow_up_inspection_date": "",
        "follow_up_inspection_date_iso": "",
        "follow_up_inspection_result": "",
        "follow_up_inspection_type": "",
        "follow_up_label": "Later current TPCHD status observed on May 4, 2026, but the specific later inspection/report is not parsed into this map dataset.",
        "follow_up_red_points": "",
        "follow_up_status": "not_parsed",
        "geocode_status": "row",
        "inspection_date": "12/11/2025",
        "inspection_date_iso": "2025-12-11",
        "inspection_identity": "PR0038920|379733",
        "inspection_result": "A Reinspection is Required",
        "inspection_type": "Routine Inspection",
        "inspection_year": "2025",
        "record_id": "tpchd-2c2690a6f175",
        "red_point_severity": "red_points_36_50",
        "red_point_severity_label": "36-50 red points",
        "red_points": 45,
        "repeat_red_points": 0,
        "report_fetch_status": "ok",
        "report_url": "https://aca-prod.accela.com/TPCHD/GET_INSP_DOCHandler.ashx?AltId=PR0038920&InspId=379733",
        "source": "TPCHD Accela",
        "total_points": 45,
        "zip": "98421"
      },
      "type": "Feature"
    },
    {
      "geometry": {
        "coordinates": [
          -122.148073,
          47.1671142
        ],
        "type": "Point"
      },
      "properties": {
        "address": "21109 State Route 410 Bonney Lake WA 98391 United States",
        "business_name": "SUMO SUSHI",
        "city": "Bonney Lake",
        "current_grade": "",
        "current_last_inspection_date": "12/17/2025",
        "current_rating_category": "rating_new_unknown",
        "current_rating_color": "#6b7280",
        "current_rating_label": "New or unavailable",
        "current_rating_letter": "?",
        "current_score": "0",
        "current_status_timing": "later",
        "current_status_timing_label": "Current TPCHD status is from a later inspection date: December 17, 2025.",
        "date": "2025-12-03",
        "facility_detail_url": "https://aca-prod.accela.com/TPCHD/GeneralProperty/FoodFacilityInspectionDetail.aspx?LicenseeNumber=PR0040232&LicenseeType=Food+Facility",
        "facility_id": "PR0040232",
        "follow_up_inspection_date": "",
        "follow_up_inspection_date_iso": "",
        "follow_up_inspection_result": "",
        "follow_up_inspection_type": "",
        "follow_up_label": "Later current TPCHD status observed on December 17, 2025, but the specific later inspection/report is not parsed into this map dataset.",
        "follow_up_red_points": "",
        "follow_up_status": "not_parsed",
        "geocode_status": "row",
        "inspection_date": "12/03/2025",
        "inspection_date_iso": "2025-12-03",
        "inspection_identity": "PR0040232|381856",
        "inspection_result": "A Reinspection is Required",
        "inspection_type": "Routine Inspection",
        "inspection_year": "2025",
        "record_id": "tpchd-655374b800c6",
        "red_point_severity": "red_points_36_50",
        "red_point_severity_label": "36-50 red points",
        "red_points": 45,
        "repeat_red_points": 0,
        "report_fetch_status": "ok",
        "report_url": "https://aca-prod.accela.com/TPCHD/GET_INSP_DOCHandler.ashx?AltId=PR0040232&InspId=381856",
        "source": "TPCHD Accela",
        "total_points": 45,
        "zip": "98391"
      },
      "type": "Feature"
    },
    {
      "geometry": {
        "coordinates": [
          -122.4205391,
          47.2297494
        ],
        "type": "Point"
      },
      "properties": {
        "address": "3511 McKinley AVE Tacoma WA 98404 United States",
        "business_name": "LECHON LOCO",
        "city": "Tacoma",
        "current_grade": "",
        "current_last_inspection_date": "12/11/2025",
        "current_rating_category": "rating_new_unknown",
        "current_rating_color": "#6b7280",
        "current_rating_label": "New or unavailable",
        "current_rating_letter": "?",
        "current_score": "0",
        "current_status_timing": "later",
        "current_status_timing_label": "Current TPCHD status is from a later inspection date: December 11, 2025.",
        "date": "2025-12-03",
        "facility_detail_url": "https://aca-prod.accela.com/TPCHD/GeneralProperty/FoodFacilityInspectionDetail.aspx?LicenseeNumber=PR0040749&LicenseeType=Food+Facility",
        "facility_id": "PR0040749",
        "follow_up_inspection_date": "",
        "follow_up_inspection_date_iso": "",
        "follow_up_inspection_result": "",
        "follow_up_inspection_type": "",
        "follow_up_label": "Later current TPCHD status observed on December 11, 2025, but the specific later inspection/report is not parsed into this map dataset.",
        "follow_up_red_points": "",
        "follow_up_status": "not_parsed",
        "geocode_status": "row",
        "inspection_date": "12/03/2025",
        "inspection_date_iso": "2025-12-03",
        "inspection_identity": "PR0040749|552075",
        "inspection_result": "A Reinspection is Required",
        "inspection_type": "Routine Inspection",
        "inspection_year": "2025",
        "record_id": "tpchd-c9b1c1e07d5a",
        "red_point_severity": "red_points_36_50",
        "red_point_severity_label": "36-50 red points",
        "red_points": 45,
        "repeat_red_points": 0,
        "report_fetch_status": "ok",
        "report_url": "https://aca-prod.accela.com/TPCHD/GET_INSP_DOCHandler.ashx?AltId=PR0040749&InspId=552075",
        "source": "TPCHD Accela",
        "total_points": 45,
        "zip": "98404"
      },
      "type": "Feature"
    },
    {
      "geometry": {
        "coordinates": [
          -122.3680115,
          47.2427071
        ],
        "type": "Point"
      },
      "properties": {
        "address": "4500 Pacific HWY E Fife WA 98424 United States",
        "business_name": "SUNNY'S DONUTS & DELI",
        "city": "Fife",
        "current_grade": "",
        "current_last_inspection_date": "12/11/2025",
        "current_rating_category": "rating_new_unknown",
        "current_rating_color": "#6b7280",
        "current_rating_label": "New or unavailable",
        "current_rating_letter": "?",
        "current_score": "0",
        "current_status_timing": "later",
        "current_status_timing_label": "Current TPCHD status is from a later inspection date: December 11, 2025.",
        "date": "2025-12-02",
        "facility_detail_url": "https://aca-prod.accela.com/TPCHD/GeneralProperty/FoodFacilityInspectionDetail.aspx?LicenseeNumber=PR0040740&LicenseeType=Food+Facility",
        "facility_id": "PR0040740",
        "follow_up_inspection_date": "",
        "follow_up_inspection_date_iso": "",
        "follow_up_inspection_result": "",
        "follow_up_inspection_type": "",
        "follow_up_label": "Later current TPCHD status observed on December 11, 2025, but the specific later inspection/report is not parsed into this map dataset.",
        "follow_up_red_points": "",
        "follow_up_status": "not_parsed",
        "geocode_status": "row",
        "inspection_date": "12/02/2025",
        "inspection_date_iso": "2025-12-02",
        "inspection_identity": "PR0040740|695743",
        "inspection_result": "A Reinspection is Required",
        "inspection_type": "Routine Inspection",
        "inspection_year": "2025",
        "record_id": "tpchd-52ed8acff921",
        "red_point_severity": "red_points_36_50",
        "red_point_severity_label": "36-50 red points",
        "red_points": 45,
        "repeat_red_points": 0,
        "report_fetch_status": "ok",
        "report_url": "https://aca-prod.accela.com/TPCHD/GET_INSP_DOCHandler.ashx?AltId=PR0040740&InspId=695743",
        "source": "TPCHD Accela",
        "total_points": 45,
        "zip": "98424"
      },
      "type": "Feature"
    },
    {
      "geometry": {
        "coordinates": [
          -122.4846981,
          47.172449
        ],
        "type": "Point"
      },
      "properties": {
        "address": "9312 S Tacoma WAY STE 130 Lakewood WA 98499 United States",
        "business_name": "GRILL (THE)",
        "city": "Lakewood",
        "current_grade": "Okay",
        "current_last_inspection_date": "05/19/2026",
        "current_rating_category": "rating_okay",
        "current_rating_color": "#d88c1f",
        "current_rating_label": "Okay",
        "current_rating_letter": "O",
        "current_score": "0",
        "current_status_timing": "later",
        "current_status_timing_label": "Current TPCHD status is from a later inspection date: May 19, 2026.",
        "date": "2025-11-13",
        "facility_detail_url": "https://aca-prod.accela.com/TPCHD/GeneralProperty/FoodFacilityInspectionDetail.aspx?LicenseeNumber=PR0039284&LicenseeType=Food+Facility",
        "facility_id": "PR0039284",
        "follow_up_inspection_date": "",
        "follow_up_inspection_date_iso": "",
        "follow_up_inspection_result": "",
        "follow_up_inspection_type": "",
        "follow_up_label": "Later current TPCHD status observed on May 19, 2026, but the specific later inspection/report is not parsed into this map dataset.",
        "follow_up_red_points": "",
        "follow_up_status": "not_parsed",
        "geocode_status": "row",
        "inspection_date": "11/13/2025",
        "inspection_date_iso": "2025-11-13",
        "inspection_identity": "PR0039284|380178",
        "inspection_result": "A Reinspection is Required",
        "inspection_type": "Routine Inspection",
        "inspection_year": "2025",
        "record_id": "tpchd-fb6432bd6382",
        "red_point_severity": "red_points_36_50",
        "red_point_severity_label": "36-50 red points",
        "red_points": 45,
        "repeat_red_points": 30,
        "report_fetch_status": "ok",
        "report_url": "https://aca-prod.accela.com/TPCHD/GET_INSP_DOCHandler.ashx?AltId=PR0039284&InspId=380178",
        "source": "TPCHD Accela",
        "total_points": 45,
        "zip": "98499"
      },
      "type": "Feature"
    },
    {
      "geometry": {
        "coordinates": [
          -122.4916877,
          47.1562577
        ],
        "type": "Point"
      },
      "properties": {
        "address": "11107 Pacific HWY SW Lakewood WA 98499 United States",
        "business_name": "JOY JOY'S BAKERY",
        "city": "Lakewood",
        "current_grade": "Great",
        "current_last_inspection_date": "03/27/2026",
        "current_rating_category": "rating_great",
        "current_rating_color": "#2e7d32",
        "current_rating_label": "Great",
        "current_rating_letter": "G",
        "current_score": "5",
        "current_status_timing": "later",
        "current_status_timing_label": "Current TPCHD status is from a later inspection date: March 27, 2026.",
        "date": "2025-11-12",
        "facility_detail_url": "https://aca-prod.accela.com/TPCHD/GeneralProperty/FoodFacilityInspectionDetail.aspx?LicenseeNumber=PR0040891&LicenseeType=Food+Facility",
        "facility_id": "PR0040891",
        "follow_up_inspection_date": "",
        "follow_up_inspection_date_iso": "",
        "follow_up_inspection_result": "",
        "follow_up_inspection_type": "",
        "follow_up_label": "Later current TPCHD status observed on March 27, 2026, but the specific later inspection/report is not parsed into this map dataset.",
        "follow_up_red_points": "",
        "follow_up_status": "not_parsed",
        "geocode_status": "row",
        "inspection_date": "11/12/2025",
        "inspection_date_iso": "2025-11-12",
        "inspection_identity": "PR0040891|72725",
        "inspection_result": "A Reinspection is Required",
        "inspection_type": "Routine Inspection",
        "inspection_year": "2025",
        "record_id": "tpchd-577e06a2d60c",
        "red_point_severity": "red_points_36_50",
        "red_point_severity_label": "36-50 red points",
        "red_points": 40,
        "repeat_red_points": 5,
        "report_fetch_status": "ok",
        "report_url": "https://aca-prod.accela.com/TPCHD/GET_INSP_DOCHandler.ashx?AltId=PR0040891&InspId=72725",
        "source": "TPCHD Accela",
        "total_points": 40,
        "zip": "98499"
      },
      "type": "Feature"
    },
    {
      "geometry": {
        "coordinates": [
          -122.4384563,
          47.2553844
        ],
        "type": "Point"
      },
      "properties": {
        "address": "112 S 9th ST Tacoma WA 98402 United States",
        "business_name": "AL BACHA",
        "city": "Tacoma",
        "current_grade": "",
        "current_last_inspection_date": "05/18/2026",
        "current_rating_category": "rating_new_unknown",
        "current_rating_color": "#6b7280",
        "current_rating_label": "New or unavailable",
        "current_rating_letter": "?",
        "current_score": "0",
        "current_status_timing": "later",
        "current_status_timing_label": "Current TPCHD status is from a later inspection date: May 18, 2026.",
        "date": "2025-11-10",
        "facility_detail_url": "https://aca-prod.accela.com/TPCHD/GeneralProperty/FoodFacilityInspectionDetail.aspx?LicenseeNumber=PR0039292&LicenseeType=Food+Facility",
        "facility_id": "PR0039292",
        "follow_up_inspection_date": "",
        "follow_up_inspection_date_iso": "",
        "follow_up_inspection_result": "",
        "follow_up_inspection_type": "",
        "follow_up_label": "Later current TPCHD status observed on May 18, 2026, but the specific later inspection/report is not parsed into this map dataset.",
        "follow_up_red_points": "",
        "follow_up_status": "not_parsed",
        "geocode_status": "row",
        "inspection_date": "11/10/2025",
        "inspection_date_iso": "2025-11-10",
        "inspection_identity": "PR0039292|151085",
        "inspection_result": "A Reinspection is Required",
        "inspection_type": "Routine Inspection",
        "inspection_year": "2025",
        "record_id": "tpchd-5357ab9a9c26",
        "red_point_severity": "red_points_36_50",
        "red_point_severity_label": "36-50 red points",
        "red_points": 50,
        "repeat_red_points": 0,
        "report_fetch_status": "ok",
        "report_url": "https://aca-prod.accela.com/TPCHD/GET_INSP_DOCHandler.ashx?AltId=PR0039292&InspId=151085",
        "source": "TPCHD Accela",
        "total_points": 50,
        "zip": "98402"
      },
      "type": "Feature"
    },
    {
      "geometry": {
        "coordinates": [
          -122.467149,
          47.21494329999999
        ],
        "type": "Point"
      },
      "properties": {
        "address": "4502 S Steele ST STE 1510 Tacoma WA 98409 United States",
        "business_name": "WOOBLING KOREAN BBQ",
        "city": "Tacoma",
        "current_grade": "Okay",
        "current_last_inspection_date": "05/18/2026",
        "current_rating_category": "rating_okay",
        "current_rating_color": "#d88c1f",
        "current_rating_label": "Okay",
        "current_rating_letter": "O",
        "current_score": "85",
        "current_status_timing": "later",
        "current_status_timing_label": "Current TPCHD status is from a later inspection date: May 18, 2026.",
        "date": "2025-11-07",
        "facility_detail_url": "https://aca-prod.accela.com/TPCHD/GeneralProperty/FoodFacilityInspectionDetail.aspx?LicenseeNumber=PR0040811&LicenseeType=Food+Facility",
        "facility_id": "PR0040811",
        "follow_up_inspection_date": "05/18/2026",
        "follow_up_inspection_date_iso": "2026-05-18",
        "follow_up_inspection_result": "A Reinspection is Required",
        "follow_up_inspection_type": "Routine Inspection",
        "follow_up_label": "Later follow-up/reinspection observed on May 18, 2026 with 85 red points.",
        "follow_up_red_points": 85,
        "follow_up_status": "observed",
        "geocode_status": "row",
        "inspection_date": "11/07/2025",
        "inspection_date_iso": "2025-11-07",
        "inspection_identity": "PR0040811|658935",
        "inspection_result": "A Reinspection is Required",
        "inspection_type": "Routine Inspection",
        "inspection_year": "2025",
        "record_id": "tpchd-fbc94f80ad63",
        "red_point_severity": "red_points_51_75",
        "red_point_severity_label": "51-75 red points",
        "red_points": 75,
        "repeat_red_points": 0,
        "report_fetch_status": "ok",
        "report_url": "https://aca-prod.accela.com/TPCHD/GET_INSP_DOCHandler.ashx?AltId=PR0040811&InspId=658935",
        "source": "TPCHD Accela",
        "total_points": 75,
        "zip": "98409"
      },
      "type": "Feature"
    },
    {
      "geometry": {
        "coordinates": [
          -122.4369063,
          47.1209515
        ],
        "type": "Point"
      },
      "properties": {
        "address": "14906 Pacific AVE S Parkland WA 98444 United States",
        "business_name": "STACKS BURGERS",
        "city": "Parkland",
        "current_grade": "Okay",
        "current_last_inspection_date": "10/29/2025",
        "current_rating_category": "rating_okay",
        "current_rating_color": "#d88c1f",
        "current_rating_label": "Okay",
        "current_rating_letter": "O",
        "current_score": "110",
        "current_status_timing": "same_day",
        "current_status_timing_label": "Current TPCHD status is from the same date as this inspection: October 29, 2025.",
        "date": "2025-10-29",
        "facility_detail_url": "https://aca-prod.accela.com/TPCHD/GeneralProperty/FoodFacilityInspectionDetail.aspx?LicenseeNumber=PR0038869&LicenseeType=Food+Facility",
        "facility_id": "PR0038869",
        "follow_up_inspection_date": "",
        "follow_up_inspection_date_iso": "",
        "follow_up_inspection_result": "",
        "follow_up_inspection_type": "",
        "follow_up_label": "No later follow-up or reinspection observed in the scraped inspection history.",
        "follow_up_red_points": "",
        "follow_up_status": "not_observed",
        "geocode_status": "row",
        "inspection_date": "10/29/2025",
        "inspection_date_iso": "2025-10-29",
        "inspection_identity": "PR0038869|480514",
        "inspection_result": "A Reinspection is Required & Compliance Order Issued",
        "inspection_type": "Routine Inspection",
        "inspection_year": "2025",
        "record_id": "tpchd-cf0bc9b2254d",
        "red_point_severity": "red_points_51_75",
        "red_point_severity_label": "51-75 red points",
        "red_points": 60,
        "repeat_red_points": 10,
        "report_fetch_status": "ok",
        "report_url": "https://aca-prod.accela.com/TPCHD/GET_INSP_DOCHandler.ashx?AltId=PR0038869&InspId=480514",
        "source": "TPCHD Accela",
        "total_points": 65,
        "zip": "98444"
      },
      "type": "Feature"
    },
    {
      "geometry": {
        "coordinates": [
          -122.5589393,
          47.1443611
        ],
        "type": "Point"
      },
      "properties": {
        "address": "9124 Veterans DR SW Tacoma WA 98498 United States",
        "business_name": "LA TENTACION TACOS AND TEQUILA",
        "city": "Tacoma",
        "current_grade": "",
        "current_last_inspection_date": "10/24/2025",
        "current_rating_category": "rating_new_unknown",
        "current_rating_color": "#6b7280",
        "current_rating_label": "New or unavailable",
        "current_rating_letter": "?",
        "current_score": "25",
        "current_status_timing": "later",
        "current_status_timing_label": "Current TPCHD status is from a later inspection date: October 24, 2025.",
        "date": "2025-10-10",
        "facility_detail_url": "https://aca-prod.accela.com/TPCHD/GeneralProperty/FoodFacilityInspectionDetail.aspx?LicenseeNumber=PR0038654&LicenseeType=Food+Facility",
        "facility_id": "PR0038654",
        "follow_up_inspection_date": "",
        "follow_up_inspection_date_iso": "",
        "follow_up_inspection_result": "",
        "follow_up_inspection_type": "",
        "follow_up_label": "Later current TPCHD status observed on October 24, 2025, but the specific later inspection/report is not parsed into this map dataset.",
        "follow_up_red_points": "",
        "follow_up_status": "not_parsed",
        "geocode_status": "row",
        "inspection_date": "10/10/2025",
        "inspection_date_iso": "2025-10-10",
        "inspection_identity": "PR0038654|99909",
        "inspection_result": "A Reinspection is Required",
        "inspection_type": "Routine Inspection",
        "inspection_year": "2025",
        "record_id": "tpchd-7374582545b9",
        "red_point_severity": "red_points_51_75",
        "red_point_severity_label": "51-75 red points",
        "red_points": 60,
        "repeat_red_points": 25,
        "report_fetch_status": "ok",
        "report_url": "https://aca-prod.accela.com/TPCHD/GET_INSP_DOCHandler.ashx?AltId=PR0038654&InspId=99909",
        "source": "TPCHD Accela",
        "total_points": 65,
        "zip": "98498"
      },
      "type": "Feature"
    },
    {
      "geometry": {
        "coordinates": [
          -122.565957,
          47.1532485
        ],
        "type": "Point"
      },
      "properties": {
        "address": "11509 Holden Rd SW Lakewood WA 98498 United States",
        "business_name": "THOMAS MIDDLE SCHOOL",
        "city": "Lakewood",
        "current_grade": "Great",
        "current_last_inspection_date": "03/27/2026",
        "current_rating_category": "rating_great",
        "current_rating_color": "#2e7d32",
        "current_rating_label": "Great",
        "current_rating_letter": "G",
        "current_score": "5",
        "current_status_timing": "later",
        "current_status_timing_label": "Current TPCHD status is from a later inspection date: March 27, 2026.",
        "date": "2025-10-10",
        "facility_detail_url": "https://aca-prod.accela.com/TPCHD/GeneralProperty/FoodFacilityInspectionDetail.aspx?LicenseeNumber=PR0037017&LicenseeType=Food+Facility",
        "facility_id": "PR0037017",
        "follow_up_inspection_date": "",
        "follow_up_inspection_date_iso": "",
        "follow_up_inspection_result": "",
        "follow_up_inspection_type": "",
        "follow_up_label": "Later current TPCHD status observed on March 27, 2026, but the specific later inspection/report is not parsed into this map dataset.",
        "follow_up_red_points": "",
        "follow_up_status": "not_parsed",
        "geocode_status": "row",
        "inspection_date": "10/10/2025",
        "inspection_date_iso": "2025-10-10",
        "inspection_identity": "PR0037017|552180",
        "inspection_result": "A Reinspection is Required & Compliance Order Issued",
        "inspection_type": "Routine Inspection",
        "inspection_year": "2025",
        "record_id": "tpchd-17a435c01b12",
        "red_point_severity": "red_points_36_50",
        "red_point_severity_label": "36-50 red points",
        "red_points": 45,
        "repeat_red_points": 0,
        "report_fetch_status": "ok",
        "report_url": "https://aca-prod.accela.com/TPCHD/GET_INSP_DOCHandler.ashx?AltId=PR0037017&InspId=552180",
        "source": "TPCHD Accela",
        "total_points": 50,
        "zip": "98498"
      },
      "type": "Feature"
    },
    {
      "geometry": {
        "coordinates": [
          -122.0548102,
          47.1573433
        ],
        "type": "Point"
      },
      "properties": {
        "address": "28120 State Route 410 E STE A4 Buckley WA 98321 United States",
        "business_name": "ISLAND VYBZ FOOD TRUCK - TPCHD #0292",
        "city": "Buckley",
        "current_grade": "Okay",
        "current_last_inspection_date": "05/12/2026",
        "current_rating_category": "rating_okay",
        "current_rating_color": "#d88c1f",
        "current_rating_label": "Okay",
        "current_rating_letter": "O",
        "current_score": "40",
        "current_status_timing": "later",
        "current_status_timing_label": "Current TPCHD status is from a later inspection date: May 12, 2026.",
        "date": "2025-09-30",
        "facility_detail_url": "https://aca-prod.accela.com/TPCHD/GeneralProperty/FoodFacilityInspectionDetail.aspx?LicenseeNumber=PR0039962&LicenseeType=Food+Facility",
        "facility_id": "PR0039962",
        "follow_up_inspection_date": "05/12/2026",
        "follow_up_inspection_date_iso": "2026-05-12",
        "follow_up_inspection_result": "A Reinspection is Required & Compliance Order Issued",
        "follow_up_inspection_type": "Routine Inspection",
        "follow_up_label": "Later follow-up/reinspection observed on May 12, 2026 with 40 red points.",
        "follow_up_red_points": 40,
        "follow_up_status": "observed",
        "geocode_status": "row",
        "inspection_date": "09/30/2025",
        "inspection_date_iso": "2025-09-30",
        "inspection_identity": "PR0039962|222134",
        "inspection_result": "A Reinspection is Required & Compliance Order Issued",
        "inspection_type": "Routine Inspection",
        "inspection_year": "2025",
        "record_id": "tpchd-366f4aad570f",
        "red_point_severity": "red_points_51_75",
        "red_point_severity_label": "51-75 red points",
        "red_points": 55,
        "repeat_red_points": 10,
        "report_fetch_status": "ok",
        "report_url": "https://aca-prod.accela.com/TPCHD/GET_INSP_DOCHandler.ashx?AltId=PR0039962&InspId=222134",
        "source": "TPCHD Accela",
        "total_points": 55,
        "zip": "98321"
      },
      "type": "Feature"
    },
    {
      "geometry": {
        "coordinates": [
          -122.437772,
          47.14635699999999
        ],
        "type": "Point"
      },
      "properties": {
        "address": "411 Garfield ST S Tacoma WA 98444 United States",
        "business_name": "HERNANDEZ MEXICAN BAR AND GRILL",
        "city": "Tacoma",
        "current_grade": "We are still new",
        "current_last_inspection_date": "09/26/2025",
        "current_rating_category": "rating_new_unknown",
        "current_rating_color": "#6b7280",
        "current_rating_label": "New or unavailable",
        "current_rating_letter": "?",
        "current_score": "150",
        "current_status_timing": "same_day",
        "current_status_timing_label": "Current TPCHD status is from the same date as this inspection: September 26, 2025.",
        "date": "2025-09-26",
        "facility_detail_url": "https://aca-prod.accela.com/TPCHD/GeneralProperty/FoodFacilityInspectionDetail.aspx?LicenseeNumber=PR0040797&LicenseeType=Food+Facility",
        "facility_id": "PR0040797",
        "follow_up_inspection_date": "",
        "follow_up_inspection_date_iso": "",
        "follow_up_inspection_result": "",
        "follow_up_inspection_type": "",
        "follow_up_label": "No later follow-up or reinspection observed in the scraped inspection history.",
        "follow_up_red_points": "",
        "follow_up_status": "not_observed",
        "geocode_status": "row",
        "inspection_date": "09/26/2025",
        "inspection_date_iso": "2025-09-26",
        "inspection_identity": "PR0040797|298042",
        "inspection_result": "A Reinspection is Required",
        "inspection_type": "Routine Inspection",
        "inspection_year": "2025",
        "record_id": "tpchd-e46f2f541b5b",
        "red_point_severity": "red_points_51_75",
        "red_point_severity_label": "51-75 red points",
        "red_points": 75,
        "repeat_red_points": 0,
        "report_fetch_status": "ok",
        "report_url": "https://aca-prod.accela.com/TPCHD/GET_INSP_DOCHandler.ashx?AltId=PR0040797&InspId=298042",
        "source": "TPCHD Accela",
        "total_points": 75,
        "zip": "98444"
      },
      "type": "Feature"
    },
    {
      "geometry": {
        "coordinates": [
          -122.5563389,
          47.24388339999999
        ],
        "type": "Point"
      },
      "properties": {
        "address": "9001 S 19th ST Tacoma WA 98466 United States",
        "business_name": "ANTHONY'S BOATHOUSE",
        "city": "Tacoma",
        "current_grade": "Great",
        "current_last_inspection_date": "02/23/2026",
        "current_rating_category": "rating_great",
        "current_rating_color": "#2e7d32",
        "current_rating_label": "Great",
        "current_rating_letter": "G",
        "current_score": "0",
        "current_status_timing": "later",
        "current_status_timing_label": "Current TPCHD status is from a later inspection date: February 23, 2026.",
        "date": "2025-08-15",
        "facility_detail_url": "https://aca-prod.accela.com/TPCHD/GeneralProperty/FoodFacilityInspectionDetail.aspx?LicenseeNumber=PR0038203&LicenseeType=Food+Facility",
        "facility_id": "PR0038203",
        "follow_up_inspection_date": "",
        "follow_up_inspection_date_iso": "",
        "follow_up_inspection_result": "",
        "follow_up_inspection_type": "",
        "follow_up_label": "Later current TPCHD status observed on February 23, 2026, but the specific later inspection/report is not parsed into this map dataset.",
        "follow_up_red_points": "",
        "follow_up_status": "not_parsed",
        "geocode_status": "row",
        "inspection_date": "08/15/2025",
        "inspection_date_iso": "2025-08-15",
        "inspection_identity": "PR0038203|332247",
        "inspection_result": "A Reinspection is Required",
        "inspection_type": "Routine Inspection",
        "inspection_year": "2025",
        "record_id": "tpchd-ece1ceeeba79",
        "red_point_severity": "red_points_36_50",
        "red_point_severity_label": "36-50 red points",
        "red_points": 50,
        "repeat_red_points": 0,
        "report_fetch_status": "ok",
        "report_url": "https://aca-prod.accela.com/TPCHD/GET_INSP_DOCHandler.ashx?AltId=PR0038203&InspId=332247",
        "source": "TPCHD Accela",
        "total_points": 50,
        "zip": "98466"
      },
      "type": "Feature"
    },
    {
      "geometry": {
        "coordinates": [
          -122.5518983,
          47.1224732
        ],
        "type": "Point"
      },
      "properties": {
        "address": "14909 Union AVE SW Lakewood WA 98498 United States",
        "business_name": "DULCE TENTACION",
        "city": "Lakewood",
        "current_grade": "",
        "current_last_inspection_date": "08/14/2025",
        "current_rating_category": "rating_new_unknown",
        "current_rating_color": "#6b7280",
        "current_rating_label": "New or unavailable",
        "current_rating_letter": "?",
        "current_score": "0",
        "current_status_timing": "later",
        "current_status_timing_label": "Current TPCHD status is from a later inspection date: August 14, 2025.",
        "date": "2025-08-13",
        "facility_detail_url": "https://aca-prod.accela.com/TPCHD/GeneralProperty/FoodFacilityInspectionDetail.aspx?LicenseeNumber=PR0039572&LicenseeType=Food+Facility",
        "facility_id": "PR0039572",
        "follow_up_inspection_date": "",
        "follow_up_inspection_date_iso": "",
        "follow_up_inspection_result": "",
        "follow_up_inspection_type": "",
        "follow_up_label": "Later current TPCHD status observed on August 14, 2025, but the specific later inspection/report is not parsed into this map dataset.",
        "follow_up_red_points": "",
        "follow_up_status": "not_parsed",
        "geocode_status": "row",
        "inspection_date": "08/13/2025",
        "inspection_date_iso": "2025-08-13",
        "inspection_identity": "PR0039572|298065",
        "inspection_result": "FSE is Closed Until Approved to Reopen by TPCHD & Pre-opening Required",
        "inspection_type": "Routine Inspection",
        "inspection_year": "2025",
        "record_id": "tpchd-aa4a6316039a",
        "red_point_severity": "red_points_51_75",
        "red_point_severity_label": "51-75 red points",
        "red_points": 75,
        "repeat_red_points": 0,
        "report_fetch_status": "ok",
        "report_url": "https://aca-prod.accela.com/TPCHD/GET_INSP_DOCHandler.ashx?AltId=PR0039572&InspId=298065",
        "source": "TPCHD Accela",
        "total_points": 80,
        "zip": "98498"
      },
      "type": "Feature"
    },
    {
      "geometry": {
        "coordinates": [
          -122.4833047,
          47.1735459
        ],
        "type": "Point"
      },
      "properties": {
        "address": "9205 South Tacoma Way STE 101 Lakewood WA 98499 United States",
        "business_name": "LA MICHOACANA ICE CREAM AND MARKET - DELI",
        "city": "Lakewood",
        "current_grade": "Great",
        "current_last_inspection_date": "01/23/2026",
        "current_rating_category": "rating_great",
        "current_rating_color": "#2e7d32",
        "current_rating_label": "Great",
        "current_rating_letter": "G",
        "current_score": "0",
        "current_status_timing": "later",
        "current_status_timing_label": "Current TPCHD status is from a later inspection date: January 23, 2026.",
        "date": "2025-08-04",
        "facility_detail_url": "https://aca-prod.accela.com/TPCHD/GeneralProperty/FoodFacilityInspectionDetail.aspx?LicenseeNumber=PR0039539&LicenseeType=Food+Facility",
        "facility_id": "PR0039539",
        "follow_up_inspection_date": "",
        "follow_up_inspection_date_iso": "",
        "follow_up_inspection_result": "",
        "follow_up_inspection_type": "",
        "follow_up_label": "Later current TPCHD status observed on January 23, 2026, but the specific later inspection/report is not parsed into this map dataset.",
        "follow_up_red_points": "",
        "follow_up_status": "not_parsed",
        "geocode_status": "row",
        "inspection_date": "08/04/2025",
        "inspection_date_iso": "2025-08-04",
        "inspection_identity": "PR0039539|480645",
        "inspection_result": "A Reinspection is Required",
        "inspection_type": "Routine Inspection",
        "inspection_year": "2025",
        "record_id": "tpchd-22cd007288a0",
        "red_point_severity": "red_points_36_50",
        "red_point_severity_label": "36-50 red points",
        "red_points": 45,
        "repeat_red_points": 0,
        "report_fetch_status": "ok",
        "report_url": "https://aca-prod.accela.com/TPCHD/GET_INSP_DOCHandler.ashx?AltId=PR0039539&InspId=480645",
        "source": "TPCHD Accela",
        "total_points": 45,
        "zip": "98499"
      },
      "type": "Feature"
    },
    {
      "geometry": {
        "coordinates": [
          -122.5545976,
          47.1208575
        ],
        "type": "Point"
      },
      "properties": {
        "address": "15201 Union AVE SW Lakewood WA 98498 United States",
        "business_name": "POPEYES #11709",
        "city": "Lakewood",
        "current_grade": "Great",
        "current_last_inspection_date": "03/24/2026",
        "current_rating_category": "rating_great",
        "current_rating_color": "#2e7d32",
        "current_rating_label": "Great",
        "current_rating_letter": "G",
        "current_score": "30",
        "current_status_timing": "later",
        "current_status_timing_label": "Current TPCHD status is from a later inspection date: March 24, 2026.",
        "date": "2025-07-30",
        "facility_detail_url": "https://aca-prod.accela.com/TPCHD/GeneralProperty/FoodFacilityInspectionDetail.aspx?LicenseeNumber=PR0036973&LicenseeType=Food+Facility",
        "facility_id": "PR0036973",
        "follow_up_inspection_date": "",
        "follow_up_inspection_date_iso": "",
        "follow_up_inspection_result": "",
        "follow_up_inspection_type": "",
        "follow_up_label": "Later current TPCHD status observed on March 24, 2026, but the specific later inspection/report is not parsed into this map dataset.",
        "follow_up_red_points": "",
        "follow_up_status": "not_parsed",
        "geocode_status": "row",
        "inspection_date": "07/30/2025",
        "inspection_date_iso": "2025-07-30",
        "inspection_identity": "PR0036973|383640",
        "inspection_result": "A Reinspection is Required & Compliance Order Issued",
        "inspection_type": "Routine Inspection",
        "inspection_year": "2025",
        "record_id": "tpchd-ecb7c75d9154",
        "red_point_severity": "red_points_36_50",
        "red_point_severity_label": "36-50 red points",
        "red_points": 45,
        "repeat_red_points": 0,
        "report_fetch_status": "ok",
        "report_url": "https://aca-prod.accela.com/TPCHD/GET_INSP_DOCHandler.ashx?AltId=PR0036973&InspId=383640",
        "source": "TPCHD Accela",
        "total_points": 57,
        "zip": "98498"
      },
      "type": "Feature"
    },
    {
      "geometry": {
        "coordinates": [
          -122.5154746,
          47.2986288
        ],
        "type": "Point"
      },
      "properties": {
        "address": "5105 N Pearl ST Tacoma WA 98407 United States",
        "business_name": "WELCOME RESTAURANT",
        "city": "Tacoma",
        "current_grade": "",
        "current_last_inspection_date": "05/04/2026",
        "current_rating_category": "rating_new_unknown",
        "current_rating_color": "#6b7280",
        "current_rating_label": "New or unavailable",
        "current_rating_letter": "?",
        "current_score": "0",
        "current_status_timing": "later",
        "current_status_timing_label": "Current TPCHD status is from a later inspection date: May 4, 2026.",
        "date": "2025-06-30",
        "facility_detail_url": "https://aca-prod.accela.com/TPCHD/GeneralProperty/FoodFacilityInspectionDetail.aspx?LicenseeNumber=PR0040778&LicenseeType=Food+Facility",
        "facility_id": "PR0040778",
        "follow_up_inspection_date": "03/26/2026",
        "follow_up_inspection_date_iso": "2026-03-26",
        "follow_up_inspection_result": "A Reinspection is Required & Compliance Order Issued",
        "follow_up_inspection_type": "Routine Inspection",
        "follow_up_label": "Later follow-up/reinspection observed on March 26, 2026 with 50 red points.",
        "follow_up_red_points": 50,
        "follow_up_status": "observed",
        "geocode_status": "row",
        "inspection_date": "06/30/2025",
        "inspection_date_iso": "2025-06-30",
        "inspection_identity": "PR0040778|726",
        "inspection_result": "A REINSPECTION IS REQUIRED",
        "inspection_type": "Routine Inspection- F&CS",
        "inspection_year": "2025",
        "record_id": "tpchd-b63970e479db",
        "red_point_severity": "red_points_76_100",
        "red_point_severity_label": "76-100 red points",
        "red_points": 90,
        "repeat_red_points": 0,
        "report_fetch_status": "ok",
        "report_url": "https://aca-prod.accela.com/TPCHD/GET_INSP_DOCHandler.ashx?AltId=PR0040778&InspId=726",
        "source": "TPCHD Accela",
        "total_points": 90,
        "zip": "98407"
      },
      "type": "Feature"
    },
    {
      "geometry": {
        "coordinates": [
          -122.4362735,
          47.1346918
        ],
        "type": "Point"
      },
      "properties": {
        "address": "306 134th ST S Tacoma WA 98444 United States",
        "business_name": "TASTE OF SAMOA - TPCHD #1275",
        "city": "Tacoma",
        "current_grade": "",
        "current_last_inspection_date": "05/13/2026",
        "current_rating_category": "rating_new_unknown",
        "current_rating_color": "#6b7280",
        "current_rating_label": "New or unavailable",
        "current_rating_letter": "?",
        "current_score": "0",
        "current_status_timing": "later",
        "current_status_timing_label": "Current TPCHD status is from a later inspection date: May 13, 2026.",
        "date": "2025-06-27",
        "facility_detail_url": "https://aca-prod.accela.com/TPCHD/GeneralProperty/FoodFacilityInspectionDetail.aspx?LicenseeNumber=PR0037334&LicenseeType=Food+Facility",
        "facility_id": "PR0037334",
        "follow_up_inspection_date": "",
        "follow_up_inspection_date_iso": "",
        "follow_up_inspection_result": "",
        "follow_up_inspection_type": "",
        "follow_up_label": "Later current TPCHD status observed on May 13, 2026, but the specific later inspection/report is not parsed into this map dataset.",
        "follow_up_red_points": "",
        "follow_up_status": "not_parsed",
        "geocode_status": "row",
        "inspection_date": "06/27/2025",
        "inspection_date_iso": "2025-06-27",
        "inspection_identity": "PR0037334|219917",
        "inspection_result": "A REINSPECTION IS REQUIRED",
        "inspection_type": "Routine Inspection- F&CS",
        "inspection_year": "2025",
        "record_id": "tpchd-f70abfe31ab4",
        "red_point_severity": "red_points_51_75",
        "red_point_severity_label": "51-75 red points",
        "red_points": 70,
        "repeat_red_points": 10,
        "report_fetch_status": "ok",
        "report_url": "https://aca-prod.accela.com/TPCHD/GET_INSP_DOCHandler.ashx?AltId=PR0037334&InspId=219917",
        "source": "TPCHD Accela",
        "total_points": 75,
        "zip": "98444"
      },
      "type": "Feature"
    },
    {
      "geometry": {
        "coordinates": [
          -122.4846981,
          47.172449
        ],
        "type": "Point"
      },
      "properties": {
        "address": "9312 S Tacoma WAY STE 130 Lakewood WA 98499 United States",
        "business_name": "GRILL (THE)",
        "city": "Lakewood",
        "current_grade": "Okay",
        "current_last_inspection_date": "05/19/2026",
        "current_rating_category": "rating_okay",
        "current_rating_color": "#d88c1f",
        "current_rating_label": "Okay",
        "current_rating_letter": "O",
        "current_score": "0",
        "current_status_timing": "later",
        "current_status_timing_label": "Current TPCHD status is from a later inspection date: May 19, 2026.",
        "date": "2025-06-23",
        "facility_detail_url": "https://aca-prod.accela.com/TPCHD/GeneralProperty/FoodFacilityInspectionDetail.aspx?LicenseeNumber=PR0039284&LicenseeType=Food+Facility",
        "facility_id": "PR0039284",
        "follow_up_inspection_date": "11/13/2025",
        "follow_up_inspection_date_iso": "2025-11-13",
        "follow_up_inspection_result": "A Reinspection is Required",
        "follow_up_inspection_type": "Routine Inspection",
        "follow_up_label": "Later follow-up/reinspection observed on November 13, 2025 with 45 red points.",
        "follow_up_red_points": 45,
        "follow_up_status": "observed",
        "geocode_status": "row",
        "inspection_date": "06/23/2025",
        "inspection_date_iso": "2025-06-23",
        "inspection_identity": "PR0039284|379394",
        "inspection_result": "A REINSPECTION IS REQUIRED",
        "inspection_type": "Routine Inspection- F&CS",
        "inspection_year": "2025",
        "record_id": "tpchd-be19795ee55b",
        "red_point_severity": "red_points_51_75",
        "red_point_severity_label": "51-75 red points",
        "red_points": 65,
        "repeat_red_points": 65,
        "report_fetch_status": "ok",
        "report_url": "https://aca-prod.accela.com/TPCHD/GET_INSP_DOCHandler.ashx?AltId=PR0039284&InspId=379394",
        "source": "TPCHD Accela",
        "total_points": 96,
        "zip": "98499"
      },
      "type": "Feature"
    },
    {
      "geometry": {
        "coordinates": [
          -122.4362735,
          47.1346918
        ],
        "type": "Point"
      },
      "properties": {
        "address": "306 134th ST S Tacoma WA 98444 United States",
        "business_name": "MAN BBQ RED TRUCK (THE) - RED TRUCK(TPCHD BLUE#1822)",
        "city": "Tacoma",
        "current_grade": "",
        "current_last_inspection_date": "06/19/2025",
        "current_rating_category": "rating_new_unknown",
        "current_rating_color": "#6b7280",
        "current_rating_label": "New or unavailable",
        "current_rating_letter": "?",
        "current_score": "40",
        "current_status_timing": "same_day",
        "current_status_timing_label": "Current TPCHD status is from the same date as this inspection: June 19, 2025.",
        "date": "2025-06-19",
        "facility_detail_url": "https://aca-prod.accela.com/TPCHD/GeneralProperty/FoodFacilityInspectionDetail.aspx?LicenseeNumber=PR0040153&LicenseeType=Food+Facility",
        "facility_id": "PR0040153",
        "follow_up_inspection_date": "",
        "follow_up_inspection_date_iso": "",
        "follow_up_inspection_result": "",
        "follow_up_inspection_type": "",
        "follow_up_label": "No later follow-up or reinspection observed in the scraped inspection history.",
        "follow_up_red_points": "",
        "follow_up_status": "not_observed",
        "geocode_status": "row",
        "inspection_date": "06/19/2025",
        "inspection_date_iso": "2025-06-19",
        "inspection_identity": "PR0040153|222849",
        "inspection_result": "A REINSPECTION IS REQUIRED",
        "inspection_type": "Routine Inspection- F&CS",
        "inspection_year": "2025",
        "record_id": "tpchd-5032765b9af4",
        "red_point_severity": "red_points_36_50",
        "red_point_severity_label": "36-50 red points",
        "red_points": 40,
        "repeat_red_points": 0,
        "report_fetch_status": "ok",
        "report_url": "https://aca-prod.accela.com/TPCHD/GET_INSP_DOCHandler.ashx?AltId=PR0040153&InspId=222849",
        "source": "TPCHD Accela",
        "total_points": 40,
        "zip": "98444"
      },
      "type": "Feature"
    },
    {
      "geometry": {
        "coordinates": [
          -122.5853862,
          47.3184233
        ],
        "type": "Point"
      },
      "properties": {
        "address": "6575 Kimball Dr Gig Harbor WA 98335 United States",
        "business_name": "WESLEY INN OF GIG HARBOR",
        "city": "Gig Harbor",
        "current_grade": "Great",
        "current_last_inspection_date": "12/19/2025",
        "current_rating_category": "rating_great",
        "current_rating_color": "#2e7d32",
        "current_rating_label": "Great",
        "current_rating_letter": "G",
        "current_score": "0",
        "current_status_timing": "later",
        "current_status_timing_label": "Current TPCHD status is from a later inspection date: December 19, 2025.",
        "date": "2025-05-29",
        "facility_detail_url": "https://aca-prod.accela.com/TPCHD/GeneralProperty/FoodFacilityInspectionDetail.aspx?LicenseeNumber=PR0034691&LicenseeType=Food+Facility",
        "facility_id": "PR0034691",
        "follow_up_inspection_date": "",
        "follow_up_inspection_date_iso": "",
        "follow_up_inspection_result": "",
        "follow_up_inspection_type": "",
        "follow_up_label": "Later current TPCHD status observed on December 19, 2025, but the specific later inspection/report is not parsed into this map dataset.",
        "follow_up_red_points": "",
        "follow_up_status": "not_parsed",
        "geocode_status": "row",
        "inspection_date": "05/29/2025",
        "inspection_date_iso": "2025-05-29",
        "inspection_identity": "PR0034691|428842",
        "inspection_result": "A REINSPECTION IS REQUIRED",
        "inspection_type": "FOLLOW  UP REINSPECTION (CHG) - Food",
        "inspection_year": "2025",
        "record_id": "tpchd-c08235bdb990",
        "red_point_severity": "red_points_51_75",
        "red_point_severity_label": "51-75 red points",
        "red_points": 70,
        "repeat_red_points": 0,
        "report_fetch_status": "ok",
        "report_url": "https://aca-prod.accela.com/TPCHD/GET_INSP_DOCHandler.ashx?AltId=PR0034691&InspId=428842",
        "source": "TPCHD Accela",
        "total_points": 70,
        "zip": "98335"
      },
      "type": "Feature"
    },
    {
      "geometry": {
        "coordinates": [
          -122.5853862,
          47.3184233
        ],
        "type": "Point"
      },
      "properties": {
        "address": "6575 Kimball Dr Gig Harbor WA 98335 United States",
        "business_name": "WESLEY INN OF GIG HARBOR",
        "city": "Gig Harbor",
        "current_grade": "Great",
        "current_last_inspection_date": "12/19/2025",
        "current_rating_category": "rating_great",
        "current_rating_color": "#2e7d32",
        "current_rating_label": "Great",
        "current_rating_letter": "G",
        "current_score": "0",
        "current_status_timing": "later",
        "current_status_timing_label": "Current TPCHD status is from a later inspection date: December 19, 2025.",
        "date": "2025-05-15",
        "facility_detail_url": "https://aca-prod.accela.com/TPCHD/GeneralProperty/FoodFacilityInspectionDetail.aspx?LicenseeNumber=PR0034691&LicenseeType=Food+Facility",
        "facility_id": "PR0034691",
        "follow_up_inspection_date": "05/29/2025",
        "follow_up_inspection_date_iso": "2025-05-29",
        "follow_up_inspection_result": "A REINSPECTION IS REQUIRED",
        "follow_up_inspection_type": "FOLLOW  UP REINSPECTION (CHG) - Food",
        "follow_up_label": "Later follow-up/reinspection observed on May 29, 2025 with 70 red points.",
        "follow_up_red_points": 70,
        "follow_up_status": "observed",
        "geocode_status": "row",
        "inspection_date": "05/15/2025",
        "inspection_date_iso": "2025-05-15",
        "inspection_identity": "PR0034691|428843",
        "inspection_result": "A REINSPECTION IS REQUIRED",
        "inspection_type": "Routine Inspection- F&CS",
        "inspection_year": "2025",
        "record_id": "tpchd-76469273c9ce",
        "red_point_severity": "red_points_76_100",
        "red_point_severity_label": "76-100 red points",
        "red_points": 90,
        "repeat_red_points": 0,
        "report_fetch_status": "ok",
        "report_url": "https://aca-prod.accela.com/TPCHD/GET_INSP_DOCHandler.ashx?AltId=PR0034691&InspId=428843",
        "source": "TPCHD Accela",
        "total_points": 90,
        "zip": "98335"
      },
      "type": "Feature"
    },
    {
      "geometry": {
        "coordinates": [
          -122.5133821,
          47.1664687
        ],
        "type": "Point"
      },
      "properties": {
        "address": "5700 100TH ST SW STE 500 Lakewood WA 98499 United States",
        "business_name": "KOTO TERIYAKI",
        "city": "Lakewood",
        "current_grade": "Okay",
        "current_last_inspection_date": "04/20/2026",
        "current_rating_category": "rating_okay",
        "current_rating_color": "#d88c1f",
        "current_rating_label": "Okay",
        "current_rating_letter": "O",
        "current_score": "25",
        "current_status_timing": "later",
        "current_status_timing_label": "Current TPCHD status is from a later inspection date: April 20, 2026.",
        "date": "2025-05-01",
        "facility_detail_url": "https://aca-prod.accela.com/TPCHD/GeneralProperty/FoodFacilityInspectionDetail.aspx?LicenseeNumber=PR0040695&LicenseeType=Food+Facility",
        "facility_id": "PR0040695",
        "follow_up_inspection_date": "01/07/2026",
        "follow_up_inspection_date_iso": "2026-01-07",
        "follow_up_inspection_result": "A Reinspection is Required",
        "follow_up_inspection_type": "Routine Inspection",
        "follow_up_label": "Later follow-up/reinspection observed on January 7, 2026 with 60 red points.",
        "follow_up_red_points": 60,
        "follow_up_status": "observed",
        "geocode_status": "row",
        "inspection_date": "05/01/2025",
        "inspection_date_iso": "2025-05-01",
        "inspection_identity": "PR0040695|325608",
        "inspection_result": "MEETS TPCHD MINIMUM HEALTH STANDARDS",
        "inspection_type": "Routine Inspection- F&CS",
        "inspection_year": "2025",
        "record_id": "tpchd-57d3732ebe9c",
        "red_point_severity": "red_points_51_75",
        "red_point_severity_label": "51-75 red points",
        "red_points": 70,
        "repeat_red_points": 0,
        "report_fetch_status": "ok",
        "report_url": "https://aca-prod.accela.com/TPCHD/GET_INSP_DOCHandler.ashx?AltId=PR0040695&InspId=325608",
        "source": "TPCHD Accela",
        "total_points": 70,
        "zip": "98499"
      },
      "type": "Feature"
    },
    {
      "geometry": {
        "coordinates": [
          -122.5589393,
          47.1443611
        ],
        "type": "Point"
      },
      "properties": {
        "address": "9124 Veterans DR SW Tacoma WA 98498 United States",
        "business_name": "LA TENTACION TACOS AND TEQUILA",
        "city": "Tacoma",
        "current_grade": "",
        "current_last_inspection_date": "10/24/2025",
        "current_rating_category": "rating_new_unknown",
        "current_rating_color": "#6b7280",
        "current_rating_label": "New or unavailable",
        "current_rating_letter": "?",
        "current_score": "25",
        "current_status_timing": "later",
        "current_status_timing_label": "Current TPCHD status is from a later inspection date: October 24, 2025.",
        "date": "2025-04-17",
        "facility_detail_url": "https://aca-prod.accela.com/TPCHD/GeneralProperty/FoodFacilityInspectionDetail.aspx?LicenseeNumber=PR0038654&LicenseeType=Food+Facility",
        "facility_id": "PR0038654",
        "follow_up_inspection_date": "10/10/2025",
        "follow_up_inspection_date_iso": "2025-10-10",
        "follow_up_inspection_result": "A Reinspection is Required",
        "follow_up_inspection_type": "Routine Inspection",
        "follow_up_label": "Later follow-up/reinspection observed on October 10, 2025 with 60 red points.",
        "follow_up_red_points": 60,
        "follow_up_status": "observed",
        "geocode_status": "row",
        "inspection_date": "04/17/2025",
        "inspection_date_iso": "2025-04-17",
        "inspection_identity": "PR0038654|427971",
        "inspection_result": "A REINSPECTION IS REQUIRED",
        "inspection_type": "Routine Inspection- F&CS",
        "inspection_year": "2025",
        "record_id": "tpchd-c5f9bc716de5",
        "red_point_severity": "red_points_76_100",
        "red_point_severity_label": "76-100 red points",
        "red_points": 85,
        "repeat_red_points": 0,
        "report_fetch_status": "ok",
        "report_url": "https://aca-prod.accela.com/TPCHD/GET_INSP_DOCHandler.ashx?AltId=PR0038654&InspId=427971",
        "source": "TPCHD Accela",
        "total_points": 88,
        "zip": "98498"
      },
      "type": "Feature"
    },
    {
      "geometry": {
        "coordinates": [
          -122.481023,
          47.255613
        ],
        "type": "Point"
      },
      "properties": {
        "address": "3401 6th AVE #F&G Tacoma WA 98406 United States",
        "business_name": "SILK THAI CAFE",
        "city": "Tacoma",
        "current_grade": "",
        "current_last_inspection_date": "05/21/2026",
        "current_rating_category": "rating_new_unknown",
        "current_rating_color": "#6b7280",
        "current_rating_label": "New or unavailable",
        "current_rating_letter": "?",
        "current_score": "0",
        "current_status_timing": "later",
        "current_status_timing_label": "Current TPCHD status is from a later inspection date: May 21, 2026.",
        "date": "2025-04-10",
        "facility_detail_url": "https://aca-prod.accela.com/TPCHD/GeneralProperty/FoodFacilityInspectionDetail.aspx?LicenseeNumber=PR0022641&LicenseeType=Food+Facility",
        "facility_id": "PR0022641",
        "follow_up_inspection_date": "05/07/2026",
        "follow_up_inspection_date_iso": "2026-05-07",
        "follow_up_inspection_result": "A Reinspection is Required & Compliance Order Issued",
        "follow_up_inspection_type": "Routine Inspection",
        "follow_up_label": "Later follow-up/reinspection observed on May 7, 2026 with 45 red points.",
        "follow_up_red_points": 45,
        "follow_up_status": "observed",
        "geocode_status": "row",
        "inspection_date": "04/10/2025",
        "inspection_date_iso": "2025-04-10",
        "inspection_identity": "PR0022641|20424",
        "inspection_result": "A REINSPECTION IS REQUIRED",
        "inspection_type": "Routine Inspection- F&CS",
        "inspection_year": "2025",
        "record_id": "tpchd-0d26f73b2f77",
        "red_point_severity": "red_points_36_50",
        "red_point_severity_label": "36-50 red points",
        "red_points": 45,
        "repeat_red_points": 45,
        "report_fetch_status": "ok",
        "report_url": "https://aca-prod.accela.com/TPCHD/GET_INSP_DOCHandler.ashx?AltId=PR0022641&InspId=20424",
        "source": "TPCHD Accela",
        "total_points": 94,
        "zip": "98406"
      },
      "type": "Feature"
    },
    {
      "geometry": {
        "coordinates": [
          -122.467149,
          47.21494329999999
        ],
        "type": "Point"
      },
      "properties": {
        "address": "4502 S Steele ST STE 1510 Tacoma WA 98409 United States",
        "business_name": "WOOBLING KOREAN BBQ",
        "city": "Tacoma",
        "current_grade": "Okay",
        "current_last_inspection_date": "05/18/2026",
        "current_rating_category": "rating_okay",
        "current_rating_color": "#d88c1f",
        "current_rating_label": "Okay",
        "current_rating_letter": "O",
        "current_score": "85",
        "current_status_timing": "later",
        "current_status_timing_label": "Current TPCHD status is from a later inspection date: May 18, 2026.",
        "date": "2025-04-09",
        "facility_detail_url": "https://aca-prod.accela.com/TPCHD/GeneralProperty/FoodFacilityInspectionDetail.aspx?LicenseeNumber=PR0040811&LicenseeType=Food+Facility",
        "facility_id": "PR0040811",
        "follow_up_inspection_date": "11/07/2025",
        "follow_up_inspection_date_iso": "2025-11-07",
        "follow_up_inspection_result": "A Reinspection is Required",
        "follow_up_inspection_type": "Routine Inspection",
        "follow_up_label": "Later follow-up/reinspection observed on November 7, 2025 with 75 red points.",
        "follow_up_red_points": 75,
        "follow_up_status": "observed",
        "geocode_status": "row",
        "inspection_date": "04/09/2025",
        "inspection_date_iso": "2025-04-09",
        "inspection_identity": "PR0040811|379991",
        "inspection_result": "A REINSPECTION IS REQUIRED",
        "inspection_type": "Routine Inspection- F&CS",
        "inspection_year": "2025",
        "record_id": "tpchd-8eae54de4da7",
        "red_point_severity": "red_points_76_100",
        "red_point_severity_label": "76-100 red points",
        "red_points": 80,
        "repeat_red_points": 75,
        "report_fetch_status": "ok",
        "report_url": "https://aca-prod.accela.com/TPCHD/GET_INSP_DOCHandler.ashx?AltId=PR0040811&InspId=379991",
        "source": "TPCHD Accela",
        "total_points": 85,
        "zip": "98409"
      },
      "type": "Feature"
    },
    {
      "geometry": {
        "coordinates": [
          -122.4502844,
          47.24336530000001
        ],
        "type": "Point"
      },
      "properties": {
        "address": "1902 MLK JR WAY Tacoma WA 98405 United States",
        "business_name": "EZELLS FAMOUS CHICKEN",
        "city": "Tacoma",
        "current_grade": "",
        "current_last_inspection_date": "05/14/2026",
        "current_rating_category": "rating_new_unknown",
        "current_rating_color": "#6b7280",
        "current_rating_label": "New or unavailable",
        "current_rating_letter": "?",
        "current_score": "0",
        "current_status_timing": "later",
        "current_status_timing_label": "Current TPCHD status is from a later inspection date: May 14, 2026.",
        "date": "2025-03-25",
        "facility_detail_url": "https://aca-prod.accela.com/TPCHD/GeneralProperty/FoodFacilityInspectionDetail.aspx?LicenseeNumber=PR0031849&LicenseeType=Food+Facility",
        "facility_id": "PR0031849",
        "follow_up_inspection_date": "04/14/2026",
        "follow_up_inspection_date_iso": "2026-04-14",
        "follow_up_inspection_result": "A Reinspection is Required",
        "follow_up_inspection_type": "Routine Inspection",
        "follow_up_label": "Later follow-up/reinspection observed on April 14, 2026 with 85 red points.",
        "follow_up_red_points": 85,
        "follow_up_status": "observed",
        "geocode_status": "row",
        "inspection_date": "03/25/2025",
        "inspection_date_iso": "2025-03-25",
        "inspection_identity": "PR0031849|300512",
        "inspection_result": "A REINSPECTION IS REQUIRED",
        "inspection_type": "Routine Inspection- F&CS",
        "inspection_year": "2025",
        "record_id": "tpchd-43ade74d8eed",
        "red_point_severity": "red_points_51_75",
        "red_point_severity_label": "51-75 red points",
        "red_points": 65,
        "repeat_red_points": 60,
        "report_fetch_status": "ok",
        "report_url": "https://aca-prod.accela.com/TPCHD/GET_INSP_DOCHandler.ashx?AltId=PR0031849&InspId=300512",
        "source": "TPCHD Accela",
        "total_points": 189,
        "zip": "98405"
      },
      "type": "Feature"
    },
    {
      "geometry": {
        "coordinates": [
          -122.4403333,
          47.2504061
        ],
        "type": "Point"
      },
      "properties": {
        "address": "1320 Broadway Plaza Tacoma WA 98402 United States",
        "business_name": "HOTEL MURANO",
        "city": "Tacoma",
        "current_grade": "Okay",
        "current_last_inspection_date": "05/13/2026",
        "current_rating_category": "rating_okay",
        "current_rating_color": "#d88c1f",
        "current_rating_label": "Okay",
        "current_rating_letter": "O",
        "current_score": "65",
        "current_status_timing": "later",
        "current_status_timing_label": "Current TPCHD status is from a later inspection date: May 13, 2026.",
        "date": "2025-03-20",
        "facility_detail_url": "https://aca-prod.accela.com/TPCHD/GeneralProperty/FoodFacilityInspectionDetail.aspx?LicenseeNumber=PR0000307&LicenseeType=Food+Facility",
        "facility_id": "PR0000307",
        "follow_up_inspection_date": "05/13/2026",
        "follow_up_inspection_date_iso": "2026-05-13",
        "follow_up_inspection_result": "A Reinspection is Required",
        "follow_up_inspection_type": "Routine Inspection",
        "follow_up_label": "Later follow-up/reinspection observed on May 13, 2026 with 65 red points.",
        "follow_up_red_points": 65,
        "follow_up_status": "observed",
        "geocode_status": "row",
        "inspection_date": "03/20/2025",
        "inspection_date_iso": "2025-03-20",
        "inspection_identity": "PR0000307|588332",
        "inspection_result": "A REINSPECTION IS REQUIRED",
        "inspection_type": "Routine Inspection- F&CS",
        "inspection_year": "2025",
        "record_id": "tpchd-9dfa3a75a2ed",
        "red_point_severity": "red_points_76_100",
        "red_point_severity_label": "76-100 red points",
        "red_points": 80,
        "repeat_red_points": 70,
        "report_fetch_status": "ok",
        "report_url": "https://aca-prod.accela.com/TPCHD/GET_INSP_DOCHandler.ashx?AltId=PR0000307&InspId=588332",
        "source": "TPCHD Accela",
        "total_points": 131,
        "zip": "98402"
      },
      "type": "Feature"
    },
    {
      "geometry": {
        "coordinates": [
          -122.5787864,
          47.3030301
        ],
        "type": "Point"
      },
      "properties": {
        "address": "4901 Point Fosdick DR N STE B600 Gig Harbor WA 98335 United States",
        "business_name": "MILKVUE DONUTS AND COFFEE",
        "city": "Gig Harbor",
        "current_grade": "Great",
        "current_last_inspection_date": "05/14/2026",
        "current_rating_category": "rating_great",
        "current_rating_color": "#2e7d32",
        "current_rating_label": "Great",
        "current_rating_letter": "G",
        "current_score": "45",
        "current_status_timing": "later",
        "current_status_timing_label": "Current TPCHD status is from a later inspection date: May 14, 2026.",
        "date": "2025-03-20",
        "facility_detail_url": "https://aca-prod.accela.com/TPCHD/GeneralProperty/FoodFacilityInspectionDetail.aspx?LicenseeNumber=PR0038671&LicenseeType=Food+Facility",
        "facility_id": "PR0038671",
        "follow_up_inspection_date": "05/14/2026",
        "follow_up_inspection_date_iso": "2026-05-14",
        "follow_up_inspection_result": "A Reinspection is Required & Compliance Order Issued",
        "follow_up_inspection_type": "Routine Inspection",
        "follow_up_label": "Later follow-up/reinspection observed on May 14, 2026 with 45 red points.",
        "follow_up_red_points": 45,
        "follow_up_status": "observed",
        "geocode_status": "row",
        "inspection_date": "03/20/2025",
        "inspection_date_iso": "2025-03-20",
        "inspection_identity": "PR0038671|606006",
        "inspection_result": "MEETS TPCHD MINIMUM HEALTH STANDARDS",
        "inspection_type": "Routine Inspection- F&CS",
        "inspection_year": "2025",
        "record_id": "tpchd-a7432e90722e",
        "red_point_severity": "red_points_36_50",
        "red_point_severity_label": "36-50 red points",
        "red_points": 42,
        "repeat_red_points": 30,
        "report_fetch_status": "ok",
        "report_url": "https://aca-prod.accela.com/TPCHD/GET_INSP_DOCHandler.ashx?AltId=PR0038671&InspId=606006",
        "source": "TPCHD Accela",
        "total_points": 97,
        "zip": "98335"
      },
      "type": "Feature"
    },
    {
      "geometry": {
        "coordinates": [
          -122.5988608,
          47.17286259999999
        ],
        "type": "Point"
      },
      "properties": {
        "address": "1617 Lafayette ST Steilacoom WA 98388 United States",
        "business_name": "BAIR (THE)",
        "city": "Steilacoom",
        "current_grade": "",
        "current_last_inspection_date": "12/09/2025",
        "current_rating_category": "rating_new_unknown",
        "current_rating_color": "#6b7280",
        "current_rating_label": "New or unavailable",
        "current_rating_letter": "?",
        "current_score": "0",
        "current_status_timing": "later",
        "current_status_timing_label": "Current TPCHD status is from a later inspection date: December 9, 2025.",
        "date": "2025-03-14",
        "facility_detail_url": "https://aca-prod.accela.com/TPCHD/GeneralProperty/FoodFacilityInspectionDetail.aspx?LicenseeNumber=PR0036828&LicenseeType=Food+Facility",
        "facility_id": "PR0036828",
        "follow_up_inspection_date": "",
        "follow_up_inspection_date_iso": "",
        "follow_up_inspection_result": "",
        "follow_up_inspection_type": "",
        "follow_up_label": "Later current TPCHD status observed on December 9, 2025, but the specific later inspection/report is not parsed into this map dataset.",
        "follow_up_red_points": "",
        "follow_up_status": "not_parsed",
        "geocode_status": "row",
        "inspection_date": "03/14/2025",
        "inspection_date_iso": "2025-03-14",
        "inspection_identity": "PR0036828|245856",
        "inspection_result": "A REINSPECTION IS REQUIRED",
        "inspection_type": "Routine Inspection- F&CS",
        "inspection_year": "2025",
        "record_id": "tpchd-958d618e7058",
        "red_point_severity": "red_points_51_75",
        "red_point_severity_label": "51-75 red points",
        "red_points": 75,
        "repeat_red_points": 75,
        "report_fetch_status": "ok",
        "report_url": "https://aca-prod.accela.com/TPCHD/GET_INSP_DOCHandler.ashx?AltId=PR0036828&InspId=245856",
        "source": "TPCHD Accela",
        "total_points": 115,
        "zip": "98388"
      },
      "type": "Feature"
    },
    {
      "geometry": {
        "coordinates": [
          -122.4492028,
          47.24328999999999
        ],
        "type": "Point"
      },
      "properties": {
        "address": "1901 Martin Luther King JR WAY STE B Tacoma WA 98405 United States",
        "business_name": "MIMI TERIYAKI & SUSHI BURRITO",
        "city": "Tacoma",
        "current_grade": "",
        "current_last_inspection_date": "05/14/2026",
        "current_rating_category": "rating_new_unknown",
        "current_rating_color": "#6b7280",
        "current_rating_label": "New or unavailable",
        "current_rating_letter": "?",
        "current_score": "0",
        "current_status_timing": "later",
        "current_status_timing_label": "Current TPCHD status is from a later inspection date: May 14, 2026.",
        "date": "2025-03-05",
        "facility_detail_url": "https://aca-prod.accela.com/TPCHD/GeneralProperty/FoodFacilityInspectionDetail.aspx?LicenseeNumber=PR0039323&LicenseeType=Food+Facility",
        "facility_id": "PR0039323",
        "follow_up_inspection_date": "04/15/2026",
        "follow_up_inspection_date_iso": "2026-04-15",
        "follow_up_inspection_result": "A Reinspection is Required",
        "follow_up_inspection_type": "Routine Inspection",
        "follow_up_label": "Later follow-up/reinspection observed on April 15, 2026 with 50 red points.",
        "follow_up_red_points": 50,
        "follow_up_status": "observed",
        "geocode_status": "row",
        "inspection_date": "03/05/2025",
        "inspection_date_iso": "2025-03-05",
        "inspection_identity": "PR0039323|137671",
        "inspection_result": "A REINSPECTION IS REQUIRED",
        "inspection_type": "Routine Inspection- F&CS",
        "inspection_year": "2025",
        "record_id": "tpchd-fbb2318fc218",
        "red_point_severity": "red_points_36_50",
        "red_point_severity_label": "36-50 red points",
        "red_points": 50,
        "repeat_red_points": 45,
        "report_fetch_status": "ok",
        "report_url": "https://aca-prod.accela.com/TPCHD/GET_INSP_DOCHandler.ashx?AltId=PR0039323&InspId=137671",
        "source": "TPCHD Accela",
        "total_points": 149,
        "zip": "98405"
      },
      "type": "Feature"
    },
    {
      "geometry": {
        "coordinates": [
          -122.4369063,
          47.1209515
        ],
        "type": "Point"
      },
      "properties": {
        "address": "14906 Pacific AVE S Parkland WA 98444 United States",
        "business_name": "STACKS BURGERS",
        "city": "Parkland",
        "current_grade": "Okay",
        "current_last_inspection_date": "10/29/2025",
        "current_rating_category": "rating_okay",
        "current_rating_color": "#d88c1f",
        "current_rating_label": "Okay",
        "current_rating_letter": "O",
        "current_score": "110",
        "current_status_timing": "later",
        "current_status_timing_label": "Current TPCHD status is from a later inspection date: October 29, 2025.",
        "date": "2025-02-26",
        "facility_detail_url": "https://aca-prod.accela.com/TPCHD/GeneralProperty/FoodFacilityInspectionDetail.aspx?LicenseeNumber=PR0038869&LicenseeType=Food+Facility",
        "facility_id": "PR0038869",
        "follow_up_inspection_date": "10/29/2025",
        "follow_up_inspection_date_iso": "2025-10-29",
        "follow_up_inspection_result": "A Reinspection is Required & Compliance Order Issued",
        "follow_up_inspection_type": "Routine Inspection",
        "follow_up_label": "Later follow-up/reinspection observed on October 29, 2025 with 60 red points.",
        "follow_up_red_points": 60,
        "follow_up_status": "observed",
        "geocode_status": "row",
        "inspection_date": "02/26/2025",
        "inspection_date_iso": "2025-02-26",
        "inspection_identity": "PR0038869|138217",
        "inspection_result": "A REINSPECTION IS REQUIRED",
        "inspection_type": "Routine Inspection- F&CS",
        "inspection_year": "2025",
        "record_id": "tpchd-76afd2ff28f4",
        "red_point_severity": "red_points_101_plus",
        "red_point_severity_label": "101+ red points",
        "red_points": 135,
        "repeat_red_points": 0,
        "report_fetch_status": "ok",
        "report_url": "https://aca-prod.accela.com/TPCHD/GET_INSP_DOCHandler.ashx?AltId=PR0038869&InspId=138217",
        "source": "TPCHD Accela",
        "total_points": 135,
        "zip": "98444"
      },
      "type": "Feature"
    },
    {
      "geometry": {
        "coordinates": [
          -122.5874741,
          47.32077719999999
        ],
        "type": "Point"
      },
      "properties": {
        "address": "6820 Kimball Dr A-1 Gig Harbor WA 98335 United States",
        "business_name": "KINZA TERIYAKI",
        "city": "Gig Harbor",
        "current_grade": "",
        "current_last_inspection_date": "03/16/2026",
        "current_rating_category": "rating_new_unknown",
        "current_rating_color": "#6b7280",
        "current_rating_label": "New or unavailable",
        "current_rating_letter": "?",
        "current_score": "0",
        "current_status_timing": "later",
        "current_status_timing_label": "Current TPCHD status is from a later inspection date: March 16, 2026.",
        "date": "2025-02-20",
        "facility_detail_url": "https://aca-prod.accela.com/TPCHD/GeneralProperty/FoodFacilityInspectionDetail.aspx?LicenseeNumber=PR0039437&LicenseeType=Food+Facility",
        "facility_id": "PR0039437",
        "follow_up_inspection_date": "03/09/2026",
        "follow_up_inspection_date_iso": "2026-03-09",
        "follow_up_inspection_result": "A Reinspection is Required",
        "follow_up_inspection_type": "Routine Inspection",
        "follow_up_label": "Later follow-up/reinspection observed on March 9, 2026 with 45 red points.",
        "follow_up_red_points": 45,
        "follow_up_status": "observed",
        "geocode_status": "row",
        "inspection_date": "02/20/2025",
        "inspection_date_iso": "2025-02-20",
        "inspection_identity": "PR0039437|325850",
        "inspection_result": "A REINSPECTION IS REQUIRED",
        "inspection_type": "Routine Inspection- F&CS",
        "inspection_year": "2025",
        "record_id": "tpchd-9edb6242387d",
        "red_point_severity": "red_points_51_75",
        "red_point_severity_label": "51-75 red points",
        "red_points": 60,
        "repeat_red_points": 60,
        "report_fetch_status": "ok",
        "report_url": "https://aca-prod.accela.com/TPCHD/GET_INSP_DOCHandler.ashx?AltId=PR0039437&InspId=325850",
        "source": "TPCHD Accela",
        "total_points": 63,
        "zip": "98335"
      },
      "type": "Feature"
    }
  ],
  "metadata": {
    "available_years": [
      "2025"
    ],
    "coverage_note": "Rows below the threshold and unparsed reports are not drawn on this over-threshold map. Rows above the threshold without reviewed coordinates are counted as unmapped. Follow-up context is inferred from later scraper-observed inspection rows for the same facility and the current-status fields on the facility page.",
    "data_universe": "Scraper-observed TPCHD Accela food-facility inspection records with parsed PDF reports; this public map layer includes only records over the red-point threshold.",
    "data_version": "20260526164749Z",
    "features_total": 35,
    "freshness_note": "Generated from the latest TPCHD scraper/publication run.",
    "generated_at": "2026-05-26T16:47:49Z",
    "geometry_precision": "reviewed facility address geocode",
    "inspection_date_window_end": "2026-05-18",
    "inspection_date_window_label": "February 2, 2021-May 18, 2026",
    "inspection_date_window_start": "2021-02-02",
    "map_cannot_show": "This map does not show neighborhood-level health risk, all inspections below the threshold, or rows without reviewed coordinates.",
    "map_claim": "Shows geocoded public restaurant inspection records with more than 35 red points, with current TPCHD rating and later observed inspection context where available.",
    "map_type": "point_symbol",
    "privacy": {
      "excludes": [
        "Google Sheet IDs",
        "Gmail recipients",
        "raw PDF text",
        "raw scraper payloads",
        "internal notes",
        "local paths"
      ],
      "public_fields_only": true,
      "review": "Exact restaurant locations are public commercial facility addresses from public inspection records."
    },
    "project": "tpchd-restaurant-inspections",
    "records_above_threshold": 90,
    "records_excluded_by_threshold": 0,
    "records_excluded_unparsed": 0,
    "records_total": 90,
    "red_point_threshold": 35,
    "schema_version": 1,
    "scope": "year:2025",
    "source": "TPCHD Accela food-facility inspection reports",
    "source_note": "Tacoma-Pierce County Health Department Accela food-facility inspection pages and parsed inspection-report PDFs.",
    "symbology": {
      "alert_categories": [
        {
          "color": "#d6604d",
          "icon": "exclamation",
          "id": "red_points_36_50",
          "label": "36-50 red points",
          "max": 50,
          "min": 36,
          "shape": "diamond",
          "stroke": "#ffffff"
        },
        {
          "color": "#c23030",
          "icon": "exclamation",
          "id": "red_points_51_75",
          "label": "51-75 red points",
          "max": 75,
          "min": 51,
          "shape": "diamond",
          "stroke": "#ffffff"
        },
        {
          "color": "#9f1d2d",
          "icon": "exclamation",
          "id": "red_points_76_100",
          "label": "76-100 red points",
          "max": 100,
          "min": 76,
          "shape": "diamond",
          "stroke": "#ffffff"
        },
        {
          "color": "#67000d",
          "icon": "exclamation",
          "id": "red_points_101_plus",
          "label": "101+ red points",
          "max": null,
          "min": 101,
          "shape": "diamond",
          "stroke": "#ffffff"
        }
      ],
      "evergreen_categories": [
        {
          "color": "#2e7d32",
          "id": "rating_great",
          "label": "Great",
          "letter": "G",
          "shape": "circle"
        },
        {
          "color": "#d88c1f",
          "id": "rating_okay",
          "label": "Okay",
          "letter": "O",
          "shape": "circle"
        },
        {
          "color": "#b61f2d",
          "id": "rating_needs_improve",
          "label": "Needs to improve",
          "letter": "N",
          "shape": "circle"
        },
        {
          "color": "#4b5563",
          "id": "rating_closed",
          "label": "Closed",
          "letter": "C",
          "shape": "circle"
        },
        {
          "color": "#6b7280",
          "id": "rating_new_unknown",
          "label": "New or unavailable",
          "letter": "?",
          "shape": "circle"
        }
      ],
      "note": "Evergreen markers use current TPCHD rating as the primary color/letter encoding. Alert/run maps use fixed red-point classes with darker red for higher totals. Marker size does not encode severity."
    },
    "threshold_label": "More than 35 red points",
    "threshold_rule": "red_points > 35",
    "title": "Tacoma-Pierce County restaurant inspection history and current ratings",
    "unmapped_records": 0,
    "unmapped_records_by_reason": {}
  },
  "type": "FeatureCollection"
}
