{
  "features": [
    {
      "geometry": {
        "coordinates": [
          -122.467149,
          47.21494329999999
        ],
        "type": "Point"
      },
      "properties": {
        "address": "4502 S Steele ST STE 1510 Tacoma WA 98409 United States",
        "business_name": "WOOBLING KOREAN BBQ",
        "city": "Tacoma",
        "current_grade": "Okay",
        "current_last_inspection_date": "05/18/2026",
        "current_rating_category": "rating_okay",
        "current_rating_color": "#d88c1f",
        "current_rating_label": "Okay",
        "current_rating_letter": "O",
        "current_score": "85",
        "current_status_timing": "same_day",
        "current_status_timing_label": "Current TPCHD status is from the same date as this inspection: May 18, 2026.",
        "date": "2026-05-18",
        "facility_detail_url": "https://aca-prod.accela.com/TPCHD/GeneralProperty/FoodFacilityInspectionDetail.aspx?LicenseeNumber=PR0040811&LicenseeType=Food+Facility",
        "facility_id": "PR0040811",
        "follow_up_inspection_date": "",
        "follow_up_inspection_date_iso": "",
        "follow_up_inspection_result": "",
        "follow_up_inspection_type": "",
        "follow_up_label": "No later follow-up or reinspection observed in the scraped inspection history.",
        "follow_up_red_points": "",
        "follow_up_status": "not_observed",
        "geocode_status": "row",
        "inspection_date": "05/18/2026",
        "inspection_date_iso": "2026-05-18",
        "inspection_identity": "PR0040811|697374",
        "inspection_result": "A Reinspection is Required",
        "inspection_type": "Routine Inspection",
        "inspection_year": "2026",
        "record_id": "tpchd-36be3f00a3b3",
        "red_point_severity": "red_points_76_100",
        "red_point_severity_label": "76-100 red points",
        "red_points": 85,
        "repeat_red_points": 0,
        "report_fetch_status": "ok",
        "report_url": "https://aca-prod.accela.com/TPCHD/GET_INSP_DOCHandler.ashx?AltId=PR0040811&InspId=697374",
        "source": "TPCHD Accela",
        "total_points": 85,
        "zip": "98409"
      },
      "type": "Feature"
    },
    {
      "geometry": {
        "coordinates": [
          -122.29394,
          47.188679
        ],
        "type": "Point"
      },
      "properties": {
        "address": "328 S Meridian Puyallup WA 98371 United States",
        "business_name": "GIORGIO'S GREEK CAFE",
        "city": "Puyallup",
        "current_grade": "Great",
        "current_last_inspection_date": "05/14/2026",
        "current_rating_category": "rating_great",
        "current_rating_color": "#2e7d32",
        "current_rating_label": "Great",
        "current_rating_letter": "G",
        "current_score": "60",
        "current_status_timing": "same_day",
        "current_status_timing_label": "Current TPCHD status is from the same date as this inspection: May 14, 2026.",
        "date": "2026-05-14",
        "facility_detail_url": "https://aca-prod.accela.com/TPCHD/GeneralProperty/FoodFacilityInspectionDetail.aspx?LicenseeNumber=PR0031472&LicenseeType=Food+Facility",
        "facility_id": "PR0031472",
        "follow_up_inspection_date": "",
        "follow_up_inspection_date_iso": "",
        "follow_up_inspection_result": "",
        "follow_up_inspection_type": "",
        "follow_up_label": "No later follow-up or reinspection observed in the scraped inspection history.",
        "follow_up_red_points": "",
        "follow_up_status": "not_observed",
        "geocode_status": "row",
        "inspection_date": "05/14/2026",
        "inspection_date_iso": "2026-05-14",
        "inspection_identity": "PR0031472|696294",
        "inspection_result": "A Reinspection is Required",
        "inspection_type": "Routine Inspection",
        "inspection_year": "2026",
        "record_id": "tpchd-e401f6cac369",
        "red_point_severity": "red_points_51_75",
        "red_point_severity_label": "51-75 red points",
        "red_points": 60,
        "repeat_red_points": 25,
        "report_fetch_status": "ok",
        "report_url": "https://aca-prod.accela.com/TPCHD/GET_INSP_DOCHandler.ashx?AltId=PR0031472&InspId=696294",
        "source": "TPCHD Accela",
        "total_points": 60,
        "zip": "98371"
      },
      "type": "Feature"
    },
    {
      "geometry": {
        "coordinates": [
          -122.5787864,
          47.3030301
        ],
        "type": "Point"
      },
      "properties": {
        "address": "4901 Point Fosdick DR N STE B600 Gig Harbor WA 98335 United States",
        "business_name": "MILKVUE DONUTS AND COFFEE",
        "city": "Gig Harbor",
        "current_grade": "Great",
        "current_last_inspection_date": "05/14/2026",
        "current_rating_category": "rating_great",
        "current_rating_color": "#2e7d32",
        "current_rating_label": "Great",
        "current_rating_letter": "G",
        "current_score": "45",
        "current_status_timing": "same_day",
        "current_status_timing_label": "Current TPCHD status is from the same date as this inspection: May 14, 2026.",
        "date": "2026-05-14",
        "facility_detail_url": "https://aca-prod.accela.com/TPCHD/GeneralProperty/FoodFacilityInspectionDetail.aspx?LicenseeNumber=PR0038671&LicenseeType=Food+Facility",
        "facility_id": "PR0038671",
        "follow_up_inspection_date": "",
        "follow_up_inspection_date_iso": "",
        "follow_up_inspection_result": "",
        "follow_up_inspection_type": "",
        "follow_up_label": "No later follow-up or reinspection observed in the scraped inspection history.",
        "follow_up_red_points": "",
        "follow_up_status": "not_observed",
        "geocode_status": "row",
        "inspection_date": "05/14/2026",
        "inspection_date_iso": "2026-05-14",
        "inspection_identity": "PR0038671|669414",
        "inspection_result": "A Reinspection is Required & Compliance Order Issued",
        "inspection_type": "Routine Inspection",
        "inspection_year": "2026",
        "record_id": "tpchd-2bfe10a08c50",
        "red_point_severity": "red_points_36_50",
        "red_point_severity_label": "36-50 red points",
        "red_points": 45,
        "repeat_red_points": 0,
        "report_fetch_status": "ok",
        "report_url": "https://aca-prod.accela.com/TPCHD/GET_INSP_DOCHandler.ashx?AltId=PR0038671&InspId=669414",
        "source": "TPCHD Accela",
        "total_points": 47,
        "zip": "98335"
      },
      "type": "Feature"
    },
    {
      "geometry": {
        "coordinates": [
          -122.4403333,
          47.2504061
        ],
        "type": "Point"
      },
      "properties": {
        "address": "1320 Broadway Plaza Tacoma WA 98402 United States",
        "business_name": "HOTEL MURANO",
        "city": "Tacoma",
        "current_grade": "Okay",
        "current_last_inspection_date": "05/13/2026",
        "current_rating_category": "rating_okay",
        "current_rating_color": "#d88c1f",
        "current_rating_label": "Okay",
        "current_rating_letter": "O",
        "current_score": "65",
        "current_status_timing": "same_day",
        "current_status_timing_label": "Current TPCHD status is from the same date as this inspection: May 13, 2026.",
        "date": "2026-05-13",
        "facility_detail_url": "https://aca-prod.accela.com/TPCHD/GeneralProperty/FoodFacilityInspectionDetail.aspx?LicenseeNumber=PR0000307&LicenseeType=Food+Facility",
        "facility_id": "PR0000307",
        "follow_up_inspection_date": "",
        "follow_up_inspection_date_iso": "",
        "follow_up_inspection_result": "",
        "follow_up_inspection_type": "",
        "follow_up_label": "No later follow-up or reinspection observed in the scraped inspection history.",
        "follow_up_red_points": "",
        "follow_up_status": "not_observed",
        "geocode_status": "row",
        "inspection_date": "05/13/2026",
        "inspection_date_iso": "2026-05-13",
        "inspection_identity": "PR0000307|495962",
        "inspection_result": "A Reinspection is Required",
        "inspection_type": "Routine Inspection",
        "inspection_year": "2026",
        "record_id": "tpchd-c3e420fb1aed",
        "red_point_severity": "red_points_51_75",
        "red_point_severity_label": "51-75 red points",
        "red_points": 65,
        "repeat_red_points": 35,
        "report_fetch_status": "ok",
        "report_url": "https://aca-prod.accela.com/TPCHD/GET_INSP_DOCHandler.ashx?AltId=PR0000307&InspId=495962",
        "source": "TPCHD Accela",
        "total_points": 65,
        "zip": "98402"
      },
      "type": "Feature"
    },
    {
      "geometry": {
        "coordinates": [
          -122.0548102,
          47.1573433
        ],
        "type": "Point"
      },
      "properties": {
        "address": "28120 State Route 410 E STE A4 Buckley WA 98321 United States",
        "business_name": "ISLAND VYBZ FOOD TRUCK - TPCHD #0292",
        "city": "Buckley",
        "current_grade": "Okay",
        "current_last_inspection_date": "05/12/2026",
        "current_rating_category": "rating_okay",
        "current_rating_color": "#d88c1f",
        "current_rating_label": "Okay",
        "current_rating_letter": "O",
        "current_score": "40",
        "current_status_timing": "same_day",
        "current_status_timing_label": "Current TPCHD status is from the same date as this inspection: May 12, 2026.",
        "date": "2026-05-12",
        "facility_detail_url": "https://aca-prod.accela.com/TPCHD/GeneralProperty/FoodFacilityInspectionDetail.aspx?LicenseeNumber=PR0039962&LicenseeType=Food+Facility",
        "facility_id": "PR0039962",
        "follow_up_inspection_date": "",
        "follow_up_inspection_date_iso": "",
        "follow_up_inspection_result": "",
        "follow_up_inspection_type": "",
        "follow_up_label": "No later follow-up or reinspection observed in the scraped inspection history.",
        "follow_up_red_points": "",
        "follow_up_status": "not_observed",
        "geocode_status": "row",
        "inspection_date": "05/12/2026",
        "inspection_date_iso": "2026-05-12",
        "inspection_identity": "PR0039962|682014",
        "inspection_result": "A Reinspection is Required & Compliance Order Issued",
        "inspection_type": "Routine Inspection",
        "inspection_year": "2026",
        "record_id": "tpchd-8ec83821a798",
        "red_point_severity": "red_points_36_50",
        "red_point_severity_label": "36-50 red points",
        "red_points": 40,
        "repeat_red_points": 35,
        "report_fetch_status": "ok",
        "report_url": "https://aca-prod.accela.com/TPCHD/GET_INSP_DOCHandler.ashx?AltId=PR0039962&InspId=682014",
        "source": "TPCHD Accela",
        "total_points": 40,
        "zip": "98321"
      },
      "type": "Feature"
    },
    {
      "geometry": {
        "coordinates": [
          -122.2934034,
          47.14409389999999
        ],
        "type": "Point"
      },
      "properties": {
        "address": "12314 Meridian AVE E Ste 4 & 5 Puyallup WA 98373",
        "business_name": "PHOTASTIC HAPPY LEMON - FE",
        "city": "Puyallup",
        "current_grade": "",
        "current_last_inspection_date": "05/22/2026",
        "current_rating_category": "rating_new_unknown",
        "current_rating_color": "#6b7280",
        "current_rating_label": "New or unavailable",
        "current_rating_letter": "?",
        "current_score": "0",
        "current_status_timing": "later",
        "current_status_timing_label": "Current TPCHD status is from a later inspection date: May 22, 2026.",
        "date": "2026-05-08",
        "facility_detail_url": "https://aca-prod.accela.com/TPCHD/GeneralProperty/FoodFacilityInspectionDetail.aspx?LicenseeNumber=FEP2026-00174&LicenseeType=Food+Facility",
        "facility_id": "FEP2026-00174",
        "follow_up_inspection_date": "",
        "follow_up_inspection_date_iso": "",
        "follow_up_inspection_result": "",
        "follow_up_inspection_type": "",
        "follow_up_label": "Later current TPCHD status observed on May 22, 2026, but the specific later inspection/report is not parsed into this map dataset.",
        "follow_up_red_points": "",
        "follow_up_status": "not_parsed",
        "geocode_status": "row",
        "inspection_date": "05/08/2026",
        "inspection_date_iso": "2026-05-08",
        "inspection_identity": "FEP2026-00174|805024",
        "inspection_result": "A Reinspection is Required",
        "inspection_type": "Routine Inspection",
        "inspection_year": "2026",
        "record_id": "tpchd-a7503f2397ab",
        "red_point_severity": "red_points_36_50",
        "red_point_severity_label": "36-50 red points",
        "red_points": 45,
        "repeat_red_points": 0,
        "report_fetch_status": "ok",
        "report_url": "https://aca-prod.accela.com/TPCHD/GET_INSP_DOCHandler.ashx?AltId=FEP2026-00174&InspId=805024",
        "source": "TPCHD Accela",
        "total_points": 45,
        "zip": "98373"
      },
      "type": "Feature"
    },
    {
      "geometry": {
        "coordinates": [
          -122.2453106,
          47.2360833
        ],
        "type": "Point"
      },
      "properties": {
        "address": "13701 24th ST E #A1 Sumner WA 98390 United States",
        "business_name": "BRANKS BBQ & CATERING - SIP PROGRAM",
        "city": "Sumner",
        "current_grade": "",
        "current_last_inspection_date": "05/21/2026",
        "current_rating_category": "rating_new_unknown",
        "current_rating_color": "#6b7280",
        "current_rating_label": "New or unavailable",
        "current_rating_letter": "?",
        "current_score": "0",
        "current_status_timing": "later",
        "current_status_timing_label": "Current TPCHD status is from a later inspection date: May 21, 2026.",
        "date": "2026-05-08",
        "facility_detail_url": "https://aca-prod.accela.com/TPCHD/GeneralProperty/FoodFacilityInspectionDetail.aspx?LicenseeNumber=PR0027433&LicenseeType=Food+Facility",
        "facility_id": "PR0027433",
        "follow_up_inspection_date": "",
        "follow_up_inspection_date_iso": "",
        "follow_up_inspection_result": "",
        "follow_up_inspection_type": "",
        "follow_up_label": "Later current TPCHD status observed on May 21, 2026, but the specific later inspection/report is not parsed into this map dataset.",
        "follow_up_red_points": "",
        "follow_up_status": "not_parsed",
        "geocode_status": "row",
        "inspection_date": "05/08/2026",
        "inspection_date_iso": "2026-05-08",
        "inspection_identity": "PR0027433|713294",
        "inspection_result": "A Reinspection is Required",
        "inspection_type": "Routine Inspection",
        "inspection_year": "2026",
        "record_id": "tpchd-a40ba7ee26c6",
        "red_point_severity": "red_points_36_50",
        "red_point_severity_label": "36-50 red points",
        "red_points": 45,
        "repeat_red_points": 0,
        "report_fetch_status": "ok",
        "report_url": "https://aca-prod.accela.com/TPCHD/GET_INSP_DOCHandler.ashx?AltId=PR0027433&InspId=713294",
        "source": "TPCHD Accela",
        "total_points": 45,
        "zip": "98390"
      },
      "type": "Feature"
    },
    {
      "geometry": {
        "coordinates": [
          -122.481023,
          47.255613
        ],
        "type": "Point"
      },
      "properties": {
        "address": "3401 6th AVE #F&G Tacoma WA 98406 United States",
        "business_name": "SILK THAI CAFE",
        "city": "Tacoma",
        "current_grade": "",
        "current_last_inspection_date": "05/21/2026",
        "current_rating_category": "rating_new_unknown",
        "current_rating_color": "#6b7280",
        "current_rating_label": "New or unavailable",
        "current_rating_letter": "?",
        "current_score": "0",
        "current_status_timing": "later",
        "current_status_timing_label": "Current TPCHD status is from a later inspection date: May 21, 2026.",
        "date": "2026-05-07",
        "facility_detail_url": "https://aca-prod.accela.com/TPCHD/GeneralProperty/FoodFacilityInspectionDetail.aspx?LicenseeNumber=PR0022641&LicenseeType=Food+Facility",
        "facility_id": "PR0022641",
        "follow_up_inspection_date": "",
        "follow_up_inspection_date_iso": "",
        "follow_up_inspection_result": "",
        "follow_up_inspection_type": "",
        "follow_up_label": "Later current TPCHD status observed on May 21, 2026, but the specific later inspection/report is not parsed into this map dataset.",
        "follow_up_red_points": "",
        "follow_up_status": "not_parsed",
        "geocode_status": "row",
        "inspection_date": "05/07/2026",
        "inspection_date_iso": "2026-05-07",
        "inspection_identity": "PR0022641|223697",
        "inspection_result": "A Reinspection is Required & Compliance Order Issued",
        "inspection_type": "Routine Inspection",
        "inspection_year": "2026",
        "record_id": "tpchd-c4362dc4794c",
        "red_point_severity": "red_points_36_50",
        "red_point_severity_label": "36-50 red points",
        "red_points": 45,
        "repeat_red_points": 10,
        "report_fetch_status": "ok",
        "report_url": "https://aca-prod.accela.com/TPCHD/GET_INSP_DOCHandler.ashx?AltId=PR0022641&InspId=223697",
        "source": "TPCHD Accela",
        "total_points": 45,
        "zip": "98406"
      },
      "type": "Feature"
    },
    {
      "geometry": {
        "coordinates": [
          -122.4110072,
          47.1914375
        ],
        "type": "Point"
      },
      "properties": {
        "address": "1232 E 72ND ST Tacoma WA 98404 United States",
        "business_name": "JANITZIO MARKET - DELI",
        "city": "Tacoma",
        "current_grade": "",
        "current_last_inspection_date": "05/20/2026",
        "current_rating_category": "rating_new_unknown",
        "current_rating_color": "#6b7280",
        "current_rating_label": "New or unavailable",
        "current_rating_letter": "?",
        "current_score": "0",
        "current_status_timing": "later",
        "current_status_timing_label": "Current TPCHD status is from a later inspection date: May 20, 2026.",
        "date": "2026-05-06",
        "facility_detail_url": "https://aca-prod.accela.com/TPCHD/GeneralProperty/FoodFacilityInspectionDetail.aspx?LicenseeNumber=PR0040512&LicenseeType=Food+Facility",
        "facility_id": "PR0040512",
        "follow_up_inspection_date": "",
        "follow_up_inspection_date_iso": "",
        "follow_up_inspection_result": "",
        "follow_up_inspection_type": "",
        "follow_up_label": "Later current TPCHD status observed on May 20, 2026, but the specific later inspection/report is not parsed into this map dataset.",
        "follow_up_red_points": "",
        "follow_up_status": "not_parsed",
        "geocode_status": "row",
        "inspection_date": "05/06/2026",
        "inspection_date_iso": "2026-05-06",
        "inspection_identity": "PR0040512|668139",
        "inspection_result": "A Reinspection is Required",
        "inspection_type": "Routine Inspection",
        "inspection_year": "2026",
        "record_id": "tpchd-1a36349cc952",
        "red_point_severity": "red_points_36_50",
        "red_point_severity_label": "36-50 red points",
        "red_points": 45,
        "repeat_red_points": 0,
        "report_fetch_status": "ok",
        "report_url": "https://aca-prod.accela.com/TPCHD/GET_INSP_DOCHandler.ashx?AltId=PR0040512&InspId=668139",
        "source": "TPCHD Accela",
        "total_points": 45,
        "zip": "98404"
      },
      "type": "Feature"
    },
    {
      "geometry": {
        "coordinates": [
          -122.0272996,
          47.1631633
        ],
        "type": "Point"
      },
      "properties": {
        "address": "790 MAIN ST Buckley WA 98321",
        "business_name": "BARREL DOGS",
        "city": "Buckley",
        "current_grade": "",
        "current_last_inspection_date": "05/15/2026",
        "current_rating_category": "rating_new_unknown",
        "current_rating_color": "#6b7280",
        "current_rating_label": "New or unavailable",
        "current_rating_letter": "?",
        "current_score": "0",
        "current_status_timing": "later",
        "current_status_timing_label": "Current TPCHD status is from a later inspection date: May 15, 2026.",
        "date": "2026-05-01",
        "facility_detail_url": "https://aca-prod.accela.com/TPCHD/GeneralProperty/FoodFacilityInspectionDetail.aspx?LicenseeNumber=FEP2026-00104&LicenseeType=Food+Facility",
        "facility_id": "FEP2026-00104",
        "follow_up_inspection_date": "",
        "follow_up_inspection_date_iso": "",
        "follow_up_inspection_result": "",
        "follow_up_inspection_type": "",
        "follow_up_label": "Later current TPCHD status observed on May 15, 2026, but the specific later inspection/report is not parsed into this map dataset.",
        "follow_up_red_points": "",
        "follow_up_status": "not_parsed",
        "geocode_status": "row",
        "inspection_date": "05/01/2026",
        "inspection_date_iso": "2026-05-01",
        "inspection_identity": "FEP2026-00104|764460",
        "inspection_result": "A Reinspection is Required & Compliance Order Issued",
        "inspection_type": "Routine Inspection",
        "inspection_year": "2026",
        "record_id": "tpchd-e539317f6d49",
        "red_point_severity": "red_points_76_100",
        "red_point_severity_label": "76-100 red points",
        "red_points": 85,
        "repeat_red_points": 0,
        "report_fetch_status": "ok",
        "report_url": "https://aca-prod.accela.com/TPCHD/GET_INSP_DOCHandler.ashx?AltId=FEP2026-00104&InspId=764460",
        "source": "TPCHD Accela",
        "total_points": 85,
        "zip": "98321"
      },
      "type": "Feature"
    },
    {
      "geometry": {
        "coordinates": [
          -122.4492028,
          47.24328999999999
        ],
        "type": "Point"
      },
      "properties": {
        "address": "1901 Martin Luther King JR WAY STE B Tacoma WA 98405 United States",
        "business_name": "MIMI TERIYAKI & SUSHI BURRITO",
        "city": "Tacoma",
        "current_grade": "",
        "current_last_inspection_date": "05/14/2026",
        "current_rating_category": "rating_new_unknown",
        "current_rating_color": "#6b7280",
        "current_rating_label": "New or unavailable",
        "current_rating_letter": "?",
        "current_score": "0",
        "current_status_timing": "later",
        "current_status_timing_label": "Current TPCHD status is from a later inspection date: May 14, 2026.",
        "date": "2026-04-15",
        "facility_detail_url": "https://aca-prod.accela.com/TPCHD/GeneralProperty/FoodFacilityInspectionDetail.aspx?LicenseeNumber=PR0039323&LicenseeType=Food+Facility",
        "facility_id": "PR0039323",
        "follow_up_inspection_date": "",
        "follow_up_inspection_date_iso": "",
        "follow_up_inspection_result": "",
        "follow_up_inspection_type": "",
        "follow_up_label": "Later current TPCHD status observed on May 14, 2026, but the specific later inspection/report is not parsed into this map dataset.",
        "follow_up_red_points": "",
        "follow_up_status": "not_parsed",
        "geocode_status": "row",
        "inspection_date": "04/15/2026",
        "inspection_date_iso": "2026-04-15",
        "inspection_identity": "PR0039323|480646",
        "inspection_result": "A Reinspection is Required",
        "inspection_type": "Routine Inspection",
        "inspection_year": "2026",
        "record_id": "tpchd-a4c54c6d96b6",
        "red_point_severity": "red_points_36_50",
        "red_point_severity_label": "36-50 red points",
        "red_points": 50,
        "repeat_red_points": 10,
        "report_fetch_status": "ok",
        "report_url": "https://aca-prod.accela.com/TPCHD/GET_INSP_DOCHandler.ashx?AltId=PR0039323&InspId=480646",
        "source": "TPCHD Accela",
        "total_points": 50,
        "zip": "98405"
      },
      "type": "Feature"
    },
    {
      "geometry": {
        "coordinates": [
          -122.4502844,
          47.24336530000001
        ],
        "type": "Point"
      },
      "properties": {
        "address": "1902 MLK JR WAY Tacoma WA 98405 United States",
        "business_name": "EZELLS FAMOUS CHICKEN",
        "city": "Tacoma",
        "current_grade": "",
        "current_last_inspection_date": "05/14/2026",
        "current_rating_category": "rating_new_unknown",
        "current_rating_color": "#6b7280",
        "current_rating_label": "New or unavailable",
        "current_rating_letter": "?",
        "current_score": "0",
        "current_status_timing": "later",
        "current_status_timing_label": "Current TPCHD status is from a later inspection date: May 14, 2026.",
        "date": "2026-04-14",
        "facility_detail_url": "https://aca-prod.accela.com/TPCHD/GeneralProperty/FoodFacilityInspectionDetail.aspx?LicenseeNumber=PR0031849&LicenseeType=Food+Facility",
        "facility_id": "PR0031849",
        "follow_up_inspection_date": "",
        "follow_up_inspection_date_iso": "",
        "follow_up_inspection_result": "",
        "follow_up_inspection_type": "",
        "follow_up_label": "Later current TPCHD status observed on May 14, 2026, but the specific later inspection/report is not parsed into this map dataset.",
        "follow_up_red_points": "",
        "follow_up_status": "not_parsed",
        "geocode_status": "row",
        "inspection_date": "04/14/2026",
        "inspection_date_iso": "2026-04-14",
        "inspection_identity": "PR0031849|222075",
        "inspection_result": "A Reinspection is Required",
        "inspection_type": "Routine Inspection",
        "inspection_year": "2026",
        "record_id": "tpchd-53e8a35850ed",
        "red_point_severity": "red_points_76_100",
        "red_point_severity_label": "76-100 red points",
        "red_points": 85,
        "repeat_red_points": 50,
        "report_fetch_status": "ok",
        "report_url": "https://aca-prod.accela.com/TPCHD/GET_INSP_DOCHandler.ashx?AltId=PR0031849&InspId=222075",
        "source": "TPCHD Accela",
        "total_points": 85,
        "zip": "98405"
      },
      "type": "Feature"
    },
    {
      "geometry": {
        "coordinates": [
          -122.5021869,
          47.28932959999999
        ],
        "type": "Point"
      },
      "properties": {
        "address": "4818 N 45th St Tacoma WA 98407 United States",
        "business_name": "DELIGHTFUL NEIGHBORHOOD MARKET",
        "city": "Tacoma",
        "current_grade": "",
        "current_last_inspection_date": "04/17/2026",
        "current_rating_category": "rating_new_unknown",
        "current_rating_color": "#6b7280",
        "current_rating_label": "New or unavailable",
        "current_rating_letter": "?",
        "current_score": "0",
        "current_status_timing": "later",
        "current_status_timing_label": "Current TPCHD status is from a later inspection date: April 17, 2026.",
        "date": "2026-04-03",
        "facility_detail_url": "https://aca-prod.accela.com/TPCHD/GeneralProperty/FoodFacilityInspectionDetail.aspx?LicenseeNumber=PR0038994&LicenseeType=Food+Facility",
        "facility_id": "PR0038994",
        "follow_up_inspection_date": "",
        "follow_up_inspection_date_iso": "",
        "follow_up_inspection_result": "",
        "follow_up_inspection_type": "",
        "follow_up_label": "Later current TPCHD status observed on April 17, 2026, but the specific later inspection/report is not parsed into this map dataset.",
        "follow_up_red_points": "",
        "follow_up_status": "not_parsed",
        "geocode_status": "row",
        "inspection_date": "04/03/2026",
        "inspection_date_iso": "2026-04-03",
        "inspection_identity": "PR0038994|660496",
        "inspection_result": "A Reinspection is Required & Compliance Order Issued",
        "inspection_type": "Routine Inspection",
        "inspection_year": "2026",
        "record_id": "tpchd-a822d17e67b7",
        "red_point_severity": "red_points_36_50",
        "red_point_severity_label": "36-50 red points",
        "red_points": 50,
        "repeat_red_points": 15,
        "report_fetch_status": "ok",
        "report_url": "https://aca-prod.accela.com/TPCHD/GET_INSP_DOCHandler.ashx?AltId=PR0038994&InspId=660496",
        "source": "TPCHD Accela",
        "total_points": 50,
        "zip": "98407"
      },
      "type": "Feature"
    },
    {
      "geometry": {
        "coordinates": [
          -122.5154746,
          47.2986288
        ],
        "type": "Point"
      },
      "properties": {
        "address": "5105 N Pearl ST Tacoma WA 98407 United States",
        "business_name": "WELCOME RESTAURANT",
        "city": "Tacoma",
        "current_grade": "",
        "current_last_inspection_date": "05/04/2026",
        "current_rating_category": "rating_new_unknown",
        "current_rating_color": "#6b7280",
        "current_rating_label": "New or unavailable",
        "current_rating_letter": "?",
        "current_score": "0",
        "current_status_timing": "later",
        "current_status_timing_label": "Current TPCHD status is from a later inspection date: May 4, 2026.",
        "date": "2026-03-26",
        "facility_detail_url": "https://aca-prod.accela.com/TPCHD/GeneralProperty/FoodFacilityInspectionDetail.aspx?LicenseeNumber=PR0040778&LicenseeType=Food+Facility",
        "facility_id": "PR0040778",
        "follow_up_inspection_date": "",
        "follow_up_inspection_date_iso": "",
        "follow_up_inspection_result": "",
        "follow_up_inspection_type": "",
        "follow_up_label": "Later current TPCHD status observed on May 4, 2026, but the specific later inspection/report is not parsed into this map dataset.",
        "follow_up_red_points": "",
        "follow_up_status": "not_parsed",
        "geocode_status": "row",
        "inspection_date": "03/26/2026",
        "inspection_date_iso": "2026-03-26",
        "inspection_identity": "PR0040778|772262",
        "inspection_result": "A Reinspection is Required & Compliance Order Issued",
        "inspection_type": "Routine Inspection",
        "inspection_year": "2026",
        "record_id": "tpchd-212177bbc7f1",
        "red_point_severity": "red_points_36_50",
        "red_point_severity_label": "36-50 red points",
        "red_points": 50,
        "repeat_red_points": 0,
        "report_fetch_status": "ok",
        "report_url": "https://aca-prod.accela.com/TPCHD/GET_INSP_DOCHandler.ashx?AltId=PR0040778&InspId=772262",
        "source": "TPCHD Accela",
        "total_points": 55,
        "zip": "98407"
      },
      "type": "Feature"
    },
    {
      "geometry": {
        "coordinates": [
          -122.2997164,
          47.1582032
        ],
        "type": "Point"
      },
      "properties": {
        "address": "3601 9th ST SW Puyallup WA 98373 United States",
        "business_name": "HOMEWOOD SUITES",
        "city": "Puyallup",
        "current_grade": "",
        "current_last_inspection_date": "03/23/2026",
        "current_rating_category": "rating_new_unknown",
        "current_rating_color": "#6b7280",
        "current_rating_label": "New or unavailable",
        "current_rating_letter": "?",
        "current_score": "0",
        "current_status_timing": "later",
        "current_status_timing_label": "Current TPCHD status is from a later inspection date: March 23, 2026.",
        "date": "2026-03-12",
        "facility_detail_url": "https://aca-prod.accela.com/TPCHD/GeneralProperty/FoodFacilityInspectionDetail.aspx?LicenseeNumber=PR0040433&LicenseeType=Food+Facility",
        "facility_id": "PR0040433",
        "follow_up_inspection_date": "",
        "follow_up_inspection_date_iso": "",
        "follow_up_inspection_result": "",
        "follow_up_inspection_type": "",
        "follow_up_label": "Later current TPCHD status observed on March 23, 2026, but the specific later inspection/report is not parsed into this map dataset.",
        "follow_up_red_points": "",
        "follow_up_status": "not_parsed",
        "geocode_status": "row",
        "inspection_date": "03/12/2026",
        "inspection_date_iso": "2026-03-12",
        "inspection_identity": "PR0040433|669094",
        "inspection_result": "A Reinspection is Required",
        "inspection_type": "Routine Inspection",
        "inspection_year": "2026",
        "record_id": "tpchd-ab93712fcdc5",
        "red_point_severity": "red_points_36_50",
        "red_point_severity_label": "36-50 red points",
        "red_points": 45,
        "repeat_red_points": 0,
        "report_fetch_status": "ok",
        "report_url": "https://aca-prod.accela.com/TPCHD/GET_INSP_DOCHandler.ashx?AltId=PR0040433&InspId=669094",
        "source": "TPCHD Accela",
        "total_points": 45,
        "zip": "98373"
      },
      "type": "Feature"
    },
    {
      "geometry": {
        "coordinates": [
          -122.4444624,
          47.22283669999999
        ],
        "type": "Point"
      },
      "properties": {
        "address": "820 S 38th ST Tacoma WA 98418 United States",
        "business_name": "BURRITOS CALIFORNIA",
        "city": "Tacoma",
        "current_grade": "",
        "current_last_inspection_date": "03/19/2026",
        "current_rating_category": "rating_new_unknown",
        "current_rating_color": "#6b7280",
        "current_rating_label": "New or unavailable",
        "current_rating_letter": "?",
        "current_score": "0",
        "current_status_timing": "later",
        "current_status_timing_label": "Current TPCHD status is from a later inspection date: March 19, 2026.",
        "date": "2026-03-10",
        "facility_detail_url": "https://aca-prod.accela.com/TPCHD/GeneralProperty/FoodFacilityInspectionDetail.aspx?LicenseeNumber=PR0040496&LicenseeType=Food+Facility",
        "facility_id": "PR0040496",
        "follow_up_inspection_date": "",
        "follow_up_inspection_date_iso": "",
        "follow_up_inspection_result": "",
        "follow_up_inspection_type": "",
        "follow_up_label": "Later current TPCHD status observed on March 19, 2026, but the specific later inspection/report is not parsed into this map dataset.",
        "follow_up_red_points": "",
        "follow_up_status": "not_parsed",
        "geocode_status": "row",
        "inspection_date": "03/10/2026",
        "inspection_date_iso": "2026-03-10",
        "inspection_identity": "PR0040496|709696",
        "inspection_result": "A Reinspection is Required",
        "inspection_type": "Routine Inspection",
        "inspection_year": "2026",
        "record_id": "tpchd-21f3c44b962a",
        "red_point_severity": "red_points_36_50",
        "red_point_severity_label": "36-50 red points",
        "red_points": 50,
        "repeat_red_points": 0,
        "report_fetch_status": "ok",
        "report_url": "https://aca-prod.accela.com/TPCHD/GET_INSP_DOCHandler.ashx?AltId=PR0040496&InspId=709696",
        "source": "TPCHD Accela",
        "total_points": 50,
        "zip": "98418"
      },
      "type": "Feature"
    },
    {
      "geometry": {
        "coordinates": [
          -122.5874741,
          47.32077719999999
        ],
        "type": "Point"
      },
      "properties": {
        "address": "6820 Kimball Dr A-1 Gig Harbor WA 98335 United States",
        "business_name": "KINZA TERIYAKI",
        "city": "Gig Harbor",
        "current_grade": "",
        "current_last_inspection_date": "03/16/2026",
        "current_rating_category": "rating_new_unknown",
        "current_rating_color": "#6b7280",
        "current_rating_label": "New or unavailable",
        "current_rating_letter": "?",
        "current_score": "0",
        "current_status_timing": "later",
        "current_status_timing_label": "Current TPCHD status is from a later inspection date: March 16, 2026.",
        "date": "2026-03-09",
        "facility_detail_url": "https://aca-prod.accela.com/TPCHD/GeneralProperty/FoodFacilityInspectionDetail.aspx?LicenseeNumber=PR0039437&LicenseeType=Food+Facility",
        "facility_id": "PR0039437",
        "follow_up_inspection_date": "",
        "follow_up_inspection_date_iso": "",
        "follow_up_inspection_result": "",
        "follow_up_inspection_type": "",
        "follow_up_label": "Later current TPCHD status observed on March 16, 2026, but the specific later inspection/report is not parsed into this map dataset.",
        "follow_up_red_points": "",
        "follow_up_status": "not_parsed",
        "geocode_status": "row",
        "inspection_date": "03/09/2026",
        "inspection_date_iso": "2026-03-09",
        "inspection_identity": "PR0039437|331615",
        "inspection_result": "A Reinspection is Required",
        "inspection_type": "Routine Inspection",
        "inspection_year": "2026",
        "record_id": "tpchd-76b288c175c0",
        "red_point_severity": "red_points_36_50",
        "red_point_severity_label": "36-50 red points",
        "red_points": 45,
        "repeat_red_points": 0,
        "report_fetch_status": "ok",
        "report_url": "https://aca-prod.accela.com/TPCHD/GET_INSP_DOCHandler.ashx?AltId=PR0039437&InspId=331615",
        "source": "TPCHD Accela",
        "total_points": 51,
        "zip": "98335"
      },
      "type": "Feature"
    },
    {
      "geometry": {
        "coordinates": [
          -122.4336044,
          47.1611096
        ],
        "type": "Point"
      },
      "properties": {
        "address": "10435 Pacific AVE S #A-2 Tacoma WA 98444 United States",
        "business_name": "KAMEI SUSHI RESTAURANT",
        "city": "Tacoma",
        "current_grade": "",
        "current_last_inspection_date": "03/26/2026",
        "current_rating_category": "rating_new_unknown",
        "current_rating_color": "#6b7280",
        "current_rating_label": "New or unavailable",
        "current_rating_letter": "?",
        "current_score": "0",
        "current_status_timing": "later",
        "current_status_timing_label": "Current TPCHD status is from a later inspection date: March 26, 2026.",
        "date": "2026-02-26",
        "facility_detail_url": "https://aca-prod.accela.com/TPCHD/GeneralProperty/FoodFacilityInspectionDetail.aspx?LicenseeNumber=PR0039491&LicenseeType=Food+Facility",
        "facility_id": "PR0039491",
        "follow_up_inspection_date": "",
        "follow_up_inspection_date_iso": "",
        "follow_up_inspection_result": "",
        "follow_up_inspection_type": "",
        "follow_up_label": "Later current TPCHD status observed on March 26, 2026, but the specific later inspection/report is not parsed into this map dataset.",
        "follow_up_red_points": "",
        "follow_up_status": "not_parsed",
        "geocode_status": "row",
        "inspection_date": "02/26/2026",
        "inspection_date_iso": "2026-02-26",
        "inspection_identity": "PR0039491|298136",
        "inspection_result": "A Reinspection is Required",
        "inspection_type": "Routine Inspection",
        "inspection_year": "2026",
        "record_id": "tpchd-d118df5b1758",
        "red_point_severity": "red_points_36_50",
        "red_point_severity_label": "36-50 red points",
        "red_points": 40,
        "repeat_red_points": 5,
        "report_fetch_status": "ok",
        "report_url": "https://aca-prod.accela.com/TPCHD/GET_INSP_DOCHandler.ashx?AltId=PR0039491&InspId=298136",
        "source": "TPCHD Accela",
        "total_points": 40,
        "zip": "98444"
      },
      "type": "Feature"
    },
    {
      "geometry": {
        "coordinates": [
          -122.611856,
          47.5347885
        ],
        "type": "Point"
      },
      "properties": {
        "address": "1472 Olney AVE SE Port Orchard WA 98366 United States",
        "business_name": "TAQUERIA EL GUERO - TPCHD #0264",
        "city": "Port Orchard",
        "current_grade": "",
        "current_last_inspection_date": "03/05/2026",
        "current_rating_category": "rating_new_unknown",
        "current_rating_color": "#6b7280",
        "current_rating_label": "New or unavailable",
        "current_rating_letter": "?",
        "current_score": "0",
        "current_status_timing": "later",
        "current_status_timing_label": "Current TPCHD status is from a later inspection date: March 5, 2026.",
        "date": "2026-02-19",
        "facility_detail_url": "https://aca-prod.accela.com/TPCHD/GeneralProperty/FoodFacilityInspectionDetail.aspx?LicenseeNumber=PR0040302&LicenseeType=Food+Facility",
        "facility_id": "PR0040302",
        "follow_up_inspection_date": "",
        "follow_up_inspection_date_iso": "",
        "follow_up_inspection_result": "",
        "follow_up_inspection_type": "",
        "follow_up_label": "Later current TPCHD status observed on March 5, 2026, but the specific later inspection/report is not parsed into this map dataset.",
        "follow_up_red_points": "",
        "follow_up_status": "not_parsed",
        "geocode_status": "row",
        "inspection_date": "02/19/2026",
        "inspection_date_iso": "2026-02-19",
        "inspection_identity": "PR0040302|419575",
        "inspection_result": "A Reinspection is Required",
        "inspection_type": "Routine Inspection",
        "inspection_year": "2026",
        "record_id": "tpchd-92439ca24b52",
        "red_point_severity": "red_points_36_50",
        "red_point_severity_label": "36-50 red points",
        "red_points": 50,
        "repeat_red_points": 0,
        "report_fetch_status": "ok",
        "report_url": "https://aca-prod.accela.com/TPCHD/GET_INSP_DOCHandler.ashx?AltId=PR0040302&InspId=419575",
        "source": "TPCHD Accela",
        "total_points": 50,
        "zip": "98366"
      },
      "type": "Feature"
    },
    {
      "geometry": {
        "coordinates": [
          -122.4344029,
          47.12274679999999
        ],
        "type": "Point"
      },
      "properties": {
        "address": "14803 Pacific AVE S Tacoma WA 98444 United States",
        "business_name": "POPEYES #12090",
        "city": "Tacoma",
        "current_grade": "",
        "current_last_inspection_date": "03/05/2026",
        "current_rating_category": "rating_new_unknown",
        "current_rating_color": "#6b7280",
        "current_rating_label": "New or unavailable",
        "current_rating_letter": "?",
        "current_score": "25",
        "current_status_timing": "later",
        "current_status_timing_label": "Current TPCHD status is from a later inspection date: March 5, 2026.",
        "date": "2026-02-19",
        "facility_detail_url": "https://aca-prod.accela.com/TPCHD/GeneralProperty/FoodFacilityInspectionDetail.aspx?LicenseeNumber=PR0036969&LicenseeType=Food+Facility",
        "facility_id": "PR0036969",
        "follow_up_inspection_date": "",
        "follow_up_inspection_date_iso": "",
        "follow_up_inspection_result": "",
        "follow_up_inspection_type": "",
        "follow_up_label": "Later current TPCHD status observed on March 5, 2026, but the specific later inspection/report is not parsed into this map dataset.",
        "follow_up_red_points": "",
        "follow_up_status": "not_parsed",
        "geocode_status": "row",
        "inspection_date": "02/19/2026",
        "inspection_date_iso": "2026-02-19",
        "inspection_identity": "PR0036969|380190",
        "inspection_result": "A Reinspection is Required",
        "inspection_type": "Routine Inspection",
        "inspection_year": "2026",
        "record_id": "tpchd-9826cc2cb3b8",
        "red_point_severity": "red_points_36_50",
        "red_point_severity_label": "36-50 red points",
        "red_points": 50,
        "repeat_red_points": 0,
        "report_fetch_status": "ok",
        "report_url": "https://aca-prod.accela.com/TPCHD/GET_INSP_DOCHandler.ashx?AltId=PR0036969&InspId=380190",
        "source": "TPCHD Accela",
        "total_points": 50,
        "zip": "98444"
      },
      "type": "Feature"
    },
    {
      "geometry": {
        "coordinates": [
          -122.5756561,
          47.3074415
        ],
        "type": "Point"
      },
      "properties": {
        "address": "5500 Olympic DR A109 Gig Harbor WA 98335 United States",
        "business_name": "WOK ON FIRE BBQ",
        "city": "Gig Harbor",
        "current_grade": "",
        "current_last_inspection_date": "02/26/2026",
        "current_rating_category": "rating_new_unknown",
        "current_rating_color": "#6b7280",
        "current_rating_label": "New or unavailable",
        "current_rating_letter": "?",
        "current_score": "0",
        "current_status_timing": "later",
        "current_status_timing_label": "Current TPCHD status is from a later inspection date: February 26, 2026.",
        "date": "2026-02-18",
        "facility_detail_url": "https://aca-prod.accela.com/TPCHD/GeneralProperty/FoodFacilityInspectionDetail.aspx?LicenseeNumber=PR0040728&LicenseeType=Food+Facility",
        "facility_id": "PR0040728",
        "follow_up_inspection_date": "",
        "follow_up_inspection_date_iso": "",
        "follow_up_inspection_result": "",
        "follow_up_inspection_type": "",
        "follow_up_label": "Later current TPCHD status observed on February 26, 2026, but the specific later inspection/report is not parsed into this map dataset.",
        "follow_up_red_points": "",
        "follow_up_status": "not_parsed",
        "geocode_status": "row",
        "inspection_date": "02/18/2026",
        "inspection_date_iso": "2026-02-18",
        "inspection_identity": "PR0040728|754374",
        "inspection_result": "A Reinspection is Required",
        "inspection_type": "Reinspection With Charge",
        "inspection_year": "2026",
        "record_id": "tpchd-c116be7c6ae2",
        "red_point_severity": "red_points_51_75",
        "red_point_severity_label": "51-75 red points",
        "red_points": 65,
        "repeat_red_points": 0,
        "report_fetch_status": "ok",
        "report_url": "https://aca-prod.accela.com/TPCHD/GET_INSP_DOCHandler.ashx?AltId=PR0040728&InspId=754374",
        "source": "TPCHD Accela",
        "total_points": 65,
        "zip": "98335"
      },
      "type": "Feature"
    },
    {
      "geometry": {
        "coordinates": [
          -122.5756561,
          47.3074415
        ],
        "type": "Point"
      },
      "properties": {
        "address": "5500 Olympic DR A109 Gig Harbor WA 98335 United States",
        "business_name": "WOK ON FIRE BBQ",
        "city": "Gig Harbor",
        "current_grade": "",
        "current_last_inspection_date": "02/26/2026",
        "current_rating_category": "rating_new_unknown",
        "current_rating_color": "#6b7280",
        "current_rating_label": "New or unavailable",
        "current_rating_letter": "?",
        "current_score": "0",
        "current_status_timing": "later",
        "current_status_timing_label": "Current TPCHD status is from a later inspection date: February 26, 2026.",
        "date": "2026-02-12",
        "facility_detail_url": "https://aca-prod.accela.com/TPCHD/GeneralProperty/FoodFacilityInspectionDetail.aspx?LicenseeNumber=PR0040728&LicenseeType=Food+Facility",
        "facility_id": "PR0040728",
        "follow_up_inspection_date": "02/18/2026",
        "follow_up_inspection_date_iso": "2026-02-18",
        "follow_up_inspection_result": "A Reinspection is Required",
        "follow_up_inspection_type": "Reinspection With Charge",
        "follow_up_label": "Later follow-up/reinspection observed on February 18, 2026 with 65 red points.",
        "follow_up_red_points": 65,
        "follow_up_status": "observed",
        "geocode_status": "row",
        "inspection_date": "02/12/2026",
        "inspection_date_iso": "2026-02-12",
        "inspection_identity": "PR0040728|496341",
        "inspection_result": "A Reinspection is Required",
        "inspection_type": "Routine Inspection",
        "inspection_year": "2026",
        "record_id": "tpchd-42bf85909c3c",
        "red_point_severity": "red_points_101_plus",
        "red_point_severity_label": "101+ red points",
        "red_points": 125,
        "repeat_red_points": 0,
        "report_fetch_status": "ok",
        "report_url": "https://aca-prod.accela.com/TPCHD/GET_INSP_DOCHandler.ashx?AltId=PR0040728&InspId=496341",
        "source": "TPCHD Accela",
        "total_points": 125,
        "zip": "98335"
      },
      "type": "Feature"
    },
    {
      "geometry": {
        "coordinates": [
          -122.4392532,
          47.2570953
        ],
        "type": "Point"
      },
      "properties": {
        "address": "705 Pacific Ave Tacoma WA 98402",
        "business_name": "EN SUSHI",
        "city": "Tacoma",
        "current_grade": "",
        "current_last_inspection_date": "02/11/2026",
        "current_rating_category": "rating_new_unknown",
        "current_rating_color": "#6b7280",
        "current_rating_label": "New or unavailable",
        "current_rating_letter": "?",
        "current_score": "0",
        "current_status_timing": "later",
        "current_status_timing_label": "Current TPCHD status is from a later inspection date: February 11, 2026.",
        "date": "2026-01-28",
        "facility_detail_url": "https://aca-prod.accela.com/TPCHD/GeneralProperty/FoodFacilityInspectionDetail.aspx?LicenseeNumber=FEP2026-00015&LicenseeType=Food+Facility",
        "facility_id": "FEP2026-00015",
        "follow_up_inspection_date": "",
        "follow_up_inspection_date_iso": "",
        "follow_up_inspection_result": "",
        "follow_up_inspection_type": "",
        "follow_up_label": "Later current TPCHD status observed on February 11, 2026, but the specific later inspection/report is not parsed into this map dataset.",
        "follow_up_red_points": "",
        "follow_up_status": "not_parsed",
        "geocode_status": "row",
        "inspection_date": "01/28/2026",
        "inspection_date_iso": "2026-01-28",
        "inspection_identity": "FEP2026-00015|724541",
        "inspection_result": "A Reinspection is Required & Compliance Order Issued",
        "inspection_type": "Routine Inspection",
        "inspection_year": "2026",
        "record_id": "tpchd-b2a8bb1fdcb4",
        "red_point_severity": "red_points_51_75",
        "red_point_severity_label": "51-75 red points",
        "red_points": 55,
        "repeat_red_points": 0,
        "report_fetch_status": "ok",
        "report_url": "https://aca-prod.accela.com/TPCHD/GET_INSP_DOCHandler.ashx?AltId=FEP2026-00015&InspId=724541",
        "source": "TPCHD Accela",
        "total_points": 58,
        "zip": "98402"
      },
      "type": "Feature"
    },
    {
      "geometry": {
        "coordinates": [
          -122.3589866,
          47.2420078
        ],
        "type": "Point"
      },
      "properties": {
        "address": "5306 Pacific HWY E Fife WA 98424",
        "business_name": "PHO TAI",
        "city": "Fife",
        "current_grade": "",
        "current_last_inspection_date": "02/12/2026",
        "current_rating_category": "rating_new_unknown",
        "current_rating_color": "#6b7280",
        "current_rating_label": "New or unavailable",
        "current_rating_letter": "?",
        "current_score": "0",
        "current_status_timing": "later",
        "current_status_timing_label": "Current TPCHD status is from a later inspection date: February 12, 2026.",
        "date": "2026-01-27",
        "facility_detail_url": "https://aca-prod.accela.com/TPCHD/GeneralProperty/FoodFacilityInspectionDetail.aspx?LicenseeNumber=FEP2025-00090&LicenseeType=Food+Facility",
        "facility_id": "FEP2025-00090",
        "follow_up_inspection_date": "",
        "follow_up_inspection_date_iso": "",
        "follow_up_inspection_result": "",
        "follow_up_inspection_type": "",
        "follow_up_label": "Later current TPCHD status observed on February 12, 2026, but the specific later inspection/report is not parsed into this map dataset.",
        "follow_up_red_points": "",
        "follow_up_status": "not_parsed",
        "geocode_status": "row",
        "inspection_date": "01/27/2026",
        "inspection_date_iso": "2026-01-27",
        "inspection_identity": "FEP2025-00090|716494",
        "inspection_result": "A Reinspection is Required",
        "inspection_type": "Routine Inspection",
        "inspection_year": "2026",
        "record_id": "tpchd-b2a42ad27e44",
        "red_point_severity": "red_points_51_75",
        "red_point_severity_label": "51-75 red points",
        "red_points": 55,
        "repeat_red_points": 0,
        "report_fetch_status": "ok",
        "report_url": "https://aca-prod.accela.com/TPCHD/GET_INSP_DOCHandler.ashx?AltId=FEP2025-00090&InspId=716494",
        "source": "TPCHD Accela",
        "total_points": 55,
        "zip": "98424"
      },
      "type": "Feature"
    },
    {
      "geometry": {
        "coordinates": [
          -122.5133821,
          47.1664687
        ],
        "type": "Point"
      },
      "properties": {
        "address": "5700 100TH ST SW STE 500 Lakewood WA 98499 United States",
        "business_name": "KOTO TERIYAKI",
        "city": "Lakewood",
        "current_grade": "Okay",
        "current_last_inspection_date": "04/20/2026",
        "current_rating_category": "rating_okay",
        "current_rating_color": "#d88c1f",
        "current_rating_label": "Okay",
        "current_rating_letter": "O",
        "current_score": "25",
        "current_status_timing": "later",
        "current_status_timing_label": "Current TPCHD status is from a later inspection date: April 20, 2026.",
        "date": "2026-01-21",
        "facility_detail_url": "https://aca-prod.accela.com/TPCHD/GeneralProperty/FoodFacilityInspectionDetail.aspx?LicenseeNumber=PR0040695&LicenseeType=Food+Facility",
        "facility_id": "PR0040695",
        "follow_up_inspection_date": "",
        "follow_up_inspection_date_iso": "",
        "follow_up_inspection_result": "",
        "follow_up_inspection_type": "",
        "follow_up_label": "Later current TPCHD status observed on April 20, 2026, but the specific later inspection/report is not parsed into this map dataset.",
        "follow_up_red_points": "",
        "follow_up_status": "not_parsed",
        "geocode_status": "row",
        "inspection_date": "01/21/2026",
        "inspection_date_iso": "2026-01-21",
        "inspection_identity": "PR0040695|733256",
        "inspection_result": "A Reinspection is Required",
        "inspection_type": "Reinspection With Charge",
        "inspection_year": "2026",
        "record_id": "tpchd-329cd665a2fc",
        "red_point_severity": "red_points_51_75",
        "red_point_severity_label": "51-75 red points",
        "red_points": 60,
        "repeat_red_points": 0,
        "report_fetch_status": "ok",
        "report_url": "https://aca-prod.accela.com/TPCHD/GET_INSP_DOCHandler.ashx?AltId=PR0040695&InspId=733256",
        "source": "TPCHD Accela",
        "total_points": 60,
        "zip": "98499"
      },
      "type": "Feature"
    },
    {
      "geometry": {
        "coordinates": [
          -122.5268618,
          47.25521519999999
        ],
        "type": "Point"
      },
      "properties": {
        "address": "6702 6th AVE Tacoma Wa 98406 United States",
        "business_name": "CALIFORNIA BURRITO & TACO SHOP",
        "city": "Tacoma",
        "current_grade": "",
        "current_last_inspection_date": "02/11/2026",
        "current_rating_category": "rating_new_unknown",
        "current_rating_color": "#6b7280",
        "current_rating_label": "New or unavailable",
        "current_rating_letter": "?",
        "current_score": "0",
        "current_status_timing": "later",
        "current_status_timing_label": "Current TPCHD status is from a later inspection date: February 11, 2026.",
        "date": "2026-01-14",
        "facility_detail_url": "https://aca-prod.accela.com/TPCHD/GeneralProperty/FoodFacilityInspectionDetail.aspx?LicenseeNumber=PR0040840&LicenseeType=Food+Facility",
        "facility_id": "PR0040840",
        "follow_up_inspection_date": "",
        "follow_up_inspection_date_iso": "",
        "follow_up_inspection_result": "",
        "follow_up_inspection_type": "",
        "follow_up_label": "Later current TPCHD status observed on February 11, 2026, but the specific later inspection/report is not parsed into this map dataset.",
        "follow_up_red_points": "",
        "follow_up_status": "not_parsed",
        "geocode_status": "row",
        "inspection_date": "01/14/2026",
        "inspection_date_iso": "2026-01-14",
        "inspection_identity": "PR0040840|480400",
        "inspection_result": "A Reinspection is Required",
        "inspection_type": "Routine Inspection",
        "inspection_year": "2026",
        "record_id": "tpchd-07f63ce2a66f",
        "red_point_severity": "red_points_36_50",
        "red_point_severity_label": "36-50 red points",
        "red_points": 45,
        "repeat_red_points": 0,
        "report_fetch_status": "ok",
        "report_url": "https://aca-prod.accela.com/TPCHD/GET_INSP_DOCHandler.ashx?AltId=PR0040840&InspId=480400",
        "source": "TPCHD Accela",
        "total_points": 45,
        "zip": "98406"
      },
      "type": "Feature"
    },
    {
      "geometry": {
        "coordinates": [
          -122.5133821,
          47.1664687
        ],
        "type": "Point"
      },
      "properties": {
        "address": "5700 100TH ST SW STE 500 Lakewood WA 98499 United States",
        "business_name": "KOTO TERIYAKI",
        "city": "Lakewood",
        "current_grade": "Okay",
        "current_last_inspection_date": "04/20/2026",
        "current_rating_category": "rating_okay",
        "current_rating_color": "#d88c1f",
        "current_rating_label": "Okay",
        "current_rating_letter": "O",
        "current_score": "25",
        "current_status_timing": "later",
        "current_status_timing_label": "Current TPCHD status is from a later inspection date: April 20, 2026.",
        "date": "2026-01-07",
        "facility_detail_url": "https://aca-prod.accela.com/TPCHD/GeneralProperty/FoodFacilityInspectionDetail.aspx?LicenseeNumber=PR0040695&LicenseeType=Food+Facility",
        "facility_id": "PR0040695",
        "follow_up_inspection_date": "01/21/2026",
        "follow_up_inspection_date_iso": "2026-01-21",
        "follow_up_inspection_result": "A Reinspection is Required",
        "follow_up_inspection_type": "Reinspection With Charge",
        "follow_up_label": "Later follow-up/reinspection observed on January 21, 2026 with 60 red points.",
        "follow_up_red_points": 60,
        "follow_up_status": "observed",
        "geocode_status": "row",
        "inspection_date": "01/07/2026",
        "inspection_date_iso": "2026-01-07",
        "inspection_identity": "PR0040695|333040",
        "inspection_result": "A Reinspection is Required",
        "inspection_type": "Routine Inspection",
        "inspection_year": "2026",
        "record_id": "tpchd-f4bbe04e808c",
        "red_point_severity": "red_points_51_75",
        "red_point_severity_label": "51-75 red points",
        "red_points": 60,
        "repeat_red_points": 25,
        "report_fetch_status": "ok",
        "report_url": "https://aca-prod.accela.com/TPCHD/GET_INSP_DOCHandler.ashx?AltId=PR0040695&InspId=333040",
        "source": "TPCHD Accela",
        "total_points": 65,
        "zip": "98499"
      },
      "type": "Feature"
    }
  ],
  "metadata": {
    "available_years": [
      "2026"
    ],
    "coverage_note": "Rows below the threshold and unparsed reports are not drawn on this over-threshold map. Rows above the threshold without reviewed coordinates are counted as unmapped. Follow-up context is inferred from later scraper-observed inspection rows for the same facility and the current-status fields on the facility page.",
    "data_universe": "Scraper-observed TPCHD Accela food-facility inspection records with parsed PDF reports; this public map layer includes only records over the red-point threshold.",
    "data_version": "20260526164749Z",
    "features_total": 27,
    "freshness_note": "Generated from the latest TPCHD scraper/publication run.",
    "generated_at": "2026-05-26T16:47:49Z",
    "geometry_precision": "reviewed facility address geocode",
    "inspection_date_window_end": "2026-05-18",
    "inspection_date_window_label": "February 2, 2021-May 18, 2026",
    "inspection_date_window_start": "2021-02-02",
    "map_cannot_show": "This map does not show neighborhood-level health risk, all inspections below the threshold, or rows without reviewed coordinates.",
    "map_claim": "Shows geocoded public restaurant inspection records with more than 35 red points, with current TPCHD rating and later observed inspection context where available.",
    "map_type": "point_symbol",
    "privacy": {
      "excludes": [
        "Google Sheet IDs",
        "Gmail recipients",
        "raw PDF text",
        "raw scraper payloads",
        "internal notes",
        "local paths"
      ],
      "public_fields_only": true,
      "review": "Exact restaurant locations are public commercial facility addresses from public inspection records."
    },
    "project": "tpchd-restaurant-inspections",
    "records_above_threshold": 90,
    "records_excluded_by_threshold": 0,
    "records_excluded_unparsed": 0,
    "records_total": 90,
    "red_point_threshold": 35,
    "schema_version": 1,
    "scope": "year:2026",
    "source": "TPCHD Accela food-facility inspection reports",
    "source_note": "Tacoma-Pierce County Health Department Accela food-facility inspection pages and parsed inspection-report PDFs.",
    "symbology": {
      "alert_categories": [
        {
          "color": "#d6604d",
          "icon": "exclamation",
          "id": "red_points_36_50",
          "label": "36-50 red points",
          "max": 50,
          "min": 36,
          "shape": "diamond",
          "stroke": "#ffffff"
        },
        {
          "color": "#c23030",
          "icon": "exclamation",
          "id": "red_points_51_75",
          "label": "51-75 red points",
          "max": 75,
          "min": 51,
          "shape": "diamond",
          "stroke": "#ffffff"
        },
        {
          "color": "#9f1d2d",
          "icon": "exclamation",
          "id": "red_points_76_100",
          "label": "76-100 red points",
          "max": 100,
          "min": 76,
          "shape": "diamond",
          "stroke": "#ffffff"
        },
        {
          "color": "#67000d",
          "icon": "exclamation",
          "id": "red_points_101_plus",
          "label": "101+ red points",
          "max": null,
          "min": 101,
          "shape": "diamond",
          "stroke": "#ffffff"
        }
      ],
      "evergreen_categories": [
        {
          "color": "#2e7d32",
          "id": "rating_great",
          "label": "Great",
          "letter": "G",
          "shape": "circle"
        },
        {
          "color": "#d88c1f",
          "id": "rating_okay",
          "label": "Okay",
          "letter": "O",
          "shape": "circle"
        },
        {
          "color": "#b61f2d",
          "id": "rating_needs_improve",
          "label": "Needs to improve",
          "letter": "N",
          "shape": "circle"
        },
        {
          "color": "#4b5563",
          "id": "rating_closed",
          "label": "Closed",
          "letter": "C",
          "shape": "circle"
        },
        {
          "color": "#6b7280",
          "id": "rating_new_unknown",
          "label": "New or unavailable",
          "letter": "?",
          "shape": "circle"
        }
      ],
      "note": "Evergreen markers use current TPCHD rating as the primary color/letter encoding. Alert/run maps use fixed red-point classes with darker red for higher totals. Marker size does not encode severity."
    },
    "threshold_label": "More than 35 red points",
    "threshold_rule": "red_points > 35",
    "title": "Tacoma-Pierce County restaurant inspection history and current ratings",
    "unmapped_records": 0,
    "unmapped_records_by_reason": {}
  },
  "type": "FeatureCollection"
}
